<?xml version="1.0" encoding="UTF-8"?>
<gpx xmlns="http://www.topografix.com/GPX/1/1" version="1.1" creator="CyclingTW merged">
  <metadata>
    <name>Day 1 西濱海岸線追風之旅</name>
    <bounds minlat="24.839641" minlon="120.923192" maxlat="25.160692" maxlon="121.465268"/>
  </metadata>
  <wpt lat="25.088225" lon="121.4626333"><name>蘆洲柳堤公園</name><sym>Flag, Green</sym></wpt>
  <wpt lat="25.1511404" lon="121.4429224"><name>八里左岸自行車道</name><sym>Waypoint</sym></wpt>
  <wpt lat="25.1530647" lon="121.4019101"><name>7-ELEVEN 里商門市</name><sym>Waypoint</sym></wpt>
  <wpt lat="25.1198168" lon="121.3188263"><name>水牛坑越野場地</name><sym>Waypoint</sym></wpt>
  <wpt lat="25.117158" lon="121.2444776"><name>竹圍漁港</name><sym>Waypoint</sym></wpt>
  <wpt lat="25.030819" lon="121.0698247"><name>7-ELEVEN 大益門市</name><sym>Waypoint</sym></wpt>
  <wpt lat="24.987719" lon="121.01578839"><name>永安漁港</name><sym>Waypoint</sym></wpt>
  <wpt lat="24.9877247" lon="121.01464919"><name>江戶壽司（永安漁港）</name><sym>Waypoint</sym></wpt>
  <wpt lat="24.9882131" lon="121.0185329"><name>7-ELEVEN 永安港門市</name><sym>Waypoint</sym></wpt>
  <wpt lat="24.84875" lon="120.9252429"><name>新竹南寮漁港</name><sym>Waypoint</sym></wpt>
  <wpt lat="24.686588999" lon="120.8805627"><name>竹南車站</name><sym>Flag, Red</sym></wpt>
  <trk><name>Day 1 完整軌跡</name><trkseg>
    <trkpt lat="25.088572" lon="121.462579"/>
    <trkpt lat="25.088581" lon="121.462649"/>
    <trkpt lat="25.088651" lon="121.463096"/>
    <trkpt lat="25.089256" lon="121.464249"/>
    <trkpt lat="25.089488" lon="121.464654"/>
    <trkpt lat="25.089867" lon="121.465268"/>
    <trkpt lat="25.090215" lon="121.465031"/>
    <trkpt lat="25.090954" lon="121.464528"/>
    <trkpt lat="25.091004" lon="121.46449"/>
    <trkpt lat="25.091107" lon="121.464429"/>
    <trkpt lat="25.091191" lon="121.464385"/>
    <trkpt lat="25.091331" lon="121.464297"/>
    <trkpt lat="25.09218" lon="121.463825"/>
    <trkpt lat="25.093212" lon="121.463238"/>
    <trkpt lat="25.093537" lon="121.463057"/>
    <trkpt lat="25.093769" lon="121.462958"/>
    <trkpt lat="25.094059" lon="121.462837"/>
    <trkpt lat="25.094602" lon="121.462615"/>
    <trkpt lat="25.095158" lon="121.462389"/>
    <trkpt lat="25.095437" lon="121.462279"/>
    <trkpt lat="25.09551" lon="121.46225"/>
    <trkpt lat="25.095738" lon="121.462163"/>
    <trkpt lat="25.096187" lon="121.462"/>
    <trkpt lat="25.096457" lon="121.461904"/>
    <trkpt lat="25.096798" lon="121.461779"/>
    <trkpt lat="25.096981" lon="121.461694"/>
    <trkpt lat="25.097099" lon="121.461595"/>
    <trkpt lat="25.097161" lon="121.461494"/>
    <trkpt lat="25.097236" lon="121.461252"/>
    <trkpt lat="25.097253" lon="121.461173"/>
    <trkpt lat="25.097266" lon="121.461109"/>
    <trkpt lat="25.097313" lon="121.460956"/>
    <trkpt lat="25.097577" lon="121.460971"/>
    <trkpt lat="25.098084" lon="121.461263"/>
    <trkpt lat="25.098399" lon="121.461391"/>
    <trkpt lat="25.098466" lon="121.461302"/>
    <trkpt lat="25.098194" lon="121.460861"/>
    <trkpt lat="25.098117" lon="121.460619"/>
    <trkpt lat="25.097819" lon="121.459095"/>
    <trkpt lat="25.097752" lon="121.458616"/>
    <trkpt lat="25.097718" lon="121.458228"/>
    <trkpt lat="25.097694" lon="121.457964"/>
    <trkpt lat="25.09768" lon="121.4579"/>
    <trkpt lat="25.0979" lon="121.457765"/>
    <trkpt lat="25.098035" lon="121.4576"/>
    <trkpt lat="25.098162" lon="121.457521"/>
    <trkpt lat="25.098377" lon="121.457332"/>
    <trkpt lat="25.098533" lon="121.457128"/>
    <trkpt lat="25.098637" lon="121.457033"/>
    <trkpt lat="25.098725" lon="121.45699"/>
    <trkpt lat="25.098849" lon="121.45694"/>
    <trkpt lat="25.099343" lon="121.456509"/>
    <trkpt lat="25.100455" lon="121.455479"/>
    <trkpt lat="25.100684" lon="121.455311"/>
    <trkpt lat="25.100777" lon="121.45527"/>
    <trkpt lat="25.100838" lon="121.455307"/>
    <trkpt lat="25.101141" lon="121.455385"/>
    <trkpt lat="25.101575" lon="121.455727"/>
    <trkpt lat="25.10185" lon="121.455927"/>
    <trkpt lat="25.102026" lon="121.456026"/>
    <trkpt lat="25.102228" lon="121.456095"/>
    <trkpt lat="25.102253" lon="121.456013"/>
    <trkpt lat="25.1026" lon="121.454905"/>
    <trkpt lat="25.10267" lon="121.454813"/>
    <trkpt lat="25.102734" lon="121.454732"/>
    <trkpt lat="25.103354" lon="121.455133"/>
    <trkpt lat="25.103767" lon="121.455439"/>
    <trkpt lat="25.104001" lon="121.455591"/>
    <trkpt lat="25.104243" lon="121.455675"/>
    <trkpt lat="25.104996" lon="121.455767"/>
    <trkpt lat="25.105756" lon="121.455838"/>
    <trkpt lat="25.105892" lon="121.455776"/>
    <trkpt lat="25.105909" lon="121.455768"/>
    <trkpt lat="25.106068" lon="121.455816"/>
    <trkpt lat="25.106588" lon="121.45596"/>
    <trkpt lat="25.106671" lon="121.45598"/>
    <trkpt lat="25.10678" lon="121.45586"/>
    <trkpt lat="25.106962" lon="121.455855"/>
    <trkpt lat="25.10713" lon="121.455882"/>
    <trkpt lat="25.107289" lon="121.45593"/>
    <trkpt lat="25.108557" lon="121.45618"/>
    <trkpt lat="25.109599" lon="121.456433"/>
    <trkpt lat="25.10981" lon="121.456507"/>
    <trkpt lat="25.110373" lon="121.456791"/>
    <trkpt lat="25.110694" lon="121.457206"/>
    <trkpt lat="25.110956" lon="121.457444"/>
    <trkpt lat="25.111191" lon="121.457645"/>
    <trkpt lat="25.111382" lon="121.457789"/>
    <trkpt lat="25.111655" lon="121.457995"/>
    <trkpt lat="25.111976" lon="121.458204"/>
    <trkpt lat="25.112234" lon="121.458413"/>
    <trkpt lat="25.112504" lon="121.458633"/>
    <trkpt lat="25.11254" lon="121.458655"/>
    <trkpt lat="25.112851" lon="121.458836"/>
    <trkpt lat="25.113301" lon="121.459003"/>
    <trkpt lat="25.113643" lon="121.459068"/>
    <trkpt lat="25.113792" lon="121.459072"/>
    <trkpt lat="25.113974" lon="121.459056"/>
    <trkpt lat="25.114225" lon="121.459009"/>
    <trkpt lat="25.114533" lon="121.458924"/>
    <trkpt lat="25.114874" lon="121.458788"/>
    <trkpt lat="25.115683" lon="121.45839"/>
    <trkpt lat="25.116198" lon="121.458298"/>
    <trkpt lat="25.1164" lon="121.458247"/>
    <trkpt lat="25.116666" lon="121.45819"/>
    <trkpt lat="25.117252" lon="121.458058"/>
    <trkpt lat="25.117633" lon="121.457923"/>
    <trkpt lat="25.117706" lon="121.457896"/>
    <trkpt lat="25.118021" lon="121.457769"/>
    <trkpt lat="25.118491" lon="121.457676"/>
    <trkpt lat="25.118687" lon="121.457687"/>
    <trkpt lat="25.118997" lon="121.45759"/>
    <trkpt lat="25.119154" lon="121.457522"/>
    <trkpt lat="25.119258" lon="121.457451"/>
    <trkpt lat="25.119355" lon="121.457363"/>
    <trkpt lat="25.119531" lon="121.457148"/>
    <trkpt lat="25.119591" lon="121.457099"/>
    <trkpt lat="25.119741" lon="121.456981"/>
    <trkpt lat="25.120075" lon="121.456797"/>
    <trkpt lat="25.120154" lon="121.456775"/>
    <trkpt lat="25.120382" lon="121.456775"/>
    <trkpt lat="25.120408" lon="121.456775"/>
    <trkpt lat="25.12064" lon="121.456729"/>
    <trkpt lat="25.120739" lon="121.456694"/>
    <trkpt lat="25.120822" lon="121.456658"/>
    <trkpt lat="25.121101" lon="121.456469"/>
    <trkpt lat="25.121269" lon="121.456394"/>
    <trkpt lat="25.121495" lon="121.45634"/>
    <trkpt lat="25.121575" lon="121.456301"/>
    <trkpt lat="25.122345" lon="121.455892"/>
    <trkpt lat="25.122648" lon="121.455597"/>
    <trkpt lat="25.12287" lon="121.455504"/>
    <trkpt lat="25.123094" lon="121.45538"/>
    <trkpt lat="25.123186" lon="121.455368"/>
    <trkpt lat="25.123222" lon="121.455395"/>
    <trkpt lat="25.123272" lon="121.455385"/>
    <trkpt lat="25.123962" lon="121.454808"/>
    <trkpt lat="25.124226" lon="121.454648"/>
    <trkpt lat="25.124374" lon="121.454577"/>
    <trkpt lat="25.124427" lon="121.454519"/>
    <trkpt lat="25.124699" lon="121.454339"/>
    <trkpt lat="25.124868" lon="121.4543"/>
    <trkpt lat="25.125038" lon="121.454342"/>
    <trkpt lat="25.125248" lon="121.454467"/>
    <trkpt lat="25.125329" lon="121.454458"/>
    <trkpt lat="25.125383" lon="121.454389"/>
    <trkpt lat="25.125436" lon="121.454294"/>
    <trkpt lat="25.12554" lon="121.45413"/>
    <trkpt lat="25.12567" lon="121.454025"/>
    <trkpt lat="25.125757" lon="121.45398"/>
    <trkpt lat="25.125874" lon="121.453947"/>
    <trkpt lat="25.12608" lon="121.453945"/>
    <trkpt lat="25.12616" lon="121.453914"/>
    <trkpt lat="25.126258" lon="121.453865"/>
    <trkpt lat="25.126296" lon="121.453823"/>
    <trkpt lat="25.126391" lon="121.453621"/>
    <trkpt lat="25.126457" lon="121.453515"/>
    <trkpt lat="25.126504" lon="121.453473"/>
    <trkpt lat="25.127185" lon="121.453112"/>
    <trkpt lat="25.127315" lon="121.453055"/>
    <trkpt lat="25.127866" lon="121.452797"/>
    <trkpt lat="25.128066" lon="121.452719"/>
    <trkpt lat="25.128511" lon="121.452688"/>
    <trkpt lat="25.12858" lon="121.45269"/>
    <trkpt lat="25.128713" lon="121.45273"/>
    <trkpt lat="25.128867" lon="121.452672"/>
    <trkpt lat="25.129322" lon="121.452616"/>
    <trkpt lat="25.129519" lon="121.452512"/>
    <trkpt lat="25.129976" lon="121.452361"/>
    <trkpt lat="25.130055" lon="121.452349"/>
    <trkpt lat="25.130125" lon="121.452327"/>
    <trkpt lat="25.130232" lon="121.452239"/>
    <trkpt lat="25.130334" lon="121.452235"/>
    <trkpt lat="25.130438" lon="121.452274"/>
    <trkpt lat="25.13053" lon="121.452285"/>
    <trkpt lat="25.130707" lon="121.452371"/>
    <trkpt lat="25.130783" lon="121.452376"/>
    <trkpt lat="25.130995" lon="121.452307"/>
    <trkpt lat="25.131144" lon="121.452297"/>
    <trkpt lat="25.131859" lon="121.452385"/>
    <trkpt lat="25.131892" lon="121.452401"/>
    <trkpt lat="25.132009" lon="121.452429"/>
    <trkpt lat="25.132077" lon="121.452432"/>
    <trkpt lat="25.132145" lon="121.452456"/>
    <trkpt lat="25.132322" lon="121.452462"/>
    <trkpt lat="25.132344" lon="121.452414"/>
    <trkpt lat="25.13242" lon="121.452397"/>
    <trkpt lat="25.13251" lon="121.452435"/>
    <trkpt lat="25.132646" lon="121.452398"/>
    <trkpt lat="25.132722" lon="121.452356"/>
    <trkpt lat="25.132868" lon="121.45224"/>
    <trkpt lat="25.132895" lon="121.452233"/>
    <trkpt lat="25.133203" lon="121.452156"/>
    <trkpt lat="25.133375" lon="121.452152"/>
    <trkpt lat="25.133442" lon="121.452146"/>
    <trkpt lat="25.133541" lon="121.452124"/>
    <trkpt lat="25.133786" lon="121.452024"/>
    <trkpt lat="25.13398" lon="121.451971"/>
    <trkpt lat="25.134149" lon="121.451889"/>
    <trkpt lat="25.134186" lon="121.451815"/>
    <trkpt lat="25.134208" lon="121.451789"/>
    <trkpt lat="25.135391" lon="121.451318"/>
    <trkpt lat="25.135796" lon="121.450959"/>
    <trkpt lat="25.135973" lon="121.450825"/>
    <trkpt lat="25.136249" lon="121.450673"/>
    <trkpt lat="25.136738" lon="121.45045"/>
    <trkpt lat="25.137161" lon="121.450268"/>
    <trkpt lat="25.137329" lon="121.450219"/>
    <trkpt lat="25.137539" lon="121.450256"/>
    <trkpt lat="25.137675" lon="121.450201"/>
    <trkpt lat="25.137815" lon="121.450204"/>
    <trkpt lat="25.138061" lon="121.450137"/>
    <trkpt lat="25.1381" lon="121.450061"/>
    <trkpt lat="25.138135" lon="121.450037"/>
    <trkpt lat="25.138182" lon="121.450029"/>
    <trkpt lat="25.138254" lon="121.450039"/>
    <trkpt lat="25.138293" lon="121.450024"/>
    <trkpt lat="25.138874" lon="121.449744"/>
    <trkpt lat="25.138904" lon="121.449743"/>
    <trkpt lat="25.139283" lon="121.449592"/>
    <trkpt lat="25.140356" lon="121.449221"/>
    <trkpt lat="25.140447" lon="121.449165"/>
    <trkpt lat="25.141216" lon="121.448901"/>
    <trkpt lat="25.141343" lon="121.44886"/>
    <trkpt lat="25.141443" lon="121.448812"/>
    <trkpt lat="25.141576" lon="121.448778"/>
    <trkpt lat="25.141798" lon="121.448754"/>
    <trkpt lat="25.141844" lon="121.448747"/>
    <trkpt lat="25.142015" lon="121.448714"/>
    <trkpt lat="25.142187" lon="121.448649"/>
    <trkpt lat="25.14237" lon="121.448597"/>
    <trkpt lat="25.142555" lon="121.448494"/>
    <trkpt lat="25.142648" lon="121.448392"/>
    <trkpt lat="25.142783" lon="121.448321"/>
    <trkpt lat="25.142863" lon="121.448234"/>
    <trkpt lat="25.142965" lon="121.448124"/>
    <trkpt lat="25.14316" lon="121.447994"/>
    <trkpt lat="25.143357" lon="121.447893"/>
    <trkpt lat="25.143495" lon="121.447733"/>
    <trkpt lat="25.143781" lon="121.447448"/>
    <trkpt lat="25.144145" lon="121.447212"/>
    <trkpt lat="25.144201" lon="121.447195"/>
    <trkpt lat="25.144317" lon="121.447154"/>
    <trkpt lat="25.144617" lon="121.446991"/>
    <trkpt lat="25.144882" lon="121.446975"/>
    <trkpt lat="25.144949" lon="121.446938"/>
    <trkpt lat="25.144994" lon="121.446911"/>
    <trkpt lat="25.146199" lon="121.446384"/>
    <trkpt lat="25.146297" lon="121.446344"/>
    <trkpt lat="25.14659" lon="121.446291"/>
    <trkpt lat="25.146778" lon="121.446231"/>
    <trkpt lat="25.146939" lon="121.446158"/>
    <trkpt lat="25.147089" lon="121.446058"/>
    <trkpt lat="25.147643" lon="121.445777"/>
    <trkpt lat="25.147819" lon="121.445637"/>
    <trkpt lat="25.147873" lon="121.445583"/>
    <trkpt lat="25.148123" lon="121.445298"/>
    <trkpt lat="25.148149" lon="121.445121"/>
    <trkpt lat="25.148268" lon="121.444984"/>
    <trkpt lat="25.148729" lon="121.444747"/>
    <trkpt lat="25.14884" lon="121.444636"/>
    <trkpt lat="25.148917" lon="121.444622"/>
    <trkpt lat="25.148949" lon="121.444632"/>
    <trkpt lat="25.14899" lon="121.444624"/>
    <trkpt lat="25.149209" lon="121.444466"/>
    <trkpt lat="25.149572" lon="121.444178"/>
    <trkpt lat="25.1498" lon="121.443965"/>
    <trkpt lat="25.149957" lon="121.443849"/>
    <trkpt lat="25.150024" lon="121.443793"/>
    <trkpt lat="25.150081" lon="121.443745"/>
    <trkpt lat="25.150292" lon="121.443644"/>
    <trkpt lat="25.150411" lon="121.443485"/>
    <trkpt lat="25.150553" lon="121.443412"/>
    <trkpt lat="25.151062" lon="121.44299"/>
    <trkpt lat="25.151115" lon="121.442975"/>
    <trkpt lat="25.151131" lon="121.442919"/>
    <trkpt lat="25.151131" lon="121.442919"/>
    <trkpt lat="25.151115" lon="121.442975"/>
    <trkpt lat="25.15121" lon="121.442965"/>
    <trkpt lat="25.151503" lon="121.442689"/>
    <trkpt lat="25.151846" lon="121.4425"/>
    <trkpt lat="25.152087" lon="121.44232"/>
    <trkpt lat="25.152189" lon="121.442222"/>
    <trkpt lat="25.15234" lon="121.441991"/>
    <trkpt lat="25.152632" lon="121.441828"/>
    <trkpt lat="25.152706" lon="121.441823"/>
    <trkpt lat="25.152759" lon="121.441786"/>
    <trkpt lat="25.152948" lon="121.441595"/>
    <trkpt lat="25.153025" lon="121.441557"/>
    <trkpt lat="25.15334" lon="121.441421"/>
    <trkpt lat="25.153691" lon="121.44115"/>
    <trkpt lat="25.15374" lon="121.44109"/>
    <trkpt lat="25.153824" lon="121.440867"/>
    <trkpt lat="25.153899" lon="121.440827"/>
    <trkpt lat="25.154073" lon="121.440793"/>
    <trkpt lat="25.154113" lon="121.440789"/>
    <trkpt lat="25.154581" lon="121.440757"/>
    <trkpt lat="25.15462" lon="121.44074"/>
    <trkpt lat="25.154666" lon="121.440679"/>
    <trkpt lat="25.154687" lon="121.440533"/>
    <trkpt lat="25.154633" lon="121.440201"/>
    <trkpt lat="25.15464" lon="121.440138"/>
    <trkpt lat="25.154696" lon="121.439954"/>
    <trkpt lat="25.15471" lon="121.439926"/>
    <trkpt lat="25.154776" lon="121.439816"/>
    <trkpt lat="25.154806" lon="121.439771"/>
    <trkpt lat="25.155138" lon="121.43934"/>
    <trkpt lat="25.155193" lon="121.439265"/>
    <trkpt lat="25.15524" lon="121.439215"/>
    <trkpt lat="25.155583" lon="121.438865"/>
    <trkpt lat="25.155794" lon="121.438617"/>
    <trkpt lat="25.156047" lon="121.438246"/>
    <trkpt lat="25.156205" lon="121.438144"/>
    <trkpt lat="25.156381" lon="121.437936"/>
    <trkpt lat="25.156463" lon="121.43778"/>
    <trkpt lat="25.15667" lon="121.437483"/>
    <trkpt lat="25.156759" lon="121.437352"/>
    <trkpt lat="25.157055" lon="121.437062"/>
    <trkpt lat="25.157223" lon="121.43684"/>
    <trkpt lat="25.157481" lon="121.436573"/>
    <trkpt lat="25.157594" lon="121.43639"/>
    <trkpt lat="25.157873" lon="121.436163"/>
    <trkpt lat="25.15791" lon="121.436105"/>
    <trkpt lat="25.157974" lon="121.435877"/>
    <trkpt lat="25.158035" lon="121.435822"/>
    <trkpt lat="25.158145" lon="121.435723"/>
    <trkpt lat="25.158498" lon="121.435405"/>
    <trkpt lat="25.158549" lon="121.43536"/>
    <trkpt lat="25.158771" lon="121.43516"/>
    <trkpt lat="25.159525" lon="121.43429"/>
    <trkpt lat="25.159652" lon="121.434114"/>
    <trkpt lat="25.159622" lon="121.434035"/>
    <trkpt lat="25.15978" lon="121.433892"/>
    <trkpt lat="25.159861" lon="121.433814"/>
    <trkpt lat="25.159933" lon="121.433644"/>
    <trkpt lat="25.160184" lon="121.433446"/>
    <trkpt lat="25.160242" lon="121.433359"/>
    <trkpt lat="25.160419" lon="121.433058"/>
    <trkpt lat="25.16048" lon="121.432841"/>
    <trkpt lat="25.160566" lon="121.432679"/>
    <trkpt lat="25.160692" lon="121.432514"/>
    <trkpt lat="25.030741" lon="121.06972"/>
    <trkpt lat="25.030899" lon="121.069577"/>
    <trkpt lat="25.031238" lon="121.069222"/>
    <trkpt lat="25.031492" lon="121.06906"/>
    <trkpt lat="25.031597" lon="121.069209"/>
    <trkpt lat="25.031774" lon="121.069073"/>
    <trkpt lat="25.031953" lon="121.06939"/>
    <trkpt lat="25.032022" lon="121.069325"/>
    <trkpt lat="25.032259" lon="121.069219"/>
    <trkpt lat="25.032381" lon="121.069404"/>
    <trkpt lat="25.032763" lon="121.069036"/>
    <trkpt lat="25.033029" lon="121.069463"/>
    <trkpt lat="25.033435" lon="121.070129"/>
    <trkpt lat="25.033593" lon="121.070154"/>
    <trkpt lat="25.033699" lon="121.070401"/>
    <trkpt lat="25.034481" lon="121.071316"/>
    <trkpt lat="25.034584" lon="121.071452"/>
    <trkpt lat="25.034666" lon="121.07138"/>
    <trkpt lat="25.034545" lon="121.07126"/>
    <trkpt lat="25.034352" lon="121.071006"/>
    <trkpt lat="25.033772" lon="121.070344"/>
    <trkpt lat="25.033683" lon="121.070208"/>
    <trkpt lat="25.033649" lon="121.070049"/>
    <trkpt lat="25.033642" lon="121.069859"/>
    <trkpt lat="25.03368" lon="121.069659"/>
    <trkpt lat="25.03381" lon="121.069475"/>
    <trkpt lat="25.034941" lon="121.068466"/>
    <trkpt lat="25.035002" lon="121.068368"/>
    <trkpt lat="25.036241" lon="121.067206"/>
    <trkpt lat="25.036691" lon="121.066889"/>
    <trkpt lat="25.036884" lon="121.066779"/>
    <trkpt lat="25.037758" lon="121.066395"/>
    <trkpt lat="25.038109" lon="121.06623"/>
    <trkpt lat="25.038071" lon="121.06616"/>
    <trkpt lat="25.037982" lon="121.065999"/>
    <trkpt lat="25.037407" lon="121.06451"/>
    <trkpt lat="25.036941" lon="121.063463"/>
    <trkpt lat="25.036167" lon="121.06194"/>
    <trkpt lat="25.035377" lon="121.060503"/>
    <trkpt lat="25.03495" lon="121.059794"/>
    <trkpt lat="25.03476" lon="121.059542"/>
    <trkpt lat="25.034232" lon="121.058771"/>
    <trkpt lat="25.033557" lon="121.057852"/>
    <trkpt lat="25.032856" lon="121.056984"/>
    <trkpt lat="25.032738" lon="121.056747"/>
    <trkpt lat="25.032386" lon="121.056274"/>
    <trkpt lat="25.031857" lon="121.055655"/>
    <trkpt lat="25.031485" lon="121.055221"/>
    <trkpt lat="25.031131" lon="121.054826"/>
    <trkpt lat="25.030689" lon="121.054135"/>
    <trkpt lat="25.03054" lon="121.053952"/>
    <trkpt lat="25.030213" lon="121.053495"/>
    <trkpt lat="25.029806" lon="121.052998"/>
    <trkpt lat="25.029704" lon="121.05291"/>
    <trkpt lat="25.029151" lon="121.052348"/>
    <trkpt lat="25.02818" lon="121.05168"/>
    <trkpt lat="25.027877" lon="121.051385"/>
    <trkpt lat="25.026782" lon="121.050186"/>
    <trkpt lat="25.026025" lon="121.049419"/>
    <trkpt lat="25.02101" lon="121.044036"/>
    <trkpt lat="25.019583" lon="121.04249"/>
    <trkpt lat="25.014608" lon="121.037071"/>
    <trkpt lat="25.013964" lon="121.036381"/>
    <trkpt lat="25.013362" lon="121.03573"/>
    <trkpt lat="25.012953" lon="121.035288"/>
    <trkpt lat="25.011626" lon="121.033956"/>
    <trkpt lat="25.010574" lon="121.032973"/>
    <trkpt lat="25.009142" lon="121.031662"/>
    <trkpt lat="25.008749" lon="121.031302"/>
    <trkpt lat="25.008398" lon="121.031041"/>
    <trkpt lat="25.007584" lon="121.030428"/>
    <trkpt lat="25.005178" lon="121.028778"/>
    <trkpt lat="25.004134" lon="121.028142"/>
    <trkpt lat="25.003591" lon="121.027812"/>
    <trkpt lat="25.002474" lon="121.027218"/>
    <trkpt lat="25.000768" lon="121.026312"/>
    <trkpt lat="24.999125" lon="121.025493"/>
    <trkpt lat="24.998918" lon="121.02539"/>
    <trkpt lat="24.998578" lon="121.025222"/>
    <trkpt lat="24.997146" lon="121.024534"/>
    <trkpt lat="24.995349" lon="121.02364"/>
    <trkpt lat="24.993623" lon="121.022795"/>
    <trkpt lat="24.991826" lon="121.021933"/>
    <trkpt lat="24.991708" lon="121.021876"/>
    <trkpt lat="24.989961" lon="121.021166"/>
    <trkpt lat="24.988382" lon="121.02064"/>
    <trkpt lat="24.988301" lon="121.020614"/>
    <trkpt lat="24.987975" lon="121.020529"/>
    <trkpt lat="24.988011" lon="121.020094"/>
    <trkpt lat="24.988037" lon="121.01955"/>
    <trkpt lat="24.988006" lon="121.01946"/>
    <trkpt lat="24.988137" lon="121.018371"/>
    <trkpt lat="24.988224" lon="121.018258"/>
    <trkpt lat="24.988187" lon="121.018201"/>
    <trkpt lat="24.987638" lon="121.017967"/>
    <trkpt lat="24.987533" lon="121.017939"/>
    <trkpt lat="24.987436" lon="121.017952"/>
    <trkpt lat="24.987427" lon="121.017809"/>
    <trkpt lat="24.987465" lon="121.017579"/>
    <trkpt lat="24.987664" lon="121.016864"/>
    <trkpt lat="24.987605" lon="121.016739"/>
    <trkpt lat="24.987677" lon="121.016512"/>
    <trkpt lat="24.988001" lon="121.015331"/>
    <trkpt lat="24.987866" lon="121.015282"/>
    <trkpt lat="24.987728" lon="121.015791"/>
    <trkpt lat="24.987728" lon="121.015791"/>
    <trkpt lat="24.987543" lon="121.016479"/>
    <trkpt lat="24.987479" lon="121.016644"/>
    <trkpt lat="24.987402" lon="121.016725"/>
    <trkpt lat="24.987262" lon="121.01673"/>
    <trkpt lat="24.987295" lon="121.017621"/>
    <trkpt lat="24.987358" lon="121.017832"/>
    <trkpt lat="24.987436" lon="121.017952"/>
    <trkpt lat="24.987365" lon="121.017983"/>
    <trkpt lat="24.987254" lon="121.017731"/>
    <trkpt lat="24.987208" lon="121.017529"/>
    <trkpt lat="24.987169" lon="121.017452"/>
    <trkpt lat="24.987234" lon="121.017504"/>
    <trkpt lat="24.987214" lon="121.017262"/>
    <trkpt lat="24.987245" lon="121.016714"/>
    <trkpt lat="24.987386" lon="121.016206"/>
    <trkpt lat="24.987719" lon="121.015009"/>
    <trkpt lat="24.987796" lon="121.014669"/>
    <trkpt lat="24.987796" lon="121.014669"/>
    <trkpt lat="24.987719" lon="121.015009"/>
    <trkpt lat="24.987386" lon="121.016206"/>
    <trkpt lat="24.987245" lon="121.016714"/>
    <trkpt lat="24.987214" lon="121.017262"/>
    <trkpt lat="24.987234" lon="121.017504"/>
    <trkpt lat="24.987169" lon="121.017452"/>
    <trkpt lat="24.987208" lon="121.017529"/>
    <trkpt lat="24.987254" lon="121.017731"/>
    <trkpt lat="24.987365" lon="121.017983"/>
    <trkpt lat="24.987436" lon="121.017952"/>
    <trkpt lat="24.987533" lon="121.017939"/>
    <trkpt lat="24.987638" lon="121.017967"/>
    <trkpt lat="24.988187" lon="121.018201"/>
    <trkpt lat="24.988224" lon="121.018258"/>
    <trkpt lat="24.988137" lon="121.018371"/>
    <trkpt lat="24.988119" lon="121.018519"/>
    <trkpt lat="24.988119" lon="121.018519"/>
    <trkpt lat="24.988006" lon="121.01946"/>
    <trkpt lat="24.987957" lon="121.019555"/>
    <trkpt lat="24.987921" lon="121.020141"/>
    <trkpt lat="24.987885" lon="121.020499"/>
    <trkpt lat="24.987548" lon="121.020389"/>
    <trkpt lat="24.987302" lon="121.020304"/>
    <trkpt lat="24.98626" lon="121.019983"/>
    <trkpt lat="24.984036" lon="121.019463"/>
    <trkpt lat="24.982872" lon="121.019249"/>
    <trkpt lat="24.979573" lon="121.01879"/>
    <trkpt lat="24.978445" lon="121.018597"/>
    <trkpt lat="24.978026" lon="121.018496"/>
    <trkpt lat="24.977348" lon="121.018347"/>
    <trkpt lat="24.976097" lon="121.018028"/>
    <trkpt lat="24.975723" lon="121.017946"/>
    <trkpt lat="24.974242" lon="121.017496"/>
    <trkpt lat="24.973553" lon="121.017254"/>
    <trkpt lat="24.973233" lon="121.017151"/>
    <trkpt lat="24.971055" lon="121.016257"/>
    <trkpt lat="24.970734" lon="121.016122"/>
    <trkpt lat="24.9692" lon="121.015331"/>
    <trkpt lat="24.968459" lon="121.014959"/>
    <trkpt lat="24.96653" lon="121.013936"/>
    <trkpt lat="24.966369" lon="121.013848"/>
    <trkpt lat="24.964983" lon="121.01315"/>
    <trkpt lat="24.963926" lon="121.012568"/>
    <trkpt lat="24.96224" lon="121.011577"/>
    <trkpt lat="24.961362" lon="121.01098"/>
    <trkpt lat="24.960628" lon="121.010438"/>
    <trkpt lat="24.959581" lon="121.009636"/>
    <trkpt lat="24.959128" lon="121.009227"/>
    <trkpt lat="24.957674" lon="121.007871"/>
    <trkpt lat="24.956886" lon="121.007042"/>
    <trkpt lat="24.956147" lon="121.006207"/>
    <trkpt lat="24.955475" lon="121.005312"/>
    <trkpt lat="24.954819" lon="121.004479"/>
    <trkpt lat="24.953699" lon="121.00283"/>
    <trkpt lat="24.953262" lon="121.002094"/>
    <trkpt lat="24.951773" lon="120.999421"/>
    <trkpt lat="24.951249" lon="120.998552"/>
    <trkpt lat="24.950667" lon="120.997663"/>
    <trkpt lat="24.94999" lon="120.996724"/>
    <trkpt lat="24.949162" lon="120.995659"/>
    <trkpt lat="24.948903" lon="120.995332"/>
    <trkpt lat="24.948412" lon="120.994758"/>
    <trkpt lat="24.947951" lon="120.994252"/>
    <trkpt lat="24.946608" lon="120.992894"/>
    <trkpt lat="24.945865" lon="120.992215"/>
    <trkpt lat="24.944859" lon="120.991369"/>
    <trkpt lat="24.944337" lon="120.990968"/>
    <trkpt lat="24.942877" lon="120.989886"/>
    <trkpt lat="24.940355" lon="120.988331"/>
    <trkpt lat="24.938014" lon="120.986834"/>
    <trkpt lat="24.937113" lon="120.986206"/>
    <trkpt lat="24.936289" lon="120.985526"/>
    <trkpt lat="24.935395" lon="120.984843"/>
    <trkpt lat="24.9348" lon="120.984322"/>
    <trkpt lat="24.933474" lon="120.983055"/>
    <trkpt lat="24.932055" lon="120.981697"/>
    <trkpt lat="24.930632" lon="120.980332"/>
    <trkpt lat="24.929211" lon="120.978979"/>
    <trkpt lat="24.927784" lon="120.977631"/>
    <trkpt lat="24.92637" lon="120.976279"/>
    <trkpt lat="24.925256" lon="120.975201"/>
    <trkpt lat="24.924067" lon="120.974086"/>
    <trkpt lat="24.923212" lon="120.973465"/>
    <trkpt lat="24.921935" lon="120.972691"/>
    <trkpt lat="24.920823" lon="120.972254"/>
    <trkpt lat="24.920046" lon="120.972047"/>
    <trkpt lat="24.919469" lon="120.971924"/>
    <trkpt lat="24.919159" lon="120.971888"/>
    <trkpt lat="24.918798" lon="120.971845"/>
    <trkpt lat="24.918249" lon="120.971814"/>
    <trkpt lat="24.918114" lon="120.971806"/>
    <trkpt lat="24.917963" lon="120.97181"/>
    <trkpt lat="24.917831" lon="120.971814"/>
    <trkpt lat="24.917294" lon="120.97183"/>
    <trkpt lat="24.916897" lon="120.971863"/>
    <trkpt lat="24.916382" lon="120.971906"/>
    <trkpt lat="24.915694" lon="120.971962"/>
    <trkpt lat="24.915577" lon="120.97197"/>
    <trkpt lat="24.913981" lon="120.972072"/>
    <trkpt lat="24.913232" lon="120.972174"/>
    <trkpt lat="24.911637" lon="120.972315"/>
    <trkpt lat="24.906926" lon="120.972676"/>
    <trkpt lat="24.905743" lon="120.972655"/>
    <trkpt lat="24.904971" lon="120.972576"/>
    <trkpt lat="24.904294" lon="120.972469"/>
    <trkpt lat="24.903808" lon="120.97232"/>
    <trkpt lat="24.902562" lon="120.971824"/>
    <trkpt lat="24.902315" lon="120.971711"/>
    <trkpt lat="24.901881" lon="120.971462"/>
    <trkpt lat="24.901512" lon="120.971177"/>
    <trkpt lat="24.901457" lon="120.971134"/>
    <trkpt lat="24.901403" lon="120.971098"/>
    <trkpt lat="24.900789" lon="120.970677"/>
    <trkpt lat="24.900248" lon="120.97018"/>
    <trkpt lat="24.899929" lon="120.969839"/>
    <trkpt lat="24.89866" lon="120.968406"/>
    <trkpt lat="24.898603" lon="120.968342"/>
    <trkpt lat="24.898561" lon="120.968291"/>
    <trkpt lat="24.89823" lon="120.96789"/>
    <trkpt lat="24.897491" lon="120.966933"/>
    <trkpt lat="24.897442" lon="120.966869"/>
    <trkpt lat="24.897123" lon="120.966482"/>
    <trkpt lat="24.896136" lon="120.965101"/>
    <trkpt lat="24.895659" lon="120.964303"/>
    <trkpt lat="24.89464" lon="120.962881"/>
    <trkpt lat="24.893876" lon="120.961919"/>
    <trkpt lat="24.893026" lon="120.961002"/>
    <trkpt lat="24.891902" lon="120.959864"/>
    <trkpt lat="24.891158" lon="120.959209"/>
    <trkpt lat="24.890532" lon="120.958758"/>
    <trkpt lat="24.88951" lon="120.958072"/>
    <trkpt lat="24.888849" lon="120.957674"/>
    <trkpt lat="24.887838" lon="120.957128"/>
    <trkpt lat="24.886496" lon="120.956581"/>
    <trkpt lat="24.883214" lon="120.955674"/>
    <trkpt lat="24.881954" lon="120.955358"/>
    <trkpt lat="24.880763" lon="120.95504"/>
    <trkpt lat="24.877936" lon="120.95432"/>
    <trkpt lat="24.877617" lon="120.954275"/>
    <trkpt lat="24.876544" lon="120.954118"/>
    <trkpt lat="24.876454" lon="120.954106"/>
    <trkpt lat="24.87603" lon="120.954043"/>
    <trkpt lat="24.874852" lon="120.953898"/>
    <trkpt lat="24.873071" lon="120.953716"/>
    <trkpt lat="24.871962" lon="120.953597"/>
    <trkpt lat="24.871854" lon="120.953585"/>
    <trkpt lat="24.870037" lon="120.953381"/>
    <trkpt lat="24.868409" lon="120.953214"/>
    <trkpt lat="24.868348" lon="120.953208"/>
    <trkpt lat="24.866712" lon="120.953002"/>
    <trkpt lat="24.86661" lon="120.952989"/>
    <trkpt lat="24.865751" lon="120.952819"/>
    <trkpt lat="24.864786" lon="120.952559"/>
    <trkpt lat="24.863146" lon="120.951962"/>
    <trkpt lat="24.862449" lon="120.951671"/>
    <trkpt lat="24.86205" lon="120.951428"/>
    <trkpt lat="24.861684" lon="120.951144"/>
    <trkpt lat="24.861519" lon="120.951014"/>
    <trkpt lat="24.861097" lon="120.950935"/>
    <trkpt lat="24.860769" lon="120.950785"/>
    <trkpt lat="24.860089" lon="120.950329"/>
    <trkpt lat="24.859457" lon="120.949906"/>
    <trkpt lat="24.858589" lon="120.949236"/>
    <trkpt lat="24.857828" lon="120.94853"/>
    <trkpt lat="24.857698" lon="120.948409"/>
    <trkpt lat="24.856394" lon="120.947066"/>
    <trkpt lat="24.856049" lon="120.94682"/>
    <trkpt lat="24.855516" lon="120.946268"/>
    <trkpt lat="24.854892" lon="120.945621"/>
    <trkpt lat="24.854775" lon="120.945513"/>
    <trkpt lat="24.854697" lon="120.945442"/>
    <trkpt lat="24.854297" lon="120.945016"/>
    <trkpt lat="24.853282" lon="120.943975"/>
    <trkpt lat="24.852815" lon="120.943481"/>
    <trkpt lat="24.852741" lon="120.943417"/>
    <trkpt lat="24.852553" lon="120.943252"/>
    <trkpt lat="24.852171" lon="120.942906"/>
    <trkpt lat="24.852099" lon="120.942841"/>
    <trkpt lat="24.850763" lon="120.941612"/>
    <trkpt lat="24.844349" lon="120.935797"/>
    <trkpt lat="24.844012" lon="120.935479"/>
    <trkpt lat="24.842417" lon="120.934082"/>
    <trkpt lat="24.841397" lon="120.932939"/>
    <trkpt lat="24.841009" lon="120.932556"/>
    <trkpt lat="24.840213" lon="120.931862"/>
    <trkpt lat="24.839641" lon="120.931345"/>
    <trkpt lat="24.839692" lon="120.931235"/>
    <trkpt lat="24.839717" lon="120.931027"/>
    <trkpt lat="24.839769" lon="120.930598"/>
    <trkpt lat="24.839871" lon="120.929742"/>
    <trkpt lat="24.839828" lon="120.929646"/>
    <trkpt lat="24.839909" lon="120.929512"/>
    <trkpt lat="24.840077" lon="120.928162"/>
    <trkpt lat="24.840063" lon="120.928032"/>
    <trkpt lat="24.840118" lon="120.92794"/>
    <trkpt lat="24.840252" lon="120.927456"/>
    <trkpt lat="24.84025" lon="120.927366"/>
    <trkpt lat="24.840301" lon="120.927296"/>
    <trkpt lat="24.840606" lon="120.926697"/>
    <trkpt lat="24.840801" lon="120.926315"/>
    <trkpt lat="24.841503" lon="120.925102"/>
    <trkpt lat="24.841675" lon="120.924805"/>
    <trkpt lat="24.841728" lon="120.924578"/>
    <trkpt lat="24.841845" lon="120.924548"/>
    <trkpt lat="24.842052" lon="120.924195"/>
    <trkpt lat="24.84219" lon="120.924005"/>
    <trkpt lat="24.842864" lon="120.923477"/>
    <trkpt lat="24.842904" lon="120.923431"/>
    <trkpt lat="24.842889" lon="120.923301"/>
    <trkpt lat="24.842868" lon="120.923192"/>
    <trkpt lat="24.843002" lon="120.923229"/>
    <trkpt lat="24.843062" lon="120.923274"/>
    <trkpt lat="24.843988" lon="120.923963"/>
    <trkpt lat="24.845447" lon="120.925037"/>
    <trkpt lat="24.845768" lon="120.924491"/>
    <trkpt lat="24.846023" lon="120.924054"/>
    <trkpt lat="24.846243" lon="120.923679"/>
    <trkpt lat="24.846365" lon="120.923772"/>
    <trkpt lat="24.847079" lon="120.924313"/>
    <trkpt lat="24.8473" lon="120.92448"/>
    <trkpt lat="24.84779" lon="120.924648"/>
    <trkpt lat="24.848167" lon="120.9248"/>
    <trkpt lat="24.848757" lon="120.925018"/>
  </trkseg></trk>
</gpx>