<?xml version="1.0" encoding="UTF-8" standalone="yes"?><gpx version="1.1" creator="openrouteservice" xmlns="https://raw.githubusercontent.com/GIScience/openrouteservice-schema/main/gpx/v2/ors-gpx.xsd"><metadata><name>openrouteservice directions</name><desc>This is a directions instructions file as GPX, generated from openrouteservice</desc><author><name>openrouteservice</name><email id="support" domain="openrouteservice.heigit.org"/><link href="https://openrouteservice.org/"><text>https://openrouteservice.org/</text><type>text/html</type></link></author><copyright author="openrouteservice.org | OpenStreetMap contributors"><year>2026</year><license>LGPL 3.0</license></copyright><time>2026-06-01T16:28:56.400Z</time><bounds maxlat="23.065992" maxlon="120.453415" minlat="22.460858" minlon="120.12713"/></metadata>
  <wpt lat="23.066061100000002" lon="120.1269917"><name>鹿耳門公園</name><sym>Flag, Green</sym></wpt>
  <wpt lat="23.001018" lon="120.23217000000001"><name>7-ELEVEN 天鈺門市</name><sym>Waypoint</sym></wpt>
  <wpt lat="22.9719929" lon="120.2225874"><name>巴克禮紀念公園</name><sym>Waypoint</sym></wpt>
  <wpt lat="22.931430100000004" lon="120.1764427"><name>黃金海岸</name><sym>Waypoint</sym></wpt>
  <wpt lat="22.8806181" lon="120.2496022"><name>7-ELEVEN 新東專門市</name><sym>Waypoint</sym></wpt>
  <wpt lat="22.8119952" lon="120.27995299999999"><name>7-ELEVEN 北岡山門市</name><sym>Waypoint</sym></wpt>
  <wpt lat="22.730614" lon="120.31631000000002"><name>7-ELEVEN 都會門市</name><sym>Waypoint</sym></wpt>
  <wpt lat="22.6603607" lon="120.353806"><name>澄清湖</name><sym>Waypoint</sym></wpt>
  <wpt lat="22.6397043" lon="120.3449832"><name>蝦搞活蝦海鮮餐廳（澄清店）</name><sym>Waypoint</sym></wpt>
  <wpt lat="22.6277386" lon="120.359487"><name>鳳儀書院</name><sym>Waypoint</sym></wpt>
  <wpt lat="22.5010452" lon="120.3980518"><name>7-ELEVEN 霖園門市(現萃茶)</name><sym>Waypoint</sym></wpt>
  <wpt lat="22.460918" lon="120.44136999999999"><name>鎮海公園</name><sym>Waypoint</sym></wpt>
  <wpt lat="22.4669849" lon="120.45346299999999"><name>7-ELEVEN 億財富門市</name><sym>Waypoint</sym></wpt>
  <wpt lat="22.4630838" lon="120.44871930000001"><name>東港東隆宮</name><sym>Flag, Red</sym></wpt><rte><rtept lat="23.065791" lon="120.12713"/><rtept lat="23.065887" lon="120.127351"/><rtept lat="23.065992" lon="120.12768"/><rtept lat="23.065121" lon="120.128191"/><rtept lat="23.064167" lon="120.128726"/><rtept lat="23.063006" lon="120.129385"/><rtept lat="23.062627" lon="120.129604"/><rtept lat="23.062507" lon="120.129734"/><rtept lat="23.062292" lon="120.129917"/><rtept lat="23.062212" lon="120.130001"/><rtept lat="23.06217" lon="120.130044"/><rtept lat="23.061909" lon="120.130336"/><rtept lat="23.061409" lon="120.130881"/><rtept lat="23.0613" lon="120.131038"/><rtept lat="23.061203" lon="120.131243"/><rtept lat="23.061153" lon="120.131519"/><rtept lat="23.061064" lon="120.133094"/><rtept lat="23.06103" lon="120.133699"/><rtept lat="23.061021" lon="120.13384"/><rtept lat="23.059341" lon="120.133815"/><rtept lat="23.058994" lon="120.133884"/><rtept lat="23.058656" lon="120.133993"/><rtept lat="23.058533" lon="120.134062"/><rtept lat="23.058127" lon="120.134371"/><rtept lat="23.057928" lon="120.134565"/><rtept lat="23.057027" lon="120.135698"/><rtept lat="23.056458" lon="120.13649"/><rtept lat="23.056166" lon="120.136896"/><rtept lat="23.054964" lon="120.138557"/><rtept lat="23.054946" lon="120.138586"/><rtept lat="23.054769" lon="120.138824"/><rtept lat="23.054206" lon="120.139568"/><rtept lat="23.054148" lon="120.139663"/><rtept lat="23.052442" lon="120.141982"/><rtept lat="23.052231" lon="120.142268"/><rtept lat="23.049743" lon="120.145646"/><rtept lat="23.049653" lon="120.145767"/><rtept lat="23.049579" lon="120.145876"/><rtept lat="23.04954" lon="120.145928"/><rtept lat="23.047341" lon="120.148907"/><rtept lat="23.047275" lon="120.148996"/><rtept lat="23.04704" lon="120.149342"/><rtept lat="23.047001" lon="120.149396"/><rtept lat="23.044157" lon="120.153302"/><rtept lat="23.044109" lon="120.153368"/><rtept lat="23.044013" lon="120.153504"/><rtept lat="23.043969" lon="120.153565"/><rtept lat="23.040949" lon="120.157717"/><rtept lat="23.040596" lon="120.158026"/><rtept lat="23.040364" lon="120.158202"/><rtept lat="23.040233" lon="120.158302"/><rtept lat="23.040084" lon="120.158421"/><rtept lat="23.03681" lon="120.161062"/><rtept lat="23.036779" lon="120.161082"/><rtept lat="23.035547" lon="120.162141"/><rtept lat="23.035497" lon="120.162193"/><rtept lat="23.03417" lon="120.163628"/><rtept lat="23.034024" lon="120.163785"/><rtept lat="23.033811" lon="120.163991"/><rtept lat="23.033047" lon="120.164805"/><rtept lat="23.032595" lon="120.165213"/><rtept lat="23.032519" lon="120.165279"/><rtept lat="23.031942" lon="120.165828"/><rtept lat="23.031904" lon="120.165862"/><rtept lat="23.031615" lon="120.166109"/><rtept lat="23.027264" lon="120.170106"/><rtept lat="23.027194" lon="120.170171"/><rtept lat="23.023734" lon="120.173377"/><rtept lat="23.023009" lon="120.174065"/><rtept lat="23.018707" lon="120.178067"/><rtept lat="23.018605" lon="120.178162"/><rtept lat="23.018536" lon="120.178225"/><rtept lat="23.018442" lon="120.17831"/><rtept lat="23.015081" lon="120.181373"/><rtept lat="23.01151" lon="120.184727"/><rtept lat="23.011415" lon="120.184892"/><rtept lat="23.010985" lon="120.184994"/><rtept lat="23.01048" lon="120.185141"/><rtept lat="23.00996" lon="120.185286"/><rtept lat="23.008977" lon="120.18557"/><rtept lat="23.008588" lon="120.185685"/><rtept lat="23.00791" lon="120.185879"/><rtept lat="23.006965" lon="120.186154"/><rtept lat="23.006811" lon="120.186198"/><rtept lat="23.006717" lon="120.186221"/><rtept lat="23.006773" lon="120.186338"/><rtept lat="23.006824" lon="120.186457"/><rtept lat="23.007199" lon="120.187292"/><rtept lat="23.007408" lon="120.187802"/><rtept lat="23.007464" lon="120.187932"/><rtept lat="23.007415" lon="120.187997"/><rtept lat="23.007377" lon="120.18808"/><rtept lat="23.007158" lon="120.188816"/><rtept lat="23.006701" lon="120.189731"/><rtept lat="23.006672" lon="120.189788"/><rtept lat="23.006645" lon="120.189845"/><rtept lat="23.006196" lon="120.190775"/><rtept lat="23.006167" lon="120.190835"/><rtept lat="23.006133" lon="120.190905"/><rtept lat="23.005931" lon="120.191314"/><rtept lat="23.005667" lon="120.191852"/><rtept lat="23.005634" lon="120.191918"/><rtept lat="23.0056" lon="120.191988"/><rtept lat="23.005373" lon="120.192458"/><rtept lat="23.005307" lon="120.192839"/><rtept lat="23.005295" lon="120.193118"/><rtept lat="23.005315" lon="120.193482"/><rtept lat="23.005348" lon="120.193648"/><rtept lat="23.005807" lon="120.194858"/><rtept lat="23.006091" lon="120.195457"/><rtept lat="23.006357" lon="120.196025"/><rtept lat="23.006404" lon="120.196138"/><rtept lat="23.006441" lon="120.196234"/><rtept lat="23.006508" lon="120.19677"/><rtept lat="23.00652" lon="120.197141"/><rtept lat="23.006523" lon="120.1973"/><rtept lat="23.006543" lon="120.197616"/><rtept lat="23.006567" lon="120.197916"/><rtept lat="23.006641" lon="120.198568"/><rtept lat="23.006684" lon="120.199132"/><rtept lat="23.006664" lon="120.199345"/><rtept lat="23.006477" lon="120.199791"/><rtept lat="23.006467" lon="120.199914"/><rtept lat="23.006467" lon="120.200077"/><rtept lat="23.006504" lon="120.200238"/><rtept lat="23.006658" lon="120.200554"/><rtept lat="23.00675" lon="120.200818"/><rtept lat="23.006708" lon="120.200978"/><rtept lat="23.006577" lon="120.201173"/><rtept lat="23.00647" lon="120.201336"/><rtept lat="23.00643" lon="120.201397"/><rtept lat="23.006387" lon="120.201458"/><rtept lat="23.006291" lon="120.201595"/><rtept lat="23.006103" lon="120.201875"/><rtept lat="23.006018" lon="120.201992"/><rtept lat="23.005814" lon="120.202299"/><rtept lat="23.005742" lon="120.202395"/><rtept lat="23.005635" lon="120.202551"/><rtept lat="23.005562" lon="120.202656"/><rtept lat="23.005503" lon="120.202741"/><rtept lat="23.005457" lon="120.202792"/><rtept lat="23.005411" lon="120.202849"/><rtept lat="23.005179" lon="120.20314"/><rtept lat="23.005097" lon="120.203242"/><rtept lat="23.005016" lon="120.203262"/><rtept lat="23.0049" lon="120.20337"/><rtept lat="23.004815" lon="120.20345"/><rtept lat="23.004692" lon="120.203565"/><rtept lat="23.004376" lon="120.203863"/><rtept lat="23.004208" lon="120.204021"/><rtept lat="23.004149" lon="120.204077"/><rtept lat="23.003888" lon="120.204315"/><rtept lat="23.003804" lon="120.204395"/><rtept lat="23.003794" lon="120.204469"/><rtept lat="23.005353" lon="120.20563"/><rtept lat="23.005464" lon="120.205708"/><rtept lat="23.005521" lon="120.205756"/><rtept lat="23.00547" lon="120.205903"/><rtept lat="23.005351" lon="120.206518"/><rtept lat="23.0052" lon="120.207299"/><rtept lat="23.005192" lon="120.207343"/><rtept lat="23.005182" lon="120.207393"/><rtept lat="23.005081" lon="120.207916"/><rtept lat="23.004939" lon="120.208622"/><rtept lat="23.00492" lon="120.208721"/><rtept lat="23.004902" lon="120.208801"/><rtept lat="23.00489" lon="120.208861"/><rtept lat="23.004732" lon="120.209616"/><rtept lat="23.004587" lon="120.210332"/><rtept lat="23.004533" lon="120.210628"/><rtept lat="23.004505" lon="120.210768"/><rtept lat="23.004472" lon="120.210943"/><rtept lat="23.004176" lon="120.212445"/><rtept lat="23.004163" lon="120.212508"/><rtept lat="23.004151" lon="120.212565"/><rtept lat="23.004117" lon="120.212734"/><rtept lat="23.00403" lon="120.213159"/><rtept lat="23.003963" lon="120.213413"/><rtept lat="23.003935" lon="120.213606"/><rtept lat="23.00391" lon="120.213784"/><rtept lat="23.003807" lon="120.214417"/><rtept lat="23.003764" lon="120.214502"/><rtept lat="23.003699" lon="120.214929"/><rtept lat="23.003695" lon="120.215041"/><rtept lat="23.003686" lon="120.215137"/><rtept lat="23.003531" lon="120.216094"/><rtept lat="23.00352" lon="120.216184"/><rtept lat="23.003471" lon="120.216508"/><rtept lat="23.003359" lon="120.21725"/><rtept lat="23.003312" lon="120.217558"/><rtept lat="23.003302" lon="120.217625"/><rtept lat="23.003144" lon="120.218665"/><rtept lat="23.003131" lon="120.218763"/><rtept lat="23.003126" lon="120.21884"/><rtept lat="23.003037" lon="120.219429"/><rtept lat="23.002959" lon="120.219942"/><rtept lat="23.002934" lon="120.220123"/><rtept lat="23.00285" lon="120.220696"/><rtept lat="23.002842" lon="120.220743"/><rtept lat="23.002833" lon="120.220795"/><rtept lat="23.002631" lon="120.222015"/><rtept lat="23.002585" lon="120.222346"/><rtept lat="23.002577" lon="120.222441"/><rtept lat="23.002565" lon="120.222521"/><rtept lat="23.002556" lon="120.222596"/><rtept lat="23.002529" lon="120.222791"/><rtept lat="23.002402" lon="120.223588"/><rtept lat="23.002387" lon="120.223657"/><rtept lat="23.002253" lon="120.224528"/><rtept lat="23.002236" lon="120.224648"/><rtept lat="23.002223" lon="120.224763"/><rtept lat="23.002201" lon="120.224922"/><rtept lat="23.002058" lon="120.225865"/><rtept lat="23.002029" lon="120.226055"/><rtept lat="23.00193" lon="120.226679"/><rtept lat="23.001879" lon="120.22698"/><rtept lat="23.001874" lon="120.227052"/><rtept lat="23.001868" lon="120.227116"/><rtept lat="23.001789" lon="120.227275"/><rtept lat="23.001737" lon="120.227331"/><rtept lat="23.001587" lon="120.227422"/><rtept lat="23.001552" lon="120.227488"/><rtept lat="23.001501" lon="120.227515"/><rtept lat="23.001506" lon="120.227542"/><rtept lat="23.001511" lon="120.227619"/><rtept lat="23.001534" lon="120.227918"/><rtept lat="23.001565" lon="120.228351"/><rtept lat="23.001576" lon="120.228462"/><rtept lat="23.001549" lon="120.228588"/><rtept lat="23.001447" lon="120.229059"/><rtept lat="23.001422" lon="120.229176"/><rtept lat="23.00135" lon="120.229514"/><rtept lat="23.001254" lon="120.22966"/><rtept lat="23.001214" lon="120.229711"/><rtept lat="23.000784" lon="120.230252"/><rtept lat="23.000743" lon="120.230304"/><rtept lat="23.000657" lon="120.230618"/><rtept lat="23.000608" lon="120.230842"/><rtept lat="23.000595" lon="120.230894"/><rtept lat="23.000564" lon="120.230991"/><rtept lat="23.0006" lon="120.231163"/><rtept lat="23.00061" lon="120.231211"/><rtept lat="23.000698" lon="120.231635"/><rtept lat="23.000768" lon="120.231969"/><rtept lat="23.001026" lon="120.231981"/><rtept lat="23.000768" lon="120.231969"/><rtept lat="23.000698" lon="120.231635"/><rtept lat="23.00061" lon="120.231211"/><rtept lat="23.0006" lon="120.231163"/><rtept lat="23.000564" lon="120.230991"/><rtept lat="23.0005" lon="120.231007"/><rtept lat="23.000079" lon="120.231113"/><rtept lat="22.999942" lon="120.231144"/><rtept lat="22.999811" lon="120.231171"/><rtept lat="22.999662" lon="120.231197"/><rtept lat="22.999603" lon="120.231161"/><rtept lat="22.999495" lon="120.230877"/><rtept lat="22.999367" lon="120.230636"/><rtept lat="22.999232" lon="120.230561"/><rtept lat="22.999099" lon="120.23062"/><rtept lat="22.998961" lon="120.230596"/><rtept lat="22.998734" lon="120.230641"/><rtept lat="22.998446" lon="120.230679"/><rtept lat="22.998365" lon="120.230457"/><rtept lat="22.998266" lon="120.229978"/><rtept lat="22.998212" lon="120.229667"/><rtept lat="22.997816" lon="120.22974"/><rtept lat="22.997676" lon="120.229828"/><rtept lat="22.997649" lon="120.229861"/><rtept lat="22.997555" lon="120.229977"/><rtept lat="22.99707" lon="120.230014"/><rtept lat="22.996796" lon="120.230035"/><rtept lat="22.996445" lon="120.230065"/><rtept lat="22.996027" lon="120.229968"/><rtept lat="22.995728" lon="120.229898"/><rtept lat="22.995415" lon="120.229846"/><rtept lat="22.995323" lon="120.229825"/><rtept lat="22.995248" lon="120.229807"/><rtept lat="22.994891" lon="120.229716"/><rtept lat="22.994753" lon="120.229682"/><rtept lat="22.99423" lon="120.229554"/><rtept lat="22.993741" lon="120.229437"/><rtept lat="22.993329" lon="120.229342"/><rtept lat="22.993211" lon="120.229314"/><rtept lat="22.993128" lon="120.229295"/><rtept lat="22.992708" lon="120.229198"/><rtept lat="22.992681" lon="120.229191"/><rtept lat="22.99218" lon="120.229075"/><rtept lat="22.991729" lon="120.22897"/><rtept lat="22.991676" lon="120.228958"/><rtept lat="22.99161" lon="120.228943"/><rtept lat="22.991125" lon="120.22883"/><rtept lat="22.990741" lon="120.228741"/><rtept lat="22.990508" lon="120.228687"/><rtept lat="22.990337" lon="120.228647"/><rtept lat="22.990079" lon="120.228588"/><rtept lat="22.989954" lon="120.228559"/><rtept lat="22.989858" lon="120.228536"/><rtept lat="22.989886" lon="120.228438"/><rtept lat="22.990028" lon="120.227935"/><rtept lat="22.98995" lon="120.227888"/><rtept lat="22.989852" lon="120.227659"/><rtept lat="22.98963" lon="120.227618"/><rtept lat="22.989124" lon="120.227524"/><rtept lat="22.988835" lon="120.227472"/><rtept lat="22.988373" lon="120.227387"/><rtept lat="22.987995" lon="120.227319"/><rtept lat="22.987882" lon="120.227298"/><rtept lat="22.987581" lon="120.227243"/><rtept lat="22.987148" lon="120.227164"/><rtept lat="22.98708" lon="120.227152"/><rtept lat="22.986738" lon="120.227089"/><rtept lat="22.986326" lon="120.22701"/><rtept lat="22.985937" lon="120.226989"/><rtept lat="22.985841" lon="120.226966"/><rtept lat="22.985738" lon="120.226938"/><rtept lat="22.985572" lon="120.226909"/><rtept lat="22.985306" lon="120.226854"/><rtept lat="22.985124" lon="120.226821"/><rtept lat="22.985046" lon="120.2268"/><rtept lat="22.984989" lon="120.22679"/><rtept lat="22.984682" lon="120.226724"/><rtept lat="22.984416" lon="120.226678"/><rtept lat="22.984383" lon="120.226673"/><rtept lat="22.984168" lon="120.226635"/><rtept lat="22.98339" lon="120.2265"/><rtept lat="22.9833" lon="120.226516"/><rtept lat="22.983189" lon="120.226427"/><rtept lat="22.983072" lon="120.226328"/><rtept lat="22.982942" lon="120.226204"/><rtept lat="22.982878" lon="120.226146"/><rtept lat="22.982363" lon="120.225673"/><rtept lat="22.981962" lon="120.225305"/><rtept lat="22.981622" lon="120.224987"/><rtept lat="22.981266" lon="120.224657"/><rtept lat="22.981109" lon="120.22451"/><rtept lat="22.980937" lon="120.224348"/><rtept lat="22.980606" lon="120.22404"/><rtept lat="22.980346" lon="120.223801"/><rtept lat="22.980266" lon="120.223727"/><rtept lat="22.980167" lon="120.223633"/><rtept lat="22.979736" lon="120.223234"/><rtept lat="22.979673" lon="120.223176"/><rtept lat="22.979617" lon="120.223125"/><rtept lat="22.979133" lon="120.222675"/><rtept lat="22.978444" lon="120.22204"/><rtept lat="22.978157" lon="120.221773"/><rtept lat="22.978089" lon="120.221702"/><rtept lat="22.97802" lon="120.221805"/><rtept lat="22.977846" lon="120.222051"/><rtept lat="22.97752" lon="120.221683"/><rtept lat="22.977117" lon="120.221268"/><rtept lat="22.976761" lon="120.22088"/><rtept lat="22.976721" lon="120.22092"/><rtept lat="22.976462" lon="120.221165"/><rtept lat="22.976146" lon="120.221459"/><rtept lat="22.976108" lon="120.221494"/><rtept lat="22.976038" lon="120.221387"/><rtept lat="22.975983" lon="120.221317"/><rtept lat="22.975469" lon="120.220663"/><rtept lat="22.975075" lon="120.220912"/><rtept lat="22.974325" lon="120.221092"/><rtept lat="22.973872" lon="120.221201"/><rtept lat="22.973808" lon="120.221217"/><rtept lat="22.97369" lon="120.221247"/><rtept lat="22.973748" lon="120.221515"/><rtept lat="22.973661" lon="120.221542"/><rtept lat="22.973272" lon="120.22164"/><rtept lat="22.972905" lon="120.221741"/><rtept lat="22.972857" lon="120.221754"/><rtept lat="22.972486" lon="120.221841"/><rtept lat="22.972437" lon="120.221854"/><rtept lat="22.972447" lon="120.221918"/><rtept lat="22.972598" lon="120.222495"/><rtept lat="22.972581" lon="120.222492"/><rtept lat="22.972088" lon="120.222434"/><rtept lat="22.972581" lon="120.222492"/><rtept lat="22.972598" lon="120.222495"/><rtept lat="22.972447" lon="120.221918"/><rtept lat="22.972437" lon="120.221854"/><rtept lat="22.972486" lon="120.221841"/><rtept lat="22.972857" lon="120.221754"/><rtept lat="22.972905" lon="120.221741"/><rtept lat="22.973272" lon="120.22164"/><rtept lat="22.973661" lon="120.221542"/><rtept lat="22.973748" lon="120.221515"/><rtept lat="22.973773" lon="120.221616"/><rtept lat="22.973895" lon="120.221586"/><rtept lat="22.973808" lon="120.221217"/><rtept lat="22.973872" lon="120.221201"/><rtept lat="22.974325" lon="120.221092"/><rtept lat="22.974132" lon="120.220117"/><rtept lat="22.974531" lon="120.219916"/><rtept lat="22.974703" lon="120.219801"/><rtept lat="22.974881" lon="120.219676"/><rtept lat="22.974698" lon="120.219363"/><rtept lat="22.974968" lon="120.219184"/><rtept lat="22.975448" lon="120.218867"/><rtept lat="22.975314" lon="120.21865"/><rtept lat="22.9752" lon="120.218427"/><rtept lat="22.974977" lon="120.217993"/><rtept lat="22.974873" lon="120.21777"/><rtept lat="22.97458" lon="120.217128"/><rtept lat="22.974477" lon="120.216851"/><rtept lat="22.974346" lon="120.216491"/><rtept lat="22.974321" lon="120.216423"/><rtept lat="22.974128" lon="120.215897"/><rtept lat="22.97403" lon="120.215632"/><rtept lat="22.973776" lon="120.21494"/><rtept lat="22.973668" lon="120.214536"/><rtept lat="22.973049" lon="120.214678"/><rtept lat="22.97246" lon="120.214803"/><rtept lat="22.972432" lon="120.214632"/><rtept lat="22.972332" lon="120.214201"/><rtept lat="22.972288" lon="120.214017"/><rtept lat="22.972236" lon="120.213876"/><rtept lat="22.972183" lon="120.213736"/><rtept lat="22.972091" lon="120.213504"/><rtept lat="22.972033" lon="120.213401"/><rtept lat="22.971919" lon="120.213219"/><rtept lat="22.971883" lon="120.21317"/><rtept lat="22.971797" lon="120.213053"/><rtept lat="22.970947" lon="120.212024"/><rtept lat="22.97089" lon="120.211954"/><rtept lat="22.970394" lon="120.211356"/><rtept lat="22.970328" lon="120.211267"/><rtept lat="22.97013" lon="120.211027"/><rtept lat="22.970051" lon="120.210943"/><rtept lat="22.969175" lon="120.20994"/><rtept lat="22.969109" lon="120.209854"/><rtept lat="22.96905" lon="120.209772"/><rtept lat="22.968993" lon="120.209695"/><rtept lat="22.968366" lon="120.208915"/><rtept lat="22.968216" lon="120.208695"/><rtept lat="22.968033" lon="120.208366"/><rtept lat="22.96789" lon="120.207998"/><rtept lat="22.967791" lon="120.207571"/><rtept lat="22.967618" lon="120.20637"/><rtept lat="22.967408" lon="120.204894"/><rtept lat="22.967355" lon="120.204604"/><rtept lat="22.967279" lon="120.204314"/><rtept lat="22.967097" lon="120.203821"/><rtept lat="22.966811" lon="120.203274"/><rtept lat="22.966358" lon="120.202573"/><rtept lat="22.964726" lon="120.200005"/><rtept lat="22.963827" lon="120.198589"/><rtept lat="22.963787" lon="120.198532"/><rtept lat="22.963731" lon="120.198446"/><rtept lat="22.962947" lon="120.197189"/><rtept lat="22.962529" lon="120.196204"/><rtept lat="22.962477" lon="120.19601"/><rtept lat="22.962398" lon="120.195605"/><rtept lat="22.962369" lon="120.195449"/><rtept lat="22.962344" lon="120.195312"/><rtept lat="22.961863" lon="120.192802"/><rtept lat="22.961827" lon="120.192625"/><rtept lat="22.961804" lon="120.192505"/><rtept lat="22.961265" lon="120.189693"/><rtept lat="22.961294" lon="120.189242"/><rtept lat="22.961195" lon="120.189226"/><rtept lat="22.961077" lon="120.189015"/><rtept lat="22.960497" lon="120.188127"/><rtept lat="22.960101" lon="120.187555"/><rtept lat="22.959911" lon="120.187282"/><rtept lat="22.959653" lon="120.186902"/><rtept lat="22.959355" lon="120.186399"/><rtept lat="22.95905" lon="120.185839"/><rtept lat="22.958946" lon="120.185355"/><rtept lat="22.958957" lon="120.184426"/><rtept lat="22.958963" lon="120.183885"/><rtept lat="22.958963" lon="120.18379"/><rtept lat="22.958413" lon="120.183796"/><rtept lat="22.958053" lon="120.183768"/><rtept lat="22.957778" lon="120.183702"/><rtept lat="22.95737" lon="120.1835"/><rtept lat="22.956911" lon="120.183162"/><rtept lat="22.951637" lon="120.179093"/><rtept lat="22.950579" lon="120.178287"/><rtept lat="22.948108" lon="120.176405"/><rtept lat="22.947452" lon="120.176031"/><rtept lat="22.947167" lon="120.17591"/><rtept lat="22.946914" lon="120.17585"/><rtept lat="22.944009" lon="120.175528"/><rtept lat="22.943826" lon="120.175533"/><rtept lat="22.943368" lon="120.175519"/><rtept lat="22.943265" lon="120.175509"/><rtept lat="22.942477" lon="120.175431"/><rtept lat="22.942164" lon="120.175403"/><rtept lat="22.941534" lon="120.17541"/><rtept lat="22.941008" lon="120.175469"/><rtept lat="22.937879" lon="120.17596"/><rtept lat="22.935828" lon="120.176283"/><rtept lat="22.935516" lon="120.176332"/><rtept lat="22.935282" lon="120.176244"/><rtept lat="22.935149" lon="120.176244"/><rtept lat="22.934914" lon="120.17623"/><rtept lat="22.934654" lon="120.176283"/><rtept lat="22.934311" lon="120.176315"/><rtept lat="22.933442" lon="120.17635"/><rtept lat="22.93319" lon="120.176405"/><rtept lat="22.93215" lon="120.176382"/><rtept lat="22.932097" lon="120.176403"/><rtept lat="22.931816" lon="120.176446"/><rtept lat="22.931635" lon="120.176458"/><rtept lat="22.93143" lon="120.176455"/><rtept lat="22.931422" lon="120.176455"/><rtept lat="22.931353" lon="120.176425"/><rtept lat="22.931065" lon="120.176428"/><rtept lat="22.930791" lon="120.176443"/><rtept lat="22.930687" lon="120.176471"/><rtept lat="22.930363" lon="120.176476"/><rtept lat="22.930215" lon="120.176438"/><rtept lat="22.929936" lon="120.176434"/><rtept lat="22.92934" lon="120.176424"/><rtept lat="22.929028" lon="120.176391"/><rtept lat="22.929108" lon="120.176225"/><rtept lat="22.929166" lon="120.176096"/><rtept lat="22.929138" lon="120.176056"/><rtept lat="22.929049" lon="120.176054"/><rtept lat="22.927682" lon="120.175992"/><rtept lat="22.926127" lon="120.175805"/><rtept lat="22.922341" lon="120.175073"/><rtept lat="22.922424" lon="120.175148"/><rtept lat="22.922752" lon="120.17528"/><rtept lat="22.922019" lon="120.175283"/><rtept lat="22.921777" lon="120.175285"/><rtept lat="22.921435" lon="120.175316"/><rtept lat="22.920805" lon="120.175448"/><rtept lat="22.919599" lon="120.175881"/><rtept lat="22.91841" lon="120.176328"/><rtept lat="22.917634" lon="120.176594"/><rtept lat="22.917016" lon="120.176792"/><rtept lat="22.91629" lon="120.176939"/><rtept lat="22.915957" lon="120.176981"/><rtept lat="22.915654" lon="120.176998"/><rtept lat="22.915302" lon="120.177013"/><rtept lat="22.911789" lon="120.177175"/><rtept lat="22.911391" lon="120.177194"/><rtept lat="22.909682" lon="120.177273"/><rtept lat="22.908497" lon="120.177342"/><rtept lat="22.90812" lon="120.17739"/><rtept lat="22.90801" lon="120.17742"/><rtept lat="22.907915" lon="120.177438"/><rtept lat="22.907483" lon="120.177512"/><rtept lat="22.90708" lon="120.17759"/><rtept lat="22.90438" lon="120.178392"/><rtept lat="22.902868" lon="120.178818"/><rtept lat="22.901251" lon="120.179301"/><rtept lat="22.90052" lon="120.179577"/><rtept lat="22.900478" lon="120.179594"/><rtept lat="22.900432" lon="120.17961"/><rtept lat="22.899585" lon="120.179935"/><rtept lat="22.898749" lon="120.180241"/><rtept lat="22.898193" lon="120.180457"/><rtept lat="22.898145" lon="120.180471"/><rtept lat="22.898098" lon="120.180489"/><rtept lat="22.897478" lon="120.180739"/><rtept lat="22.896394" lon="120.181178"/><rtept lat="22.895725" lon="120.181447"/><rtept lat="22.895214" lon="120.181685"/><rtept lat="22.894696" lon="120.181901"/><rtept lat="22.894649" lon="120.181919"/><rtept lat="22.894601" lon="120.181936"/><rtept lat="22.893565" lon="120.182364"/><rtept lat="22.893519" lon="120.182379"/><rtept lat="22.893478" lon="120.182392"/><rtept lat="22.892253" lon="120.18289"/><rtept lat="22.892237" lon="120.182896"/><rtept lat="22.890927" lon="120.183431"/><rtept lat="22.890889" lon="120.183448"/><rtept lat="22.889977" lon="120.183817"/><rtept lat="22.888715" lon="120.184334"/><rtept lat="22.88865" lon="120.184366"/><rtept lat="22.888581" lon="120.184406"/><rtept lat="22.888323" lon="120.18459"/><rtept lat="22.887836" lon="120.18494"/><rtept lat="22.887307" lon="120.185317"/><rtept lat="22.887205" lon="120.185383"/><rtept lat="22.887143" lon="120.185431"/><rtept lat="22.886975" lon="120.185565"/><rtept lat="22.88627" lon="120.186117"/><rtept lat="22.886228" lon="120.18615"/><rtept lat="22.886097" lon="120.186262"/><rtept lat="22.886147" lon="120.186384"/><rtept lat="22.885929" lon="120.186545"/><rtept lat="22.885631" lon="120.186818"/><rtept lat="22.88532" lon="120.187046"/><rtept lat="22.884974" lon="120.18726"/><rtept lat="22.884579" lon="120.187527"/><rtept lat="22.88428" lon="120.187747"/><rtept lat="22.884017" lon="120.187977"/><rtept lat="22.883849" lon="120.188147"/><rtept lat="22.883344" lon="120.188799"/><rtept lat="22.883061" lon="120.189345"/><rtept lat="22.882875" lon="120.189827"/><rtept lat="22.88276" lon="120.190293"/><rtept lat="22.88269" lon="120.190779"/><rtept lat="22.882673" lon="120.191069"/><rtept lat="22.882667" lon="120.191147"/><rtept lat="22.882659" lon="120.193565"/><rtept lat="22.88266" lon="120.193683"/><rtept lat="22.882662" lon="120.193846"/><rtept lat="22.882699" lon="120.197234"/><rtept lat="22.882701" lon="120.19741"/><rtept lat="22.882704" lon="120.197675"/><rtept lat="22.88277" lon="120.20231"/><rtept lat="22.88275" lon="120.202439"/><rtept lat="22.882691" lon="120.202539"/><rtept lat="22.882605" lon="120.202605"/><rtept lat="22.882528" lon="120.202617"/><rtept lat="22.882482" lon="120.202624"/><rtept lat="22.881233" lon="120.2026"/><rtept lat="22.880847" lon="120.202562"/><rtept lat="22.880609" lon="120.202559"/><rtept lat="22.880061" lon="120.202544"/><rtept lat="22.87775" lon="120.202509"/><rtept lat="22.87768" lon="120.202518"/><rtept lat="22.877564" lon="120.202546"/><rtept lat="22.877434" lon="120.202645"/><rtept lat="22.877502" lon="120.202729"/><rtept lat="22.878488" lon="120.203956"/><rtept lat="22.87964" lon="120.205331"/><rtept lat="22.880158" lon="120.20596"/><rtept lat="22.880319" lon="120.206237"/><rtept lat="22.880375" lon="120.206371"/><rtept lat="22.880422" lon="120.20651"/><rtept lat="22.880473" lon="120.206815"/><rtept lat="22.880499" lon="120.207673"/><rtept lat="22.880545" lon="120.209258"/><rtept lat="22.880621" lon="120.212273"/><rtept lat="22.880698" lon="120.213444"/><rtept lat="22.880701" lon="120.213666"/><rtept lat="22.880677" lon="120.213785"/><rtept lat="22.88065" lon="120.21384"/><rtept lat="22.880581" lon="120.213924"/><rtept lat="22.880444" lon="120.213982"/><rtept lat="22.879813" lon="120.213988"/><rtept lat="22.878869" lon="120.213979"/><rtept lat="22.877978" lon="120.214011"/><rtept lat="22.877152" lon="120.214035"/><rtept lat="22.876202" lon="120.214065"/><rtept lat="22.876113" lon="120.214068"/><rtept lat="22.876128" lon="120.214246"/><rtept lat="22.876229" lon="120.216789"/><rtept lat="22.87632" lon="120.218474"/><rtept lat="22.876519" lon="120.22224"/><rtept lat="22.876615" lon="120.223935"/><rtept lat="22.876661" lon="120.224936"/><rtept lat="22.87667" lon="120.225033"/><rtept lat="22.876723" lon="120.225983"/><rtept lat="22.876772" lon="120.226957"/><rtept lat="22.87678" lon="120.227129"/><rtept lat="22.876843" lon="120.227555"/><rtept lat="22.877035" lon="120.228296"/><rtept lat="22.877646" lon="120.230081"/><rtept lat="22.877957" lon="120.231004"/><rtept lat="22.878142" lon="120.231723"/><rtept lat="22.878175" lon="120.231952"/><rtept lat="22.878197" lon="120.232267"/><rtept lat="22.878214" lon="120.232906"/><rtept lat="22.878263" lon="120.233903"/><rtept lat="22.878412" lon="120.236273"/><rtept lat="22.878499" lon="120.237496"/><rtept lat="22.878577" lon="120.238969"/><rtept lat="22.878649" lon="120.240047"/><rtept lat="22.878703" lon="120.24051"/><rtept lat="22.879096" lon="120.242971"/><rtept lat="22.879267" lon="120.244178"/><rtept lat="22.879321" lon="120.244769"/><rtept lat="22.87942" lon="120.246711"/><rtept lat="22.879453" lon="120.247149"/><rtept lat="22.879582" lon="120.247895"/><rtept lat="22.879661" lon="120.248171"/><rtept lat="22.879811" lon="120.248585"/><rtept lat="22.879973" lon="120.248927"/><rtept lat="22.880009" lon="120.248906"/><rtept lat="22.880069" lon="120.248871"/><rtept lat="22.880278" lon="120.248739"/><rtept lat="22.880179" lon="120.248539"/><rtept lat="22.880457" lon="120.248373"/><rtept lat="22.880555" lon="120.248558"/><rtept lat="22.880633" lon="120.248505"/><rtept lat="22.880732" lon="120.248709"/><rtept lat="22.880786" lon="120.248768"/><rtept lat="22.881245" lon="120.248467"/><rtept lat="22.88157" lon="120.249086"/><rtept lat="22.880726" lon="120.249762"/><rtept lat="22.880539" lon="120.249912"/><rtept lat="22.880449" lon="120.249989"/><rtept lat="22.880057" lon="120.250317"/><rtept lat="22.879275" lon="120.250977"/><rtept lat="22.879116" lon="120.25109"/><rtept lat="22.87891" lon="120.251284"/><rtept lat="22.878241" lon="120.251839"/><rtept lat="22.877979" lon="120.252027"/><rtept lat="22.87765" lon="120.252247"/><rtept lat="22.877533" lon="120.252326"/><rtept lat="22.877105" lon="120.252523"/><rtept lat="22.876523" lon="120.252763"/><rtept lat="22.874667" lon="120.253548"/><rtept lat="22.874269" lon="120.253708"/><rtept lat="22.873763" lon="120.253948"/><rtept lat="22.873131" lon="120.254174"/><rtept lat="22.871971" lon="120.254678"/><rtept lat="22.870998" lon="120.255098"/><rtept lat="22.870431" lon="120.25532"/><rtept lat="22.870044" lon="120.255459"/><rtept lat="22.869708" lon="120.255553"/><rtept lat="22.869604" lon="120.255582"/><rtept lat="22.869458" lon="120.255623"/><rtept lat="22.868497" lon="120.255792"/><rtept lat="22.867904" lon="120.25588"/><rtept lat="22.867311" lon="120.256009"/><rtept lat="22.867047" lon="120.256076"/><rtept lat="22.865054" lon="120.256811"/><rtept lat="22.864853" lon="120.256889"/><rtept lat="22.864337" lon="120.257123"/><rtept lat="22.863736" lon="120.257436"/><rtept lat="22.863467" lon="120.257578"/><rtept lat="22.863186" lon="120.257757"/><rtept lat="22.862109" lon="120.258333"/><rtept lat="22.861878" lon="120.258454"/><rtept lat="22.861565" lon="120.258616"/><rtept lat="22.860351" lon="120.25927"/><rtept lat="22.860048" lon="120.259438"/><rtept lat="22.860026" lon="120.259452"/><rtept lat="22.859791" lon="120.259606"/><rtept lat="22.859306" lon="120.259869"/><rtept lat="22.858677" lon="120.260209"/><rtept lat="22.858429" lon="120.260334"/><rtept lat="22.858185" lon="120.260435"/><rtept lat="22.857948" lon="120.260499"/><rtept lat="22.857548" lon="120.260571"/><rtept lat="22.857114" lon="120.260643"/><rtept lat="22.856463" lon="120.260762"/><rtept lat="22.855275" lon="120.261004"/><rtept lat="22.854156" lon="120.261219"/><rtept lat="22.853494" lon="120.261355"/><rtept lat="22.852492" lon="120.261556"/><rtept lat="22.852057" lon="120.26164"/><rtept lat="22.849086" lon="120.262212"/><rtept lat="22.84595" lon="120.26283"/><rtept lat="22.844342" lon="120.263124"/><rtept lat="22.841988" lon="120.263562"/><rtept lat="22.841846" lon="120.263584"/><rtept lat="22.84111" lon="120.263734"/><rtept lat="22.841028" lon="120.263749"/><rtept lat="22.839772" lon="120.264011"/><rtept lat="22.837803" lon="120.264369"/><rtept lat="22.836169" lon="120.26469"/><rtept lat="22.83443" lon="120.265034"/><rtept lat="22.833649" lon="120.265159"/><rtept lat="22.833505" lon="120.265183"/><rtept lat="22.832381" lon="120.265414"/><rtept lat="22.829553" lon="120.265956"/><rtept lat="22.825512" lon="120.266707"/><rtept lat="22.824191" lon="120.266974"/><rtept lat="22.823557" lon="120.267121"/><rtept lat="22.822945" lon="120.267449"/><rtept lat="22.822491" lon="120.267792"/><rtept lat="22.821651" lon="120.268656"/><rtept lat="22.820845" lon="120.269544"/><rtept lat="22.820617" lon="120.269783"/><rtept lat="22.816024" lon="120.275009"/><rtept lat="22.815985" lon="120.275055"/><rtept lat="22.815221" lon="120.275906"/><rtept lat="22.811831" lon="120.279612"/><rtept lat="22.810379" lon="120.281293"/><rtept lat="22.810567" lon="120.281437"/><rtept lat="22.811927" lon="120.279883"/><rtept lat="22.812006" lon="120.279793"/><rtept lat="22.811831" lon="120.279612"/><rtept lat="22.810379" lon="120.281293"/><rtept lat="22.809932" lon="120.281804"/><rtept lat="22.80988" lon="120.281871"/><rtept lat="22.808663" lon="120.283365"/><rtept lat="22.807602" lon="120.284667"/><rtept lat="22.807288" lon="120.285053"/><rtept lat="22.806471" lon="120.286056"/><rtept lat="22.805351" lon="120.28743"/><rtept lat="22.805306" lon="120.287474"/><rtept lat="22.805046" lon="120.287785"/><rtept lat="22.805016" lon="120.28782"/><rtept lat="22.804218" lon="120.288803"/><rtept lat="22.804146" lon="120.288892"/><rtept lat="22.804068" lon="120.288988"/><rtept lat="22.802869" lon="120.290473"/><rtept lat="22.801712" lon="120.291904"/><rtept lat="22.80161" lon="120.292031"/><rtept lat="22.801543" lon="120.292113"/><rtept lat="22.801343" lon="120.292359"/><rtept lat="22.801191" lon="120.292546"/><rtept lat="22.80061" lon="120.293269"/><rtept lat="22.800132" lon="120.293848"/><rtept lat="22.799825" lon="120.294276"/><rtept lat="22.799717" lon="120.294427"/><rtept lat="22.799481" lon="120.294726"/><rtept lat="22.799378" lon="120.294871"/><rtept lat="22.799287" lon="120.294997"/><rtept lat="22.7984" lon="120.296226"/><rtept lat="22.797214" lon="120.297814"/><rtept lat="22.797094" lon="120.297988"/><rtept lat="22.796789" lon="120.298368"/><rtept lat="22.796646" lon="120.29849"/><rtept lat="22.796396" lon="120.298556"/><rtept lat="22.795672" lon="120.298642"/><rtept lat="22.794707" lon="120.29875"/><rtept lat="22.793685" lon="120.29886"/><rtept lat="22.792938" lon="120.298943"/><rtept lat="22.792906" lon="120.298946"/><rtept lat="22.792412" lon="120.298999"/><rtept lat="22.792283" lon="120.299014"/><rtept lat="22.792239" lon="120.299019"/><rtept lat="22.792052" lon="120.299039"/><rtept lat="22.791618" lon="120.299083"/><rtept lat="22.790763" lon="120.299176"/><rtept lat="22.789938" lon="120.299268"/><rtept lat="22.789192" lon="120.299354"/><rtept lat="22.788563" lon="120.299433"/><rtept lat="22.787975" lon="120.299494"/><rtept lat="22.787436" lon="120.299549"/><rtept lat="22.786474" lon="120.299621"/><rtept lat="22.786324" lon="120.299635"/><rtept lat="22.786241" lon="120.299645"/><rtept lat="22.785709" lon="120.299706"/><rtept lat="22.785674" lon="120.29971"/><rtept lat="22.785581" lon="120.299719"/><rtept lat="22.784906" lon="120.299769"/><rtept lat="22.784478" lon="120.299775"/><rtept lat="22.782586" lon="120.299429"/><rtept lat="22.782452" lon="120.299408"/><rtept lat="22.782275" lon="120.299362"/><rtept lat="22.782085" lon="120.299313"/><rtept lat="22.780031" lon="120.298817"/><rtept lat="22.779814" lon="120.2988"/><rtept lat="22.77968" lon="120.298761"/><rtept lat="22.779518" lon="120.298806"/><rtept lat="22.77935" lon="120.298873"/><rtept lat="22.778766" lon="120.299175"/><rtept lat="22.778667" lon="120.299234"/><rtept lat="22.77849" lon="120.299329"/><rtept lat="22.778025" lon="120.299578"/><rtept lat="22.777963" lon="120.299619"/><rtept lat="22.77766" lon="120.299778"/><rtept lat="22.776937" lon="120.300173"/><rtept lat="22.776122" lon="120.300631"/><rtept lat="22.776025" lon="120.300686"/><rtept lat="22.775945" lon="120.300729"/><rtept lat="22.77325" lon="120.3022"/><rtept lat="22.771378" lon="120.303223"/><rtept lat="22.771253" lon="120.303292"/><rtept lat="22.768355" lon="120.304885"/><rtept lat="22.768304" lon="120.304913"/><rtept lat="22.768098" lon="120.305037"/><rtept lat="22.76787" lon="120.305172"/><rtept lat="22.767788" lon="120.305222"/><rtept lat="22.767263" lon="120.305523"/><rtept lat="22.766996" lon="120.305667"/><rtept lat="22.76697" lon="120.305715"/><rtept lat="22.766923" lon="120.3058"/><rtept lat="22.766835" lon="120.305847"/><rtept lat="22.764878" lon="120.306924"/><rtept lat="22.764839" lon="120.306946"/><rtept lat="22.764792" lon="120.30697"/><rtept lat="22.764502" lon="120.30712"/><rtept lat="22.764088" lon="120.307344"/><rtept lat="22.763668" lon="120.307567"/><rtept lat="22.763598" lon="120.307604"/><rtept lat="22.763509" lon="120.307657"/><rtept lat="22.763168" lon="120.307855"/><rtept lat="22.761856" lon="120.308563"/><rtept lat="22.761809" lon="120.308588"/><rtept lat="22.761458" lon="120.3088"/><rtept lat="22.76142" lon="120.308823"/><rtept lat="22.760457" lon="120.309353"/><rtept lat="22.76041" lon="120.309379"/><rtept lat="22.76036" lon="120.309397"/><rtept lat="22.759996" lon="120.309529"/><rtept lat="22.759829" lon="120.30959"/><rtept lat="22.759742" lon="120.309617"/><rtept lat="22.759074" lon="120.309827"/><rtept lat="22.757756" lon="120.310193"/><rtept lat="22.757289" lon="120.310327"/><rtept lat="22.756558" lon="120.310631"/><rtept lat="22.756502" lon="120.310654"/><rtept lat="22.756442" lon="120.310686"/><rtept lat="22.755582" lon="120.311136"/><rtept lat="22.755514" lon="120.311173"/><rtept lat="22.754693" lon="120.311613"/><rtept lat="22.754607" lon="120.311659"/><rtept lat="22.754467" lon="120.311735"/><rtept lat="22.754202" lon="120.31188"/><rtept lat="22.752604" lon="120.312733"/><rtept lat="22.752182" lon="120.312977"/><rtept lat="22.75107" lon="120.313516"/><rtept lat="22.750203" lon="120.313992"/><rtept lat="22.750165" lon="120.314013"/><rtept lat="22.75003" lon="120.314092"/><rtept lat="22.749803" lon="120.314208"/><rtept lat="22.749654" lon="120.31428"/><rtept lat="22.747763" lon="120.315267"/><rtept lat="22.74771" lon="120.315295"/><rtept lat="22.747635" lon="120.315334"/><rtept lat="22.747528" lon="120.31539"/><rtept lat="22.746899" lon="120.315724"/><rtept lat="22.746392" lon="120.315946"/><rtept lat="22.745579" lon="120.316201"/><rtept lat="22.745487" lon="120.31623"/><rtept lat="22.745406" lon="120.316254"/><rtept lat="22.745279" lon="120.316288"/><rtept lat="22.743283" lon="120.316817"/><rtept lat="22.743073" lon="120.316876"/><rtept lat="22.742941" lon="120.316908"/><rtept lat="22.742872" lon="120.316931"/><rtept lat="22.74154" lon="120.317351"/><rtept lat="22.740588" lon="120.317631"/><rtept lat="22.740517" lon="120.317653"/><rtept lat="22.740358" lon="120.317699"/><rtept lat="22.738101" lon="120.318359"/><rtept lat="22.738028" lon="120.31838"/><rtept lat="22.737144" lon="120.318624"/><rtept lat="22.735221" lon="120.319155"/><rtept lat="22.734803" lon="120.319271"/><rtept lat="22.733361" lon="120.319677"/><rtept lat="22.733256" lon="120.319706"/><rtept lat="22.733201" lon="120.319621"/><rtept lat="22.732574" lon="120.318661"/><rtept lat="22.732543" lon="120.318614"/><rtept lat="22.73209" lon="120.317912"/><rtept lat="22.731981" lon="120.317742"/><rtept lat="22.731567" lon="120.317078"/><rtept lat="22.731502" lon="120.316973"/><rtept lat="22.731429" lon="120.316856"/><rtept lat="22.731143" lon="120.316398"/><rtept lat="22.730769" lon="120.315803"/><rtept lat="22.730686" lon="120.315864"/><rtept lat="22.730625" lon="120.315911"/><rtept lat="22.730554" lon="120.315969"/><rtept lat="22.730722" lon="120.316227"/><rtept lat="22.731232" lon="120.317007"/><rtept lat="22.731303" lon="120.317116"/><rtept lat="22.731366" lon="120.31707"/><rtept lat="22.731434" lon="120.317022"/><rtept lat="22.731502" lon="120.316973"/><rtept lat="22.731429" lon="120.316856"/><rtept lat="22.731143" lon="120.316398"/><rtept lat="22.730769" lon="120.315803"/><rtept lat="22.730724" lon="120.31573"/><rtept lat="22.730699" lon="120.315689"/><rtept lat="22.73001" lon="120.31462"/><rtept lat="22.7299" lon="120.314453"/><rtept lat="22.72984" lon="120.314359"/><rtept lat="22.729453" lon="120.313778"/><rtept lat="22.72876" lon="120.313043"/><rtept lat="22.728614" lon="120.312891"/><rtept lat="22.728248" lon="120.312512"/><rtept lat="22.727794" lon="120.311997"/><rtept lat="22.727526" lon="120.311668"/><rtept lat="22.727059" lon="120.310946"/><rtept lat="22.726838" lon="120.310554"/><rtept lat="22.726751" lon="120.310399"/><rtept lat="22.726673" lon="120.310406"/><rtept lat="22.726586" lon="120.31043"/><rtept lat="22.726518" lon="120.310479"/><rtept lat="22.726446" lon="120.310531"/><rtept lat="22.726051" lon="120.310926"/><rtept lat="22.725767" lon="120.311295"/><rtept lat="22.725557" lon="120.311584"/><rtept lat="22.725267" lon="120.312063"/><rtept lat="22.725026" lon="120.312613"/><rtept lat="22.724774" lon="120.313445"/><rtept lat="22.724695" lon="120.313785"/><rtept lat="22.724408" lon="120.31481"/><rtept lat="22.724179" lon="120.315371"/><rtept lat="22.723959" lon="120.315823"/><rtept lat="22.723675" lon="120.316256"/><rtept lat="22.723338" lon="120.316658"/><rtept lat="22.723148" lon="120.316855"/><rtept lat="22.722814" lon="120.317183"/><rtept lat="22.722654" lon="120.317264"/><rtept lat="22.722027" lon="120.317455"/><rtept lat="22.721673" lon="120.317559"/><rtept lat="22.721224" lon="120.317673"/><rtept lat="22.720916" lon="120.317738"/><rtept lat="22.720173" lon="120.317818"/><rtept lat="22.719973" lon="120.31784"/><rtept lat="22.719217" lon="120.317883"/><rtept lat="22.719146" lon="120.317922"/><rtept lat="22.719121" lon="120.31801"/><rtept lat="22.719022" lon="120.318564"/><rtept lat="22.719003" lon="120.318765"/><rtept lat="22.718977" lon="120.318868"/><rtept lat="22.718904" lon="120.318994"/><rtept lat="22.7188" lon="120.319106"/><rtept lat="22.718701" lon="120.319186"/><rtept lat="22.718602" lon="120.319242"/><rtept lat="22.718559" lon="120.319298"/><rtept lat="22.718547" lon="120.31935"/><rtept lat="22.718554" lon="120.319391"/><rtept lat="22.71952" lon="120.32104"/><rtept lat="22.719553" lon="120.321144"/><rtept lat="22.719516" lon="120.321247"/><rtept lat="22.719409" lon="120.321346"/><rtept lat="22.719176" lon="120.321468"/><rtept lat="22.718811" lon="120.321606"/><rtept lat="22.717673" lon="120.321938"/><rtept lat="22.716401" lon="120.32241"/><rtept lat="22.71475" lon="120.322975"/><rtept lat="22.714111" lon="120.323129"/><rtept lat="22.714132" lon="120.323324"/><rtept lat="22.71352" lon="120.323442"/><rtept lat="22.712763" lon="120.323533"/><rtept lat="22.712704" lon="120.323597"/><rtept lat="22.712634" lon="120.324032"/><rtept lat="22.712461" lon="120.324909"/><rtept lat="22.712422" lon="120.325027"/><rtept lat="22.712083" lon="120.325402"/><rtept lat="22.712008" lon="120.325482"/><rtept lat="22.709288" lon="120.324949"/><rtept lat="22.706772" lon="120.324467"/><rtept lat="22.70669" lon="120.324365"/><rtept lat="22.706587" lon="120.324345"/><rtept lat="22.706498" lon="120.324413"/><rtept lat="22.703983" lon="120.323905"/><rtept lat="22.703864" lon="120.323881"/><rtept lat="22.703748" lon="120.323855"/><rtept lat="22.701369" lon="120.323409"/><rtept lat="22.70129" lon="120.323393"/><rtept lat="22.701281" lon="120.32347"/><rtept lat="22.701267" lon="120.323589"/><rtept lat="22.701149" lon="120.324149"/><rtept lat="22.701104" lon="120.324273"/><rtept lat="22.700659" lon="120.325206"/><rtept lat="22.70037" lon="120.325777"/><rtept lat="22.699701" lon="120.327037"/><rtept lat="22.699563" lon="120.327297"/><rtept lat="22.699239" lon="120.32791"/><rtept lat="22.699103" lon="120.328166"/><rtept lat="22.6991" lon="120.328173"/><rtept lat="22.698966" lon="120.32843"/><rtept lat="22.698884" lon="120.328533"/><rtept lat="22.698709" lon="120.328689"/><rtept lat="22.698601" lon="120.328759"/><rtept lat="22.698475" lon="120.32884"/><rtept lat="22.6984" lon="120.328887"/><rtept lat="22.69836" lon="120.328913"/><rtept lat="22.695056" lon="120.331032"/><rtept lat="22.694874" lon="120.331162"/><rtept lat="22.694714" lon="120.331299"/><rtept lat="22.694031" lon="120.331884"/><rtept lat="22.693961" lon="120.331943"/><rtept lat="22.693924" lon="120.331975"/><rtept lat="22.693865" lon="120.332021"/><rtept lat="22.693615" lon="120.332224"/><rtept lat="22.692781" lon="120.3329"/><rtept lat="22.692716" lon="120.332949"/><rtept lat="22.692641" lon="120.333007"/><rtept lat="22.691799" lon="120.333651"/><rtept lat="22.691168" lon="120.334099"/><rtept lat="22.690712" lon="120.334443"/><rtept lat="22.690351" lon="120.334726"/><rtept lat="22.690322" lon="120.334749"/><rtept lat="22.690217" lon="120.334829"/><rtept lat="22.688283" lon="120.336291"/><rtept lat="22.688104" lon="120.336436"/><rtept lat="22.688076" lon="120.336456"/><rtept lat="22.687828" lon="120.336582"/><rtept lat="22.687729" lon="120.336582"/><rtept lat="22.687056" lon="120.336582"/><rtept lat="22.68698" lon="120.336577"/><rtept lat="22.686964" lon="120.336691"/><rtept lat="22.686924" lon="120.336782"/><rtept lat="22.686808" lon="120.337082"/><rtept lat="22.686742" lon="120.337211"/><rtept lat="22.686694" lon="120.337304"/><rtept lat="22.686646" lon="120.337369"/><rtept lat="22.686506" lon="120.33756"/><rtept lat="22.685452" lon="120.33875"/><rtept lat="22.685118" lon="120.339105"/><rtept lat="22.68481" lon="120.339374"/><rtept lat="22.684504" lon="120.339469"/><rtept lat="22.683427" lon="120.33968"/><rtept lat="22.68248" lon="120.339867"/><rtept lat="22.682389" lon="120.339885"/><rtept lat="22.681347" lon="120.34009"/><rtept lat="22.681011" lon="120.340147"/><rtept lat="22.68017" lon="120.340326"/><rtept lat="22.67974" lon="120.340367"/><rtept lat="22.678296" lon="120.34066"/><rtept lat="22.678102" lon="120.340698"/><rtept lat="22.676713" lon="120.341021"/><rtept lat="22.675815" lon="120.341083"/><rtept lat="22.675758" lon="120.341087"/><rtept lat="22.67563" lon="120.341091"/><rtept lat="22.675099" lon="120.341099"/><rtept lat="22.674358" lon="120.341102"/><rtept lat="22.673922" lon="120.341117"/><rtept lat="22.673739" lon="120.341181"/><rtept lat="22.67366" lon="120.341237"/><rtept lat="22.673526" lon="120.341377"/><rtept lat="22.673163" lon="120.342005"/><rtept lat="22.672939" lon="120.342347"/><rtept lat="22.672893" lon="120.342398"/><rtept lat="22.672174" lon="120.343172"/><rtept lat="22.671481" lon="120.344261"/><rtept lat="22.671439" lon="120.344328"/><rtept lat="22.671122" lon="120.345005"/><rtept lat="22.670907" lon="120.345382"/><rtept lat="22.670809" lon="120.345506"/><rtept lat="22.670679" lon="120.345614"/><rtept lat="22.669734" lon="120.345645"/><rtept lat="22.669488" lon="120.34567"/><rtept lat="22.669211" lon="120.345738"/><rtept lat="22.669014" lon="120.345835"/><rtept lat="22.668737" lon="120.346023"/><rtept lat="22.668607" lon="120.345619"/><rtept lat="22.668312" lon="120.344824"/><rtept lat="22.668071" lon="120.344499"/><rtept lat="22.667734" lon="120.344256"/><rtept lat="22.667415" lon="120.343991"/><rtept lat="22.666625" lon="120.343294"/><rtept lat="22.666606" lon="120.343282"/><rtept lat="22.666444" lon="120.34319"/><rtept lat="22.666331" lon="120.343092"/><rtept lat="22.666297" lon="120.343063"/><rtept lat="22.666011" lon="120.343094"/><rtept lat="22.665511" lon="120.343331"/><rtept lat="22.66526" lon="120.343363"/><rtept lat="22.664886" lon="120.343363"/><rtept lat="22.664659" lon="120.343399"/><rtept lat="22.66407" lon="120.343605"/><rtept lat="22.663603" lon="120.343641"/><rtept lat="22.663223" lon="120.343641"/><rtept lat="22.662872" lon="120.343707"/><rtept lat="22.662654" lon="120.343707"/><rtept lat="22.662538" lon="120.343701"/><rtept lat="22.662372" lon="120.343621"/><rtept lat="22.662158" lon="120.343425"/><rtept lat="22.662007" lon="120.343235"/><rtept lat="22.6616" lon="120.342772"/><rtept lat="22.660767" lon="120.343457"/><rtept lat="22.660693" lon="120.34357"/><rtept lat="22.660564" lon="120.343939"/><rtept lat="22.660246" lon="120.344564"/><rtept lat="22.659541" lon="120.345308"/><rtept lat="22.658754" lon="120.345947"/><rtept lat="22.65848" lon="120.346213"/><rtept lat="22.658332" lon="120.346356"/><rtept lat="22.658079" lon="120.346662"/><rtept lat="22.657694" lon="120.347097"/><rtept lat="22.657269" lon="120.347551"/><rtept lat="22.657026" lon="120.347721"/><rtept lat="22.656656" lon="120.347913"/><rtept lat="22.656244" lon="120.348108"/><rtept lat="22.655854" lon="120.348268"/><rtept lat="22.655705" lon="120.348332"/><rtept lat="22.655577" lon="120.348354"/><rtept lat="22.655175" lon="120.348422"/><rtept lat="22.654859" lon="120.348497"/><rtept lat="22.654629" lon="120.348579"/><rtept lat="22.654411" lon="120.348793"/><rtept lat="22.6542" lon="120.349117"/><rtept lat="22.654128" lon="120.349273"/><rtept lat="22.653897" lon="120.349793"/><rtept lat="22.653819" lon="120.349972"/><rtept lat="22.653736" lon="120.350384"/><rtept lat="22.653671" lon="120.350879"/><rtept lat="22.653687" lon="120.351046"/><rtept lat="22.653783" lon="120.351295"/><rtept lat="22.65395" lon="120.351469"/><rtept lat="22.654452" lon="120.351479"/><rtept lat="22.654518" lon="120.351342"/><rtept lat="22.654636" lon="120.351185"/><rtept lat="22.654799" lon="120.351146"/><rtept lat="22.65498" lon="120.351195"/><rtept lat="22.655464" lon="120.35171"/><rtept lat="22.655472" lon="120.351795"/><rtept lat="22.655795" lon="120.351413"/><rtept lat="22.656954" lon="120.352318"/><rtept lat="22.657207" lon="120.352054"/><rtept lat="22.657313" lon="120.351978"/><rtept lat="22.657421" lon="120.351943"/><rtept lat="22.657575" lon="120.351936"/><rtept lat="22.657911" lon="120.351683"/><rtept lat="22.657575" lon="120.351936"/><rtept lat="22.657421" lon="120.351943"/><rtept lat="22.657313" lon="120.351978"/><rtept lat="22.657207" lon="120.352054"/><rtept lat="22.656954" lon="120.352318"/><rtept lat="22.655795" lon="120.351413"/><rtept lat="22.655472" lon="120.351795"/><rtept lat="22.655464" lon="120.35171"/><rtept lat="22.65498" lon="120.351195"/><rtept lat="22.654799" lon="120.351146"/><rtept lat="22.654636" lon="120.351185"/><rtept lat="22.654518" lon="120.351342"/><rtept lat="22.654452" lon="120.351479"/><rtept lat="22.65395" lon="120.351469"/><rtept lat="22.653783" lon="120.351295"/><rtept lat="22.653687" lon="120.351046"/><rtept lat="22.653671" lon="120.350879"/><rtept lat="22.653736" lon="120.350384"/><rtept lat="22.653819" lon="120.349972"/><rtept lat="22.653897" lon="120.349793"/><rtept lat="22.653319" lon="120.349575"/><rtept lat="22.653309" lon="120.349469"/><rtept lat="22.653278" lon="120.349407"/><rtept lat="22.652754" lon="120.349185"/><rtept lat="22.652588" lon="120.349198"/><rtept lat="22.652154" lon="120.34903"/><rtept lat="22.652059" lon="120.348985"/><rtept lat="22.651959" lon="120.349251"/><rtept lat="22.651892" lon="120.349423"/><rtept lat="22.651166" lon="120.35093"/><rtept lat="22.651085" lon="120.351097"/><rtept lat="22.650051" lon="120.35081"/><rtept lat="22.649557" lon="120.350788"/><rtept lat="22.649276" lon="120.350819"/><rtept lat="22.649064" lon="120.350865"/><rtept lat="22.648865" lon="120.350933"/><rtept lat="22.648702" lon="120.351015"/><rtept lat="22.648341" lon="120.351262"/><rtept lat="22.646601" lon="120.35168"/><rtept lat="22.646498" lon="120.35168"/><rtept lat="22.646397" lon="120.351652"/><rtept lat="22.646195" lon="120.351503"/><rtept lat="22.645538" lon="120.350984"/><rtept lat="22.645295" lon="120.350781"/><rtept lat="22.644873" lon="120.350446"/><rtept lat="22.644291" lon="120.349988"/><rtept lat="22.644248" lon="120.349953"/><rtept lat="22.644194" lon="120.349912"/><rtept lat="22.643913" lon="120.34969"/><rtept lat="22.643704" lon="120.349531"/><rtept lat="22.643608" lon="120.349459"/><rtept lat="22.643525" lon="120.349425"/><rtept lat="22.643461" lon="120.349408"/><rtept lat="22.643287" lon="120.349364"/><rtept lat="22.643096" lon="120.349318"/><rtept lat="22.642455" lon="120.349135"/><rtept lat="22.642623" lon="120.348294"/><rtept lat="22.642705" lon="120.347883"/><rtept lat="22.642716" lon="120.347827"/><rtept lat="22.642632" lon="120.347804"/><rtept lat="22.641609" lon="120.347523"/><rtept lat="22.641554" lon="120.347508"/><rtept lat="22.641467" lon="120.347484"/><rtept lat="22.641418" lon="120.347471"/><rtept lat="22.640781" lon="120.347294"/><rtept lat="22.64071" lon="120.347274"/><rtept lat="22.640639" lon="120.347254"/><rtept lat="22.640289" lon="120.347155"/><rtept lat="22.639915" lon="120.347066"/><rtept lat="22.639854" lon="120.347051"/><rtept lat="22.639877" lon="120.346965"/><rtept lat="22.640041" lon="120.346358"/><rtept lat="22.640056" lon="120.346274"/><rtept lat="22.64007" lon="120.346205"/><rtept lat="22.640222" lon="120.345535"/><rtept lat="22.640244" lon="120.345424"/><rtept lat="22.640267" lon="120.345301"/><rtept lat="22.640186" lon="120.345281"/><rtept lat="22.639701" lon="120.345164"/><rtept lat="22.639734" lon="120.34499"/><rtept lat="22.639806" lon="120.344604"/><rtept lat="22.639429" lon="120.344531"/><rtept lat="22.639112" lon="120.34447"/><rtept lat="22.63868" lon="120.344387"/><rtept lat="22.638581" lon="120.344813"/><rtept lat="22.638566" lon="120.344879"/><rtept lat="22.638545" lon="120.344994"/><rtept lat="22.638521" lon="120.345127"/><rtept lat="22.638267" lon="120.346534"/><rtept lat="22.638258" lon="120.346588"/><rtept lat="22.637654" lon="120.346417"/><rtept lat="22.637536" lon="120.346383"/><rtept lat="22.637403" lon="120.34636"/><rtept lat="22.637468" lon="120.346564"/><rtept lat="22.63769" lon="120.347267"/><rtept lat="22.637729" lon="120.347482"/><rtept lat="22.637767" lon="120.348121"/><rtept lat="22.637745" lon="120.348688"/><rtept lat="22.637632" lon="120.349388"/><rtept lat="22.637612" lon="120.349545"/><rtept lat="22.637549" lon="120.349973"/><rtept lat="22.637469" lon="120.350508"/><rtept lat="22.637457" lon="120.35058"/><rtept lat="22.637313" lon="120.35133"/><rtept lat="22.637125" lon="120.352398"/><rtept lat="22.637091" lon="120.352591"/><rtept lat="22.637076" lon="120.352679"/><rtept lat="22.636842" lon="120.354019"/><rtept lat="22.636677" lon="120.355001"/><rtept lat="22.636479" lon="120.356032"/><rtept lat="22.636277" lon="120.357119"/><rtept lat="22.636243" lon="120.357296"/><rtept lat="22.636006" lon="120.357436"/><rtept lat="22.635385" lon="120.357804"/><rtept lat="22.635014" lon="120.358012"/><rtept lat="22.634717" lon="120.358195"/><rtept lat="22.634611" lon="120.358233"/><rtept lat="22.634568" lon="120.358249"/><rtept lat="22.634501" lon="120.358235"/><rtept lat="22.634211" lon="120.358174"/><rtept lat="22.634097" lon="120.358153"/><rtept lat="22.633971" lon="120.35813"/><rtept lat="22.6334" lon="120.358024"/><rtept lat="22.633339" lon="120.358013"/><rtept lat="22.633246" lon="120.357994"/><rtept lat="22.632282" lon="120.357806"/><rtept lat="22.632198" lon="120.357789"/><rtept lat="22.63209" lon="120.357767"/><rtept lat="22.631032" lon="120.357533"/><rtept lat="22.630941" lon="120.357502"/><rtept lat="22.630827" lon="120.357467"/><rtept lat="22.630725" lon="120.35744"/><rtept lat="22.630638" lon="120.357419"/><rtept lat="22.630368" lon="120.357356"/><rtept lat="22.629088" lon="120.357102"/><rtept lat="22.629001" lon="120.357085"/><rtept lat="22.628892" lon="120.357094"/><rtept lat="22.628201" lon="120.357163"/><rtept lat="22.628008" lon="120.357195"/><rtept lat="22.627797" lon="120.357231"/><rtept lat="22.627358" lon="120.357306"/><rtept lat="22.627133" lon="120.357339"/><rtept lat="22.627236" lon="120.35806"/><rtept lat="22.627149" lon="120.358585"/><rtept lat="22.62714" lon="120.35889"/><rtept lat="22.627085" lon="120.359264"/><rtept lat="22.627194" lon="120.359547"/><rtept lat="22.627221" lon="120.359649"/><rtept lat="22.627194" lon="120.359547"/><rtept lat="22.627085" lon="120.359264"/><rtept lat="22.626856" lon="120.359303"/><rtept lat="22.626186" lon="120.358863"/><rtept lat="22.626094" lon="120.358717"/><rtept lat="22.625982" lon="120.35862"/><rtept lat="22.625889" lon="120.358576"/><rtept lat="22.625802" lon="120.358442"/><rtept lat="22.625752" lon="120.358242"/><rtept lat="22.625742" lon="120.358124"/><rtept lat="22.625524" lon="120.35808"/><rtept lat="22.625278" lon="120.358034"/><rtept lat="22.625146" lon="120.358004"/><rtept lat="22.625097" lon="120.357957"/><rtept lat="22.625054" lon="120.357835"/><rtept lat="22.625056" lon="120.357776"/><rtept lat="22.625044" lon="120.357608"/><rtept lat="22.624909" lon="120.357078"/><rtept lat="22.624894" lon="120.357019"/><rtept lat="22.624866" lon="120.35691"/><rtept lat="22.624789" lon="120.356931"/><rtept lat="22.624347" lon="120.357045"/><rtept lat="22.624189" lon="120.357085"/><rtept lat="22.623873" lon="120.357177"/><rtept lat="22.623466" lon="120.35732"/><rtept lat="22.623377" lon="120.357384"/><rtept lat="22.623276" lon="120.357525"/><rtept lat="22.623251" lon="120.357559"/><rtept lat="22.62283" lon="120.357136"/><rtept lat="22.622391" lon="120.35665"/><rtept lat="22.62231" lon="120.356569"/><rtept lat="22.621746" lon="120.356007"/><rtept lat="22.621618" lon="120.355878"/><rtept lat="22.621284" lon="120.355518"/><rtept lat="22.621084" lon="120.3553"/><rtept lat="22.620857" lon="120.35508"/><rtept lat="22.620658" lon="120.354882"/><rtept lat="22.620377" lon="120.354615"/><rtept lat="22.620154" lon="120.354415"/><rtept lat="22.619977" lon="120.354262"/><rtept lat="22.619888" lon="120.354191"/><rtept lat="22.619771" lon="120.354089"/><rtept lat="22.619477" lon="120.353831"/><rtept lat="22.619252" lon="120.35367"/><rtept lat="22.618934" lon="120.353452"/><rtept lat="22.619038" lon="120.35297"/><rtept lat="22.618719" lon="120.352754"/><rtept lat="22.618367" lon="120.352738"/><rtept lat="22.618084" lon="120.352726"/><rtept lat="22.617923" lon="120.352722"/><rtept lat="22.617681" lon="120.352716"/><rtept lat="22.617515" lon="120.352712"/><rtept lat="22.617372" lon="120.352709"/><rtept lat="22.617125" lon="120.352703"/><rtept lat="22.616809" lon="120.352698"/><rtept lat="22.616728" lon="120.352696"/><rtept lat="22.616607" lon="120.352692"/><rtept lat="22.616522" lon="120.352676"/><rtept lat="22.616335" lon="120.352953"/><rtept lat="22.616023" lon="120.353399"/><rtept lat="22.615963" lon="120.353226"/><rtept lat="22.615927" lon="120.353175"/><rtept lat="22.615824" lon="120.3531"/><rtept lat="22.615435" lon="120.352812"/><rtept lat="22.614958" lon="120.35246"/><rtept lat="22.614407" lon="120.352053"/><rtept lat="22.614139" lon="120.351855"/><rtept lat="22.613807" lon="120.351609"/><rtept lat="22.613143" lon="120.351116"/><rtept lat="22.612742" lon="120.350822"/><rtept lat="22.612328" lon="120.350374"/><rtept lat="22.612044" lon="120.350053"/><rtept lat="22.611904" lon="120.349891"/><rtept lat="22.611792" lon="120.3498"/><rtept lat="22.611553" lon="120.34966"/><rtept lat="22.6111" lon="120.349388"/><rtept lat="22.610798" lon="120.349207"/><rtept lat="22.609882" lon="120.348709"/><rtept lat="22.609194" lon="120.348242"/><rtept lat="22.608643" lon="120.347915"/><rtept lat="22.608358" lon="120.347744"/><rtept lat="22.607961" lon="120.347506"/><rtept lat="22.60752" lon="120.347242"/><rtept lat="22.606844" lon="120.346825"/><rtept lat="22.606754" lon="120.346773"/><rtept lat="22.60662" lon="120.346685"/><rtept lat="22.60648" lon="120.346605"/><rtept lat="22.605308" lon="120.345828"/><rtept lat="22.605101" lon="120.345693"/><rtept lat="22.604878" lon="120.345547"/><rtept lat="22.604637" lon="120.345484"/><rtept lat="22.604196" lon="120.345131"/><rtept lat="22.602561" lon="120.3439"/><rtept lat="22.602333" lon="120.343663"/><rtept lat="22.601988" lon="120.343306"/><rtept lat="22.600827" lon="120.341914"/><rtept lat="22.599038" lon="120.340952"/><rtept lat="22.598025" lon="120.340323"/><rtept lat="22.597397" lon="120.339904"/><rtept lat="22.597048" lon="120.339671"/><rtept lat="22.596836" lon="120.339535"/><rtept lat="22.596433" lon="120.339276"/><rtept lat="22.596334" lon="120.33921"/><rtept lat="22.595732" lon="120.339625"/><rtept lat="22.595251" lon="120.339885"/><rtept lat="22.594797" lon="120.339607"/><rtept lat="22.594719" lon="120.339559"/><rtept lat="22.594622" lon="120.339471"/><rtept lat="22.594063" lon="120.338967"/><rtept lat="22.593787" lon="120.338717"/><rtept lat="22.593506" lon="120.338464"/><rtept lat="22.592691" lon="120.337747"/><rtept lat="22.592425" lon="120.337447"/><rtept lat="22.592267" lon="120.33727"/><rtept lat="22.592108" lon="120.33709"/><rtept lat="22.591962" lon="120.336927"/><rtept lat="22.591424" lon="120.336274"/><rtept lat="22.591034" lon="120.335803"/><rtept lat="22.590804" lon="120.335729"/><rtept lat="22.590696" lon="120.335774"/><rtept lat="22.59062" lon="120.335828"/><rtept lat="22.590521" lon="120.335886"/><rtept lat="22.590429" lon="120.335856"/><rtept lat="22.590254" lon="120.335847"/><rtept lat="22.590083" lon="120.336066"/><rtept lat="22.589372" lon="120.33671"/><rtept lat="22.589025" lon="120.336421"/><rtept lat="22.588704" lon="120.336128"/><rtept lat="22.588385" lon="120.335856"/><rtept lat="22.588088" lon="120.335791"/><rtept lat="22.58767" lon="120.335674"/><rtept lat="22.587261" lon="120.335572"/><rtept lat="22.586872" lon="120.335475"/><rtept lat="22.586458" lon="120.335361"/><rtept lat="22.586054" lon="120.335244"/><rtept lat="22.585954" lon="120.335209"/><rtept lat="22.585654" lon="120.335114"/><rtept lat="22.585597" lon="120.335096"/><rtept lat="22.584335" lon="120.335119"/><rtept lat="22.584325" lon="120.334645"/><rtept lat="22.583052" lon="120.334652"/><rtept lat="22.58303" lon="120.333939"/><rtept lat="22.583075" lon="120.333762"/><rtept lat="22.583053" lon="120.333393"/><rtept lat="22.583014" lon="120.333143"/><rtept lat="22.582849" lon="120.332641"/><rtept lat="22.582364" lon="120.331897"/><rtept lat="22.58185" lon="120.331152"/><rtept lat="22.581628" lon="120.33081"/><rtept lat="22.580988" lon="120.32993"/><rtept lat="22.580795" lon="120.329645"/><rtept lat="22.580607" lon="120.329313"/><rtept lat="22.580589" lon="120.329273"/><rtept lat="22.580563" lon="120.329192"/><rtept lat="22.580481" lon="120.32908"/><rtept lat="22.580328" lon="120.328869"/><rtept lat="22.58026" lon="120.328782"/><rtept lat="22.580141" lon="120.328912"/><rtept lat="22.579928" lon="120.329132"/><rtept lat="22.578733" lon="120.33017"/><rtept lat="22.576779" lon="120.331793"/><rtept lat="22.576603" lon="120.331969"/><rtept lat="22.574158" lon="120.333962"/><rtept lat="22.571551" lon="120.336254"/><rtept lat="22.570141" lon="120.337453"/><rtept lat="22.569805" lon="120.337722"/><rtept lat="22.569745" lon="120.337789"/><rtept lat="22.569675" lon="120.337988"/><rtept lat="22.569645" lon="120.338404"/><rtept lat="22.569569" lon="120.340995"/><rtept lat="22.569492" lon="120.342969"/><rtept lat="22.569485" lon="120.34313"/><rtept lat="22.569481" lon="120.343239"/><rtept lat="22.569462" lon="120.343672"/><rtept lat="22.569381" lon="120.346791"/><rtept lat="22.56937" lon="120.347058"/><rtept lat="22.569333" lon="120.348073"/><rtept lat="22.569317" lon="120.349177"/><rtept lat="22.569264" lon="120.349412"/><rtept lat="22.569139" lon="120.349646"/><rtept lat="22.569048" lon="120.349745"/><rtept lat="22.568387" lon="120.35036"/><rtept lat="22.568226" lon="120.35051"/><rtept lat="22.567871" lon="120.350841"/><rtept lat="22.567812" lon="120.35106"/><rtept lat="22.5675" lon="120.351336"/><rtept lat="22.566336" lon="120.35237"/><rtept lat="22.563618" lon="120.354819"/><rtept lat="22.562555" lon="120.35577"/><rtept lat="22.561199" lon="120.356871"/><rtept lat="22.56109" lon="120.356955"/><rtept lat="22.561016" lon="120.357016"/><rtept lat="22.560783" lon="120.357099"/><rtept lat="22.558717" lon="120.358747"/><rtept lat="22.555811" lon="120.361062"/><rtept lat="22.555061" lon="120.361636"/><rtept lat="22.554388" lon="120.362204"/><rtept lat="22.55358" lon="120.362829"/><rtept lat="22.553477" lon="120.362908"/><rtept lat="22.553078" lon="120.363242"/><rtept lat="22.553041" lon="120.363273"/><rtept lat="22.552578" lon="120.363659"/><rtept lat="22.552243" lon="120.363791"/><rtept lat="22.551807" lon="120.364038"/><rtept lat="22.550793" lon="120.364798"/><rtept lat="22.550275" lon="120.365147"/><rtept lat="22.549733" lon="120.365554"/><rtept lat="22.547237" lon="120.367265"/><rtept lat="22.545839" lon="120.368307"/><rtept lat="22.545474" lon="120.368552"/><rtept lat="22.545048" lon="120.368837"/><rtept lat="22.544489" lon="120.369247"/><rtept lat="22.544279" lon="120.369401"/><rtept lat="22.541138" lon="120.371653"/><rtept lat="22.541034" lon="120.371725"/><rtept lat="22.540925" lon="120.371791"/><rtept lat="22.54078" lon="120.371891"/><rtept lat="22.540031" lon="120.372429"/><rtept lat="22.539547" lon="120.372697"/><rtept lat="22.538998" lon="120.372942"/><rtept lat="22.538638" lon="120.373041"/><rtept lat="22.538176" lon="120.373145"/><rtept lat="22.537702" lon="120.373192"/><rtept lat="22.537197" lon="120.373192"/><rtept lat="22.536308" lon="120.373079"/><rtept lat="22.53624" lon="120.373063"/><rtept lat="22.536054" lon="120.372998"/><rtept lat="22.535655" lon="120.37286"/><rtept lat="22.534872" lon="120.372461"/><rtept lat="22.532552" lon="120.371201"/><rtept lat="22.532348" lon="120.371066"/><rtept lat="22.532237" lon="120.370992"/><rtept lat="22.531434" lon="120.370557"/><rtept lat="22.531265" lon="120.370466"/><rtept lat="22.531196" lon="120.370427"/><rtept lat="22.530124" lon="120.369822"/><rtept lat="22.529048" lon="120.369207"/><rtept lat="22.528514" lon="120.368902"/><rtept lat="22.523572" lon="120.366218"/><rtept lat="22.523377" lon="120.36611"/><rtept lat="22.521636" lon="120.365137"/><rtept lat="22.52151" lon="120.365066"/><rtept lat="22.520924" lon="120.364715"/><rtept lat="22.518532" lon="120.363397"/><rtept lat="22.517427" lon="120.362778"/><rtept lat="22.516777" lon="120.362391"/><rtept lat="22.516229" lon="120.362232"/><rtept lat="22.515045" lon="120.361515"/><rtept lat="22.514909" lon="120.361433"/><rtept lat="22.514665" lon="120.361288"/><rtept lat="22.514228" lon="120.361036"/><rtept lat="22.514103" lon="120.360986"/><rtept lat="22.513964" lon="120.360953"/><rtept lat="22.513757" lon="120.360939"/><rtept lat="22.513437" lon="120.360946"/><rtept lat="22.51333" lon="120.360957"/><rtept lat="22.513196" lon="120.361008"/><rtept lat="22.513061" lon="120.3611"/><rtept lat="22.512662" lon="120.361509"/><rtept lat="22.512557" lon="120.361619"/><rtept lat="22.512143" lon="120.362035"/><rtept lat="22.511831" lon="120.362172"/><rtept lat="22.511534" lon="120.362236"/><rtept lat="22.511061" lon="120.362299"/><rtept lat="22.51087" lon="120.36234"/><rtept lat="22.510678" lon="120.362398"/><rtept lat="22.510537" lon="120.362472"/><rtept lat="22.510419" lon="120.362544"/><rtept lat="22.510252" lon="120.362664"/><rtept lat="22.510137" lon="120.362781"/><rtept lat="22.509929" lon="120.363054"/><rtept lat="22.509852" lon="120.363166"/><rtept lat="22.509712" lon="120.363421"/><rtept lat="22.509604" lon="120.363677"/><rtept lat="22.509442" lon="120.364157"/><rtept lat="22.509325" lon="120.364493"/><rtept lat="22.508938" lon="120.3656"/><rtept lat="22.508883" lon="120.365751"/><rtept lat="22.508739" lon="120.366134"/><rtept lat="22.508556" lon="120.366547"/><rtept lat="22.508514" lon="120.366642"/><rtept lat="22.508297" lon="120.367137"/><rtept lat="22.508146" lon="120.36741"/><rtept lat="22.508015" lon="120.367597"/><rtept lat="22.507745" lon="120.367921"/><rtept lat="22.507726" lon="120.367936"/><rtept lat="22.507223" lon="120.36838"/><rtept lat="22.506811" lon="120.3688"/><rtept lat="22.506754" lon="120.368862"/><rtept lat="22.506705" lon="120.368924"/><rtept lat="22.506362" lon="120.369397"/><rtept lat="22.505536" lon="120.37062"/><rtept lat="22.505431" lon="120.370767"/><rtept lat="22.505309" lon="120.370961"/><rtept lat="22.5051" lon="120.371318"/><rtept lat="22.505028" lon="120.371471"/><rtept lat="22.504927" lon="120.371749"/><rtept lat="22.50484" lon="120.3721"/><rtept lat="22.504805" lon="120.372309"/><rtept lat="22.504504" lon="120.37397"/><rtept lat="22.504354" lon="120.374789"/><rtept lat="22.504209" lon="120.375583"/><rtept lat="22.503987" lon="120.376778"/><rtept lat="22.503903" lon="120.377217"/><rtept lat="22.503601" lon="120.378866"/><rtept lat="22.503474" lon="120.379588"/><rtept lat="22.503414" lon="120.379929"/><rtept lat="22.503318" lon="120.380478"/><rtept lat="22.503229" lon="120.381786"/><rtept lat="22.503225" lon="120.381937"/><rtept lat="22.503222" lon="120.382069"/><rtept lat="22.503194" lon="120.38236"/><rtept lat="22.50308" lon="120.382692"/><rtept lat="22.50292" lon="120.382965"/><rtept lat="22.502749" lon="120.383151"/><rtept lat="22.502631" lon="120.383255"/><rtept lat="22.502222" lon="120.383487"/><rtept lat="22.501822" lon="120.383702"/><rtept lat="22.501659" lon="120.383802"/><rtept lat="22.501479" lon="120.383973"/><rtept lat="22.501289" lon="120.384246"/><rtept lat="22.500778" lon="120.38502"/><rtept lat="22.500592" lon="120.385341"/><rtept lat="22.50049" lon="120.385569"/><rtept lat="22.500143" lon="120.386411"/><rtept lat="22.500095" lon="120.38658"/><rtept lat="22.499987" lon="120.387026"/><rtept lat="22.499878" lon="120.387596"/><rtept lat="22.499814" lon="120.38817"/><rtept lat="22.499781" lon="120.388557"/><rtept lat="22.499712" lon="120.389479"/><rtept lat="22.499713" lon="120.389744"/><rtept lat="22.499739" lon="120.390037"/><rtept lat="22.499902" lon="120.391911"/><rtept lat="22.50004" lon="120.393376"/><rtept lat="22.500197" lon="120.394722"/><rtept lat="22.500405" lon="120.396376"/><rtept lat="22.50051" lon="120.397398"/><rtept lat="22.500554" lon="120.397931"/><rtept lat="22.500649" lon="120.397942"/><rtept lat="22.500766" lon="120.398005"/><rtept lat="22.500841" lon="120.397988"/><rtept lat="22.501034" lon="120.397961"/><rtept lat="22.501386" lon="120.397912"/><rtept lat="22.50139" lon="120.398614"/><rtept lat="22.501388" lon="120.400001"/><rtept lat="22.501102" lon="120.400061"/><rtept lat="22.501027" lon="120.400051"/><rtept lat="22.500952" lon="120.400046"/><rtept lat="22.500839" lon="120.400038"/><rtept lat="22.500767" lon="120.400036"/><rtept lat="22.500788" lon="120.400225"/><rtept lat="22.500827" lon="120.40072"/><rtept lat="22.500827" lon="120.400973"/><rtept lat="22.500753" lon="120.401447"/><rtept lat="22.500689" lon="120.401691"/><rtept lat="22.499839" lon="120.404167"/><rtept lat="22.49971" lon="120.404425"/><rtept lat="22.499656" lon="120.404693"/><rtept lat="22.499122" lon="120.406263"/><rtept lat="22.499127" lon="120.406388"/><rtept lat="22.498964" lon="120.406851"/><rtept lat="22.498564" lon="120.40794"/><rtept lat="22.498466" lon="120.408311"/><rtept lat="22.498285" lon="120.409375"/><rtept lat="22.498158" lon="120.41012"/><rtept lat="22.498145" lon="120.410193"/><rtept lat="22.498128" lon="120.410292"/><rtept lat="22.49811" lon="120.410404"/><rtept lat="22.497872" lon="120.411887"/><rtept lat="22.497804" lon="120.412376"/><rtept lat="22.497721" lon="120.413227"/><rtept lat="22.497708" lon="120.41378"/><rtept lat="22.497715" lon="120.414254"/><rtept lat="22.497805" lon="120.415237"/><rtept lat="22.497829" lon="120.415353"/><rtept lat="22.497949" lon="120.415897"/><rtept lat="22.498126" lon="120.416888"/><rtept lat="22.498198" lon="120.417497"/><rtept lat="22.498878" lon="120.42549"/><rtept lat="22.499599" lon="120.433677"/><rtept lat="22.499668" lon="120.434621"/><rtept lat="22.499683" lon="120.435587"/><rtept lat="22.499601" lon="120.436386"/><rtept lat="22.499454" lon="120.436962"/><rtept lat="22.499361" lon="120.437206"/><rtept lat="22.498881" lon="120.438224"/><rtept lat="22.49777" lon="120.44043"/><rtept lat="22.497263" lon="120.441378"/><rtept lat="22.496743" lon="120.442372"/><rtept lat="22.496556" lon="120.442793"/><rtept lat="22.496314" lon="120.443436"/><rtept lat="22.49478" lon="120.443456"/><rtept lat="22.494509" lon="120.443388"/><rtept lat="22.493246" lon="120.442739"/><rtept lat="22.492374" lon="120.441896"/><rtept lat="22.490524" lon="120.440118"/><rtept lat="22.490446" lon="120.440154"/><rtept lat="22.490229" lon="120.440254"/><rtept lat="22.490161" lon="120.440289"/><rtept lat="22.489477" lon="120.440571"/><rtept lat="22.487523" lon="120.441396"/><rtept lat="22.485467" lon="120.442236"/><rtept lat="22.484686" lon="120.442554"/><rtept lat="22.484009" lon="120.442809"/><rtept lat="22.48358" lon="120.443044"/><rtept lat="22.483467" lon="120.443073"/><rtept lat="22.482711" lon="120.443386"/><rtept lat="22.482488" lon="120.443463"/><rtept lat="22.481934" lon="120.443689"/><rtept lat="22.481464" lon="120.443807"/><rtept lat="22.481127" lon="120.443857"/><rtept lat="22.480287" lon="120.444"/><rtept lat="22.478703" lon="120.444231"/><rtept lat="22.478345" lon="120.444283"/><rtept lat="22.4775" lon="120.444354"/><rtept lat="22.476531" lon="120.444474"/><rtept lat="22.476276" lon="120.444511"/><rtept lat="22.475582" lon="120.44456"/><rtept lat="22.47539" lon="120.444578"/><rtept lat="22.474821" lon="120.444647"/><rtept lat="22.474541" lon="120.444677"/><rtept lat="22.474221" lon="120.444734"/><rtept lat="22.473995" lon="120.444755"/><rtept lat="22.473853" lon="120.444829"/><rtept lat="22.472584" lon="120.445375"/><rtept lat="22.469193" lon="120.446777"/><rtept lat="22.469004" lon="120.446874"/><rtept lat="22.468908" lon="120.446921"/><rtept lat="22.468814" lon="120.446963"/><rtept lat="22.468488" lon="120.447113"/><rtept lat="22.468401" lon="120.44717"/><rtept lat="22.468302" lon="120.447248"/><rtept lat="22.468209" lon="120.447383"/><rtept lat="22.468062" lon="120.447668"/><rtept lat="22.468032" lon="120.447726"/><rtept lat="22.467084" lon="120.447196"/><rtept lat="22.466856" lon="120.447058"/><rtept lat="22.46639" lon="120.446802"/><rtept lat="22.465436" lon="120.446028"/><rtept lat="22.464995" lon="120.446425"/><rtept lat="22.464681" lon="120.446041"/><rtept lat="22.464228" lon="120.445623"/><rtept lat="22.46416" lon="120.445556"/><rtept lat="22.464104" lon="120.4455"/><rtept lat="22.463201" lon="120.44464"/><rtept lat="22.462694" lon="120.444087"/><rtept lat="22.462643" lon="120.444027"/><rtept lat="22.462497" lon="120.443857"/><rtept lat="22.462314" lon="120.443644"/><rtept lat="22.462072" lon="120.443401"/><rtept lat="22.461939" lon="120.443247"/><rtept lat="22.461877" lon="120.443192"/><rtept lat="22.461694" lon="120.442991"/><rtept lat="22.461552" lon="120.442834"/><rtept lat="22.461197" lon="120.44244"/><rtept lat="22.461282" lon="120.442351"/><rtept lat="22.46097" lon="120.441653"/><rtept lat="22.460858" lon="120.441401"/><rtept lat="22.46097" lon="120.441653"/><rtept lat="22.461282" lon="120.442351"/><rtept lat="22.461197" lon="120.44244"/><rtept lat="22.461552" lon="120.442834"/><rtept lat="22.461694" lon="120.442991"/><rtept lat="22.461877" lon="120.443192"/><rtept lat="22.461939" lon="120.443247"/><rtept lat="22.462072" lon="120.443401"/><rtept lat="22.462314" lon="120.443644"/><rtept lat="22.462497" lon="120.443857"/><rtept lat="22.462643" lon="120.444027"/><rtept lat="22.462694" lon="120.444087"/><rtept lat="22.463201" lon="120.44464"/><rtept lat="22.464104" lon="120.4455"/><rtept lat="22.46416" lon="120.445556"/><rtept lat="22.464228" lon="120.445623"/><rtept lat="22.464681" lon="120.446041"/><rtept lat="22.464036" lon="120.446684"/><rtept lat="22.463849" lon="120.446914"/><rtept lat="22.463754" lon="120.447281"/><rtept lat="22.463742" lon="120.447339"/><rtept lat="22.463716" lon="120.447454"/><rtept lat="22.463707" lon="120.447491"/><rtept lat="22.464059" lon="120.447625"/><rtept lat="22.464101" lon="120.447654"/><rtept lat="22.464234" lon="120.447785"/><rtept lat="22.464356" lon="120.447938"/><rtept lat="22.464479" lon="120.448188"/><rtept lat="22.464529" lon="120.448305"/><rtept lat="22.464591" lon="120.448816"/><rtept lat="22.46481" lon="120.450619"/><rtept lat="22.464913" lon="120.451488"/><rtept lat="22.464919" lon="120.451548"/><rtept lat="22.464931" lon="120.451642"/><rtept lat="22.46495" lon="120.451783"/><rtept lat="22.465023" lon="120.452055"/><rtept lat="22.465169" lon="120.452381"/><rtept lat="22.46536" lon="120.452593"/><rtept lat="22.465545" lon="120.452769"/><rtept lat="22.465767" lon="120.452893"/><rtept lat="22.466173" lon="120.453043"/><rtept lat="22.46665" lon="120.453211"/><rtept lat="22.467022" lon="120.453337"/><rtept lat="22.467249" lon="120.453415"/><rtept lat="22.467319" lon="120.453175"/><rtept lat="22.466722" lon="120.452966"/><rtept lat="22.466248" lon="120.452807"/><rtept lat="22.465834" lon="120.452641"/><rtept lat="22.465629" lon="120.452506"/><rtept lat="22.465518" lon="120.452422"/><rtept lat="22.465409" lon="120.452297"/><rtept lat="22.465298" lon="120.452104"/><rtept lat="22.465242" lon="120.451937"/><rtept lat="22.465179" lon="120.45163"/><rtept lat="22.465162" lon="120.451539"/><rtept lat="22.465157" lon="120.451471"/><rtept lat="22.465065" lon="120.450754"/><rtept lat="22.465043" lon="120.45059"/><rtept lat="22.464877" lon="120.449317"/><rtept lat="22.464826" lon="120.448871"/><rtept lat="22.464818" lon="120.448802"/><rtept lat="22.464749" lon="120.448813"/><rtept lat="22.464661" lon="120.448817"/><rtept lat="22.464591" lon="120.448816"/><rtept lat="22.464162" lon="120.44884"/><rtept lat="22.463944" lon="120.44883"/><rtept lat="22.463536" lon="120.448832"/><rtept lat="22.463292" lon="120.448842"/><rtept lat="22.463272" lon="120.448748"/><rtept lat="22.463237" lon="120.448674"/><rtept lat="22.4632" lon="120.448632"/></rte></gpx>