<?xml version="1.0" ?>
<gpx xmlns="https://raw.githubusercontent.com/GIScience/openrouteservice-schema/main/gpx/v2/ors-gpx.xsd" version="1.1" creator="openrouteservice">
  <metadata>
    <name>openrouteservice directions</name>
    <desc>This is a directions instructions file as GPX, generated from openrouteservice</desc>
    <author>
      <name>openrouteservice</name>
      <email id="support" domain="openrouteservice.heigit.org"/>
      <link href="https://openrouteservice.org/">
        <text>https://openrouteservice.org/</text>
        <type>text/html</type>
      </link>
    </author>
    <copyright author="openrouteservice.org | OpenStreetMap contributors">
      <year>2026</year>
      <license>LGPL 3.0</license>
    </copyright>
    <time>2026-05-20T13:02:57.804Z</time>
    <bounds maxlat="23.284368" maxlon="120.137122" minlat="23.100673" minlon="120.035657"/>
    
  </metadata>
  <rte>
    <rtept lat="23.284368" lon="120.137122"/>
    <rtept lat="23.284307" lon="120.137016"/>
    <rtept lat="23.283568" lon="120.13575"/>
    <rtept lat="23.283508" lon="120.135645"/>
    <rtept lat="23.283222" lon="120.135143"/>
    <rtept lat="23.282976" lon="120.134722"/>
    <rtept lat="23.282342" lon="120.133612"/>
    <rtept lat="23.282003" lon="120.13307"/>
    <rtept lat="23.281651" lon="120.132678"/>
    <rtept lat="23.278326" lon="120.129773"/>
    <rtept lat="23.275868" lon="120.127678"/>
    <rtept lat="23.275742" lon="120.126905"/>
    <rtept lat="23.275542" lon="120.126582"/>
    <rtept lat="23.275415" lon="120.126444"/>
    <rtept lat="23.275172" lon="120.126299"/>
    <rtept lat="23.273822" lon="120.125592"/>
    <rtept lat="23.27345" lon="120.125329"/>
    <rtept lat="23.273152" lon="120.125219"/>
    <rtept lat="23.271695" lon="120.124858"/>
    <rtept lat="23.270862" lon="120.124607"/>
    <rtept lat="23.270302" lon="120.124431"/>
    <rtept lat="23.27024" lon="120.124409"/>
    <rtept lat="23.270193" lon="120.124381"/>
    <rtept lat="23.270049" lon="120.124284"/>
    <rtept lat="23.270004" lon="120.124251"/>
    <rtept lat="23.269811" lon="120.124086"/>
    <rtept lat="23.269343" lon="120.123621"/>
    <rtept lat="23.269049" lon="120.123344"/>
    <rtept lat="23.269018" lon="120.123299"/>
    <rtept lat="23.268861" lon="120.123035"/>
    <rtept lat="23.268638" lon="120.122822"/>
    <rtept lat="23.268346" lon="120.122634"/>
    <rtept lat="23.2682" lon="120.122537"/>
    <rtept lat="23.267766" lon="120.122248"/>
    <rtept lat="23.267386" lon="120.121999"/>
    <rtept lat="23.267293" lon="120.121937"/>
    <rtept lat="23.265612" lon="120.120869"/>
    <rtept lat="23.265072" lon="120.120518"/>
    <rtept lat="23.264982" lon="120.120439"/>
    <rtept lat="23.264859" lon="120.120141"/>
    <rtept lat="23.264804" lon="120.119991"/>
    <rtept lat="23.26478" lon="120.119893"/>
    <rtept lat="23.264735" lon="120.119542"/>
    <rtept lat="23.264677" lon="120.119401"/>
    <rtept lat="23.2646" lon="120.119276"/>
    <rtept lat="23.26446" lon="120.119183"/>
    <rtept lat="23.264288" lon="120.119092"/>
    <rtept lat="23.262417" lon="120.118359"/>
    <rtept lat="23.262232" lon="120.11835"/>
    <rtept lat="23.258254" lon="120.118141"/>
    <rtept lat="23.259038" lon="120.115269"/>
    <rtept lat="23.259113" lon="120.11508"/>
    <rtept lat="23.260344" lon="120.112373"/>
    <rtept lat="23.260642" lon="120.111647"/>
    <rtept lat="23.260684" lon="120.111489"/>
    <rtept lat="23.260628" lon="120.111068"/>
    <rtept lat="23.260466" lon="120.110557"/>
    <rtept lat="23.260343" lon="120.110339"/>
    <rtept lat="23.260171" lon="120.109616"/>
    <rtept lat="23.260253" lon="120.109223"/>
    <rtept lat="23.260265" lon="120.109094"/>
    <rtept lat="23.260193" lon="120.108995"/>
    <rtept lat="23.260135" lon="120.108962"/>
    <rtept lat="23.260007" lon="120.108879"/>
    <rtept lat="23.259847" lon="120.108713"/>
    <rtept lat="23.259764" lon="120.108563"/>
    <rtept lat="23.25968" lon="120.108449"/>
    <rtept lat="23.259646" lon="120.108384"/>
    <rtept lat="23.259618" lon="120.10833"/>
    <rtept lat="23.259579" lon="120.108252"/>
    <rtept lat="23.259575" lon="120.10815"/>
    <rtept lat="23.259535" lon="120.108118"/>
    <rtept lat="23.25937" lon="120.108036"/>
    <rtept lat="23.258765" lon="120.107889"/>
    <rtept lat="23.25937" lon="120.108036"/>
    <rtept lat="23.259535" lon="120.108118"/>
    <rtept lat="23.259575" lon="120.10815"/>
    <rtept lat="23.259579" lon="120.108252"/>
    <rtept lat="23.259618" lon="120.10833"/>
    <rtept lat="23.259646" lon="120.108384"/>
    <rtept lat="23.25968" lon="120.108449"/>
    <rtept lat="23.259494" lon="120.108562"/>
    <rtept lat="23.259321" lon="120.108919"/>
    <rtept lat="23.259438" lon="120.108991"/>
    <rtept lat="23.259629" lon="120.109123"/>
    <rtept lat="23.259646" lon="120.10925"/>
    <rtept lat="23.259678" lon="120.109339"/>
    <rtept lat="23.259817" lon="120.109432"/>
    <rtept lat="23.260171" lon="120.109616"/>
    <rtept lat="23.260343" lon="120.110339"/>
    <rtept lat="23.260466" lon="120.110557"/>
    <rtept lat="23.260628" lon="120.111068"/>
    <rtept lat="23.260684" lon="120.111489"/>
    <rtept lat="23.260642" lon="120.111647"/>
    <rtept lat="23.260344" lon="120.112373"/>
    <rtept lat="23.259113" lon="120.11508"/>
    <rtept lat="23.259038" lon="120.115269"/>
    <rtept lat="23.258254" lon="120.118141"/>
    <rtept lat="23.262232" lon="120.11835"/>
    <rtept lat="23.262417" lon="120.118359"/>
    <rtept lat="23.264288" lon="120.119092"/>
    <rtept lat="23.26446" lon="120.119183"/>
    <rtept lat="23.2646" lon="120.119276"/>
    <rtept lat="23.264677" lon="120.119401"/>
    <rtept lat="23.264735" lon="120.119542"/>
    <rtept lat="23.26478" lon="120.119893"/>
    <rtept lat="23.264804" lon="120.119991"/>
    <rtept lat="23.264859" lon="120.120141"/>
    <rtept lat="23.264982" lon="120.120439"/>
    <rtept lat="23.265072" lon="120.120518"/>
    <rtept lat="23.265612" lon="120.120869"/>
    <rtept lat="23.265457" lon="120.120865"/>
    <rtept lat="23.265131" lon="120.121019"/>
    <rtept lat="23.264713" lon="120.121735"/>
    <rtept lat="23.264351" lon="120.122441"/>
    <rtept lat="23.264445" lon="120.122504"/>
    <rtept lat="23.264676" lon="120.12266"/>
    <rtept lat="23.264862" lon="120.122782"/>
    <rtept lat="23.265106" lon="120.122941"/>
    <rtept lat="23.265269" lon="120.123049"/>
    <rtept lat="23.265539" lon="120.123231"/>
    <rtept lat="23.265717" lon="120.123352"/>
    <rtept lat="23.265898" lon="120.123502"/>
    <rtept lat="23.266032" lon="120.123614"/>
    <rtept lat="23.266566" lon="120.124057"/>
    <rtept lat="23.266597" lon="120.124142"/>
    <rtept lat="23.266612" lon="120.124318"/>
    <rtept lat="23.2667" lon="120.124337"/>
    <rtept lat="23.266868" lon="120.124455"/>
    <rtept lat="23.267229" lon="120.124051"/>
    <rtept lat="23.266868" lon="120.124455"/>
    <rtept lat="23.2667" lon="120.124337"/>
    <rtept lat="23.266612" lon="120.124318"/>
    <rtept lat="23.266551" lon="120.124306"/>
    <rtept lat="23.265931" lon="120.12433"/>
    <rtept lat="23.265623" lon="120.124338"/>
    <rtept lat="23.265357" lon="120.124392"/>
    <rtept lat="23.264533" lon="120.12471"/>
    <rtept lat="23.26336" lon="120.12524"/>
    <rtept lat="23.262796" lon="120.125476"/>
    <rtept lat="23.262524" lon="120.125537"/>
    <rtept lat="23.262337" lon="120.125599"/>
    <rtept lat="23.261163" lon="120.126095"/>
    <rtept lat="23.255892" lon="120.128128"/>
    <rtept lat="23.254656" lon="120.128607"/>
    <rtept lat="23.253851" lon="120.128873"/>
    <rtept lat="23.252801" lon="120.129197"/>
    <rtept lat="23.252445" lon="120.129313"/>
    <rtept lat="23.251386" lon="120.129638"/>
    <rtept lat="23.250717" lon="120.129843"/>
    <rtept lat="23.250507" lon="120.129917"/>
    <rtept lat="23.249906" lon="120.130123"/>
    <rtept lat="23.249799" lon="120.130172"/>
    <rtept lat="23.247067" lon="120.131069"/>
    <rtept lat="23.241526" lon="120.132939"/>
    <rtept lat="23.240584" lon="120.133258"/>
    <rtept lat="23.24" lon="120.133459"/>
    <rtept lat="23.238348" lon="120.134009"/>
    <rtept lat="23.237538" lon="120.134279"/>
    <rtept lat="23.237376" lon="120.134334"/>
    <rtept lat="23.235813" lon="120.134841"/>
    <rtept lat="23.234998" lon="120.135102"/>
    <rtept lat="23.233683" lon="120.135523"/>
    <rtept lat="23.232977" lon="120.135751"/>
    <rtept lat="23.232241" lon="120.135953"/>
    <rtept lat="23.231814" lon="120.136043"/>
    <rtept lat="23.231661" lon="120.13606"/>
    <rtept lat="23.231577" lon="120.136068"/>
    <rtept lat="23.23139" lon="120.136089"/>
    <rtept lat="23.231202" lon="120.136094"/>
    <rtept lat="23.230623" lon="120.136108"/>
    <rtept lat="23.229899" lon="120.136044"/>
    <rtept lat="23.228041" lon="120.135833"/>
    <rtept lat="23.227181" lon="120.135735"/>
    <rtept lat="23.227059" lon="120.135727"/>
    <rtept lat="23.226585" lon="120.135676"/>
    <rtept lat="23.223937" lon="120.135542"/>
    <rtept lat="23.222862" lon="120.135523"/>
    <rtept lat="23.221974" lon="120.135516"/>
    <rtept lat="23.220028" lon="120.135483"/>
    <rtept lat="23.219107" lon="120.135471"/>
    <rtept lat="23.218478" lon="120.135435"/>
    <rtept lat="23.218013" lon="120.135388"/>
    <rtept lat="23.217029" lon="120.135306"/>
    <rtept lat="23.216568" lon="120.135263"/>
    <rtept lat="23.215894" lon="120.135201"/>
    <rtept lat="23.214563" lon="120.135102"/>
    <rtept lat="23.212507" lon="120.134912"/>
    <rtept lat="23.210577" lon="120.134765"/>
    <rtept lat="23.208732" lon="120.134627"/>
    <rtept lat="23.20866" lon="120.134619"/>
    <rtept lat="23.207374" lon="120.134516"/>
    <rtept lat="23.205697" lon="120.134373"/>
    <rtept lat="23.202479" lon="120.134088"/>
    <rtept lat="23.201196" lon="120.133975"/>
    <rtept lat="23.199895" lon="120.133865"/>
    <rtept lat="23.199816" lon="120.133858"/>
    <rtept lat="23.198962" lon="120.133781"/>
    <rtept lat="23.198901" lon="120.133776"/>
    <rtept lat="23.197104" lon="120.133626"/>
    <rtept lat="23.194371" lon="120.133416"/>
    <rtept lat="23.192037" lon="120.133215"/>
    <rtept lat="23.190186" lon="120.133048"/>
    <rtept lat="23.189333" lon="120.133"/>
    <rtept lat="23.187767" lon="120.132959"/>
    <rtept lat="23.185769" lon="120.133073"/>
    <rtept lat="23.185107" lon="120.133097"/>
    <rtept lat="23.185116" lon="120.132242"/>
    <rtept lat="23.18512" lon="120.13184"/>
    <rtept lat="23.185102" lon="120.128157"/>
    <rtept lat="23.185095" lon="120.126611"/>
    <rtept lat="23.185076" lon="120.124552"/>
    <rtept lat="23.185081" lon="120.122355"/>
    <rtept lat="23.185057" lon="120.119643"/>
    <rtept lat="23.185052" lon="120.113874"/>
    <rtept lat="23.185034" lon="120.112514"/>
    <rtept lat="23.183046" lon="120.112527"/>
    <rtept lat="23.182336" lon="120.112532"/>
    <rtept lat="23.181741" lon="120.112536"/>
    <rtept lat="23.181224" lon="120.112539"/>
    <rtept lat="23.180182" lon="120.112546"/>
    <rtept lat="23.179325" lon="120.112559"/>
    <rtept lat="23.178955" lon="120.112559"/>
    <rtept lat="23.178422" lon="120.112556"/>
    <rtept lat="23.178082" lon="120.112556"/>
    <rtept lat="23.1771" lon="120.112561"/>
    <rtept lat="23.168976" lon="120.112602"/>
    <rtept lat="23.168735" lon="120.112574"/>
    <rtept lat="23.168521" lon="120.112453"/>
    <rtept lat="23.168414" lon="120.112372"/>
    <rtept lat="23.168348" lon="120.112233"/>
    <rtept lat="23.168011" lon="120.110491"/>
    <rtept lat="23.167966" lon="120.109998"/>
    <rtept lat="23.167959" lon="120.108909"/>
    <rtept lat="23.167413" lon="120.108915"/>
    <rtept lat="23.156353" lon="120.108969"/>
    <rtept lat="23.156309" lon="120.108934"/>
    <rtept lat="23.156278" lon="120.10887"/>
    <rtept lat="23.156282" lon="120.108529"/>
    <rtept lat="23.156262" lon="120.108069"/>
    <rtept lat="23.156154" lon="120.10798"/>
    <rtept lat="23.156054" lon="120.107797"/>
    <rtept lat="23.156024" lon="120.10769"/>
    <rtept lat="23.15598" lon="120.106822"/>
    <rtept lat="23.155999" lon="120.106748"/>
    <rtept lat="23.155774" lon="120.106925"/>
    <rtept lat="23.155519" lon="120.10698"/>
    <rtept lat="23.155251" lon="120.106886"/>
    <rtept lat="23.155027" lon="120.106991"/>
    <rtept lat="23.15464" lon="120.107067"/>
    <rtept lat="23.154378" lon="120.107053"/>
    <rtept lat="23.154296" lon="120.107184"/>
    <rtept lat="23.154241" lon="120.107228"/>
    <rtept lat="23.154187" lon="120.10724"/>
    <rtept lat="23.154107" lon="120.10722"/>
    <rtept lat="23.153667" lon="120.106893"/>
    <rtept lat="23.153835" lon="120.106189"/>
    <rtept lat="23.153846" lon="120.106089"/>
    <rtept lat="23.153857" lon="120.105215"/>
    <rtept lat="23.153835" lon="120.105123"/>
    <rtept lat="23.153793" lon="120.105036"/>
    <rtept lat="23.153318" lon="120.104237"/>
    <rtept lat="23.153182" lon="120.103956"/>
    <rtept lat="23.153093" lon="120.103765"/>
    <rtept lat="23.152974" lon="120.103448"/>
    <rtept lat="23.152847" lon="120.102929"/>
    <rtept lat="23.152395" lon="120.100705"/>
    <rtept lat="23.152569" lon="120.100487"/>
    <rtept lat="23.152654" lon="120.100259"/>
    <rtept lat="23.152656" lon="120.099206"/>
    <rtept lat="23.152797" lon="120.099206"/>
    <rtept lat="23.152874" lon="120.099206"/>
    <rtept lat="23.153404" lon="120.099208"/>
    <rtept lat="23.153684" lon="120.09921"/>
    <rtept lat="23.153681" lon="120.098915"/>
    <rtept lat="23.154057" lon="120.098913"/>
    <rtept lat="23.155068" lon="120.098906"/>
    <rtept lat="23.155046" lon="120.099902"/>
    <rtept lat="23.155034" lon="120.100165"/>
    <rtept lat="23.155046" lon="120.099902"/>
    <rtept lat="23.155068" lon="120.098906"/>
    <rtept lat="23.154057" lon="120.098913"/>
    <rtept lat="23.153681" lon="120.098915"/>
    <rtept lat="23.153684" lon="120.09921"/>
    <rtept lat="23.153404" lon="120.099208"/>
    <rtept lat="23.152874" lon="120.099206"/>
    <rtept lat="23.152797" lon="120.099206"/>
    <rtept lat="23.152656" lon="120.099206"/>
    <rtept lat="23.152339" lon="120.099202"/>
    <rtept lat="23.15234" lon="120.100098"/>
    <rtept lat="23.152395" lon="120.100705"/>
    <rtept lat="23.152847" lon="120.102929"/>
    <rtept lat="23.152974" lon="120.103448"/>
    <rtept lat="23.153093" lon="120.103765"/>
    <rtept lat="23.153182" lon="120.103956"/>
    <rtept lat="23.153318" lon="120.104237"/>
    <rtept lat="23.153793" lon="120.105036"/>
    <rtept lat="23.153835" lon="120.105123"/>
    <rtept lat="23.153857" lon="120.105215"/>
    <rtept lat="23.153846" lon="120.106089"/>
    <rtept lat="23.153835" lon="120.106189"/>
    <rtept lat="23.153667" lon="120.106893"/>
    <rtept lat="23.153416" lon="120.106656"/>
    <rtept lat="23.15332" lon="120.106599"/>
    <rtept lat="23.153163" lon="120.106559"/>
    <rtept lat="23.152985" lon="120.106561"/>
    <rtept lat="23.152894" lon="120.106587"/>
    <rtept lat="23.15281" lon="120.106573"/>
    <rtept lat="23.152724" lon="120.106662"/>
    <rtept lat="23.152519" lon="120.106781"/>
    <rtept lat="23.152148" lon="120.106951"/>
    <rtept lat="23.151218" lon="120.107318"/>
    <rtept lat="23.151018" lon="120.107397"/>
    <rtept lat="23.15034" lon="120.107674"/>
    <rtept lat="23.150156" lon="120.107741"/>
    <rtept lat="23.149565" lon="120.10799"/>
    <rtept lat="23.147825" lon="120.108652"/>
    <rtept lat="23.147199" lon="120.108922"/>
    <rtept lat="23.146731" lon="120.109105"/>
    <rtept lat="23.146139" lon="120.109423"/>
    <rtept lat="23.144307" lon="120.110463"/>
    <rtept lat="23.142505" lon="120.11144"/>
    <rtept lat="23.141277" lon="120.112143"/>
    <rtept lat="23.139822" lon="120.112997"/>
    <rtept lat="23.139644" lon="120.113087"/>
    <rtept lat="23.139146" lon="120.113345"/>
    <rtept lat="23.13866" lon="120.113573"/>
    <rtept lat="23.138608" lon="120.1136"/>
    <rtept lat="23.13809" lon="120.113848"/>
    <rtept lat="23.13793" lon="120.11395"/>
    <rtept lat="23.137867" lon="120.11402"/>
    <rtept lat="23.137749" lon="120.113871"/>
    <rtept lat="23.1377" lon="120.113887"/>
    <rtept lat="23.137256" lon="120.113957"/>
    <rtept lat="23.13716" lon="120.11393"/>
    <rtept lat="23.136898" lon="120.113895"/>
    <rtept lat="23.136237" lon="120.113882"/>
    <rtept lat="23.13483" lon="120.113901"/>
    <rtept lat="23.133847" lon="120.113867"/>
    <rtept lat="23.133291" lon="120.113867"/>
    <rtept lat="23.133196" lon="120.113844"/>
    <rtept lat="23.133109" lon="120.113799"/>
    <rtept lat="23.13303" lon="120.113672"/>
    <rtept lat="23.132899" lon="120.113509"/>
    <rtept lat="23.132516" lon="120.113081"/>
    <rtept lat="23.132371" lon="120.112973"/>
    <rtept lat="23.132291" lon="120.112952"/>
    <rtept lat="23.13141" lon="120.112978"/>
    <rtept lat="23.130414" lon="120.112982"/>
    <rtept lat="23.130236" lon="120.112959"/>
    <rtept lat="23.129946" lon="120.112859"/>
    <rtept lat="23.128588" lon="120.112458"/>
    <rtept lat="23.127939" lon="120.112306"/>
    <rtept lat="23.127059" lon="120.112035"/>
    <rtept lat="23.126963" lon="120.111984"/>
    <rtept lat="23.126894" lon="120.111927"/>
    <rtept lat="23.126829" lon="120.111839"/>
    <rtept lat="23.12675" lon="120.111585"/>
    <rtept lat="23.126265" lon="120.110647"/>
    <rtept lat="23.125552" lon="120.109378"/>
    <rtept lat="23.125478" lon="120.109285"/>
    <rtept lat="23.125384" lon="120.109121"/>
    <rtept lat="23.125343" lon="120.109063"/>
    <rtept lat="23.125091" lon="120.10882"/>
    <rtept lat="23.124613" lon="120.108059"/>
    <rtept lat="23.124469" lon="120.107856"/>
    <rtept lat="23.12396" lon="120.10724"/>
    <rtept lat="23.123921" lon="120.107173"/>
    <rtept lat="23.123929" lon="120.106856"/>
    <rtept lat="23.123918" lon="120.106654"/>
    <rtept lat="23.1238" lon="120.106447"/>
    <rtept lat="23.123534" lon="120.106134"/>
    <rtept lat="23.122635" lon="120.105963"/>
    <rtept lat="23.12251" lon="120.105903"/>
    <rtept lat="23.122271" lon="120.105691"/>
    <rtept lat="23.122036" lon="120.105407"/>
    <rtept lat="23.12193" lon="120.105239"/>
    <rtept lat="23.12128" lon="120.103988"/>
    <rtept lat="23.121222" lon="120.104027"/>
    <rtept lat="23.12096" lon="120.103967"/>
    <rtept lat="23.120734" lon="120.103885"/>
    <rtept lat="23.120548" lon="120.103725"/>
    <rtept lat="23.120371" lon="120.103453"/>
    <rtept lat="23.120281" lon="120.103276"/>
    <rtept lat="23.120179" lon="120.103182"/>
    <rtept lat="23.119728" lon="120.103324"/>
    <rtept lat="23.119261" lon="120.1037"/>
    <rtept lat="23.119125" lon="120.10382"/>
    <rtept lat="23.118538" lon="120.104402"/>
    <rtept lat="23.11847" lon="120.104508"/>
    <rtept lat="23.117397" lon="120.103346"/>
    <rtept lat="23.116627" lon="120.1026"/>
    <rtept lat="23.115822" lon="120.101761"/>
    <rtept lat="23.115298" lon="120.101251"/>
    <rtept lat="23.114771" lon="120.100921"/>
    <rtept lat="23.114502" lon="120.10077"/>
    <rtept lat="23.114214" lon="120.100551"/>
    <rtept lat="23.114113" lon="120.100465"/>
    <rtept lat="23.113829" lon="120.10023"/>
    <rtept lat="23.113764" lon="120.100181"/>
    <rtept lat="23.113903" lon="120.099988"/>
    <rtept lat="23.114085" lon="120.099668"/>
    <rtept lat="23.114282" lon="120.099135"/>
    <rtept lat="23.114406" lon="120.098482"/>
    <rtept lat="23.114478" lon="120.097992"/>
    <rtept lat="23.114547" lon="120.097741"/>
    <rtept lat="23.115352" lon="120.095237"/>
    <rtept lat="23.117381" lon="120.088712"/>
    <rtept lat="23.117625" lon="120.087955"/>
    <rtept lat="23.117649" lon="120.087872"/>
    <rtept lat="23.119243" lon="120.087979"/>
    <rtept lat="23.120103" lon="120.088008"/>
    <rtept lat="23.120339" lon="120.087952"/>
    <rtept lat="23.120653" lon="120.087823"/>
    <rtept lat="23.120936" lon="120.087627"/>
    <rtept lat="23.120985" lon="120.087566"/>
    <rtept lat="23.121357" lon="120.0871"/>
    <rtept lat="23.123351" lon="120.084634"/>
    <rtept lat="23.123662" lon="120.084172"/>
    <rtept lat="23.123785" lon="120.08381"/>
    <rtept lat="23.123837" lon="120.08348"/>
    <rtept lat="23.123825" lon="120.083121"/>
    <rtept lat="23.123736" lon="120.082291"/>
    <rtept lat="23.123627" lon="120.080389"/>
    <rtept lat="23.123493" lon="120.078792"/>
    <rtept lat="23.123441" lon="120.078555"/>
    <rtept lat="23.123433" lon="120.078368"/>
    <rtept lat="23.123173" lon="120.075634"/>
    <rtept lat="23.123049" lon="120.073977"/>
    <rtept lat="23.122952" lon="120.073436"/>
    <rtept lat="23.122784" lon="120.072972"/>
    <rtept lat="23.122319" lon="120.072026"/>
    <rtept lat="23.121592" lon="120.070387"/>
    <rtept lat="23.120139" lon="120.06728"/>
    <rtept lat="23.120026" lon="120.066965"/>
    <rtept lat="23.115606" lon="120.057358"/>
    <rtept lat="23.114366" lon="120.05469"/>
    <rtept lat="23.113756" lon="120.053377"/>
    <rtept lat="23.113339" lon="120.052664"/>
    <rtept lat="23.113003" lon="120.05217"/>
    <rtept lat="23.112875" lon="120.052041"/>
    <rtept lat="23.112858" lon="120.052023"/>
    <rtept lat="23.112453" lon="120.051837"/>
    <rtept lat="23.112321" lon="120.051729"/>
    <rtept lat="23.112258" lon="120.051612"/>
    <rtept lat="23.112251" lon="120.051547"/>
    <rtept lat="23.112352" lon="120.051142"/>
    <rtept lat="23.112312" lon="120.051021"/>
    <rtept lat="23.111283" lon="120.049599"/>
    <rtept lat="23.110337" lon="120.048179"/>
    <rtept lat="23.1092" lon="120.046527"/>
    <rtept lat="23.109025" lon="120.046553"/>
    <rtept lat="23.108907" lon="120.04654"/>
    <rtept lat="23.10845" lon="120.046402"/>
    <rtept lat="23.106298" lon="120.045842"/>
    <rtept lat="23.104427" lon="120.045355"/>
    <rtept lat="23.102973" lon="120.044976"/>
    <rtept lat="23.101618" lon="120.044623"/>
    <rtept lat="23.101184" lon="120.04451"/>
    <rtept lat="23.101999" lon="120.040995"/>
    <rtept lat="23.102775" lon="120.037665"/>
    <rtept lat="23.1026" lon="120.037446"/>
    <rtept lat="23.102161" lon="120.036628"/>
    <rtept lat="23.101774" lon="120.036166"/>
    <rtept lat="23.1013" lon="120.035673"/>
    <rtept lat="23.10103" lon="120.035657"/>
    <rtept lat="23.100673" lon="120.035715"/>
    
  </rte>
  
</gpx>
