<?xml version="1.0" ?>
<gpx xmlns="https://raw.githubusercontent.com/GIScience/openrouteservice-schema/main/gpx/v2/ors-gpx.xsd" version="1.1" creator="openrouteservice">
  <metadata>
    <name>openrouteservice directions</name>
    <desc>This is a directions instructions file as GPX, generated from openrouteservice</desc>
    <author>
      <name>openrouteservice</name>
      <email id="support" domain="openrouteservice.heigit.org"/>
      <link href="https://openrouteservice.org/">
        <text>https://openrouteservice.org/</text>
        <type>text/html</type>
      </link>
    </author>
    <copyright author="openrouteservice.org | OpenStreetMap contributors">
      <year>2026</year>
      <license>LGPL 3.0</license>
    </copyright>
    <time>2026-05-20T13:02:53.900Z</time>
    <bounds maxlat="23.569733" maxlon="120.301552" minlat="23.284368" minlon="120.134364"/>
    
  </metadata>
  <rte>
    <rtept lat="23.56877" lon="120.301552"/>
    <rtept lat="23.5688" lon="120.30153"/>
    <rtept lat="23.568825" lon="120.301485"/>
    <rtept lat="23.568837" lon="120.301425"/>
    <rtept lat="23.568831" lon="120.301364"/>
    <rtept lat="23.568807" lon="120.301308"/>
    <rtept lat="23.568768" lon="120.301264"/>
    <rtept lat="23.568717" lon="120.301237"/>
    <rtept lat="23.568813" lon="120.300857"/>
    <rtept lat="23.568865" lon="120.300667"/>
    <rtept lat="23.568925" lon="120.300449"/>
    <rtept lat="23.568969" lon="120.300276"/>
    <rtept lat="23.569118" lon="120.299699"/>
    <rtept lat="23.569126" lon="120.299352"/>
    <rtept lat="23.569137" lon="120.299261"/>
    <rtept lat="23.569055" lon="120.299236"/>
    <rtept lat="23.569054" lon="120.298985"/>
    <rtept lat="23.569039" lon="120.298616"/>
    <rtept lat="23.569048" lon="120.298059"/>
    <rtept lat="23.569037" lon="120.29759"/>
    <rtept lat="23.569059" lon="120.297177"/>
    <rtept lat="23.569082" lon="120.297025"/>
    <rtept lat="23.569242" lon="120.295219"/>
    <rtept lat="23.569485" lon="120.29217"/>
    <rtept lat="23.569492" lon="120.29208"/>
    <rtept lat="23.569505" lon="120.291916"/>
    <rtept lat="23.569733" lon="120.289044"/>
    <rtept lat="23.567097" lon="120.28876"/>
    <rtept lat="23.566991" lon="120.288749"/>
    <rtept lat="23.567046" lon="120.288017"/>
    <rtept lat="23.566959" lon="120.288008"/>
    <rtept lat="23.566884" lon="120.287939"/>
    <rtept lat="23.566745" lon="120.287607"/>
    <rtept lat="23.566634" lon="120.287442"/>
    <rtept lat="23.565525" lon="120.286431"/>
    <rtept lat="23.564406" lon="120.285749"/>
    <rtept lat="23.563744" lon="120.285573"/>
    <rtept lat="23.5628" lon="120.285321"/>
    <rtept lat="23.562749" lon="120.285267"/>
    <rtept lat="23.562233" lon="120.285152"/>
    <rtept lat="23.562132" lon="120.285073"/>
    <rtept lat="23.56137" lon="120.283841"/>
    <rtept lat="23.561538" lon="120.283727"/>
    <rtept lat="23.560721" lon="120.282369"/>
    <rtept lat="23.560661" lon="120.28227"/>
    <rtept lat="23.560311" lon="120.2817"/>
    <rtept lat="23.559461" lon="120.280316"/>
    <rtept lat="23.558676" lon="120.279017"/>
    <rtept lat="23.558629" lon="120.278937"/>
    <rtept lat="23.558541" lon="120.278788"/>
    <rtept lat="23.558512" lon="120.278739"/>
    <rtept lat="23.557773" lon="120.277485"/>
    <rtept lat="23.556746" lon="120.275503"/>
    <rtept lat="23.556599" lon="120.275221"/>
    <rtept lat="23.554806" lon="120.271787"/>
    <rtept lat="23.554728" lon="120.271655"/>
    <rtept lat="23.554924" lon="120.269117"/>
    <rtept lat="23.555213" lon="120.269002"/>
    <rtept lat="23.555293" lon="120.268897"/>
    <rtept lat="23.555403" lon="120.268868"/>
    <rtept lat="23.555384" lon="120.268826"/>
    <rtept lat="23.555314" lon="120.26846"/>
    <rtept lat="23.555152" lon="120.268157"/>
    <rtept lat="23.55521" lon="120.267983"/>
    <rtept lat="23.555322" lon="120.267642"/>
    <rtept lat="23.55533" lon="120.267581"/>
    <rtept lat="23.555291" lon="120.26743"/>
    <rtept lat="23.555207" lon="120.267105"/>
    <rtept lat="23.55505" lon="120.266497"/>
    <rtept lat="23.555047" lon="120.266297"/>
    <rtept lat="23.555071" lon="120.265714"/>
    <rtept lat="23.555118" lon="120.265428"/>
    <rtept lat="23.555526" lon="120.264248"/>
    <rtept lat="23.555621" lon="120.264007"/>
    <rtept lat="23.556619" lon="120.262513"/>
    <rtept lat="23.556784" lon="120.262316"/>
    <rtept lat="23.557932" lon="120.261157"/>
    <rtept lat="23.558025" lon="120.261044"/>
    <rtept lat="23.556252" lon="120.258261"/>
    <rtept lat="23.556811" lon="120.252698"/>
    <rtept lat="23.5571" lon="120.249677"/>
    <rtept lat="23.557132" lon="120.249341"/>
    <rtept lat="23.557203" lon="120.248643"/>
    <rtept lat="23.557292" lon="120.247759"/>
    <rtept lat="23.557425" lon="120.24642"/>
    <rtept lat="23.557443" lon="120.246242"/>
    <rtept lat="23.557529" lon="120.245324"/>
    <rtept lat="23.557663" lon="120.243863"/>
    <rtept lat="23.558261" lon="120.237801"/>
    <rtept lat="23.558747" lon="120.232887"/>
    <rtept lat="23.558753" lon="120.232823"/>
    <rtept lat="23.558756" lon="120.232791"/>
    <rtept lat="23.558996" lon="120.230507"/>
    <rtept lat="23.559368" lon="120.226557"/>
    <rtept lat="23.559591" lon="120.223985"/>
    <rtept lat="23.559836" lon="120.222497"/>
    <rtept lat="23.559667" lon="120.222457"/>
    <rtept lat="23.559765" lon="120.222095"/>
    <rtept lat="23.559841" lon="120.222098"/>
    <rtept lat="23.559885" lon="120.222055"/>
    <rtept lat="23.559924" lon="120.221851"/>
    <rtept lat="23.559989" lon="120.221577"/>
    <rtept lat="23.560047" lon="120.221428"/>
    <rtept lat="23.559476" lon="120.220748"/>
    <rtept lat="23.559442" lon="120.220707"/>
    <rtept lat="23.558966" lon="120.220188"/>
    <rtept lat="23.558898" lon="120.220114"/>
    <rtept lat="23.557567" lon="120.218476"/>
    <rtept lat="23.55751" lon="120.218281"/>
    <rtept lat="23.557464" lon="120.21789"/>
    <rtept lat="23.557428" lon="120.217572"/>
    <rtept lat="23.557386" lon="120.217139"/>
    <rtept lat="23.557284" lon="120.216022"/>
    <rtept lat="23.557277" lon="120.215969"/>
    <rtept lat="23.557003" lon="120.213284"/>
    <rtept lat="23.556914" lon="120.211963"/>
    <rtept lat="23.55691" lon="120.211795"/>
    <rtept lat="23.556821" lon="120.209402"/>
    <rtept lat="23.556762" lon="120.208142"/>
    <rtept lat="23.556745" lon="120.20777"/>
    <rtept lat="23.556677" lon="120.207174"/>
    <rtept lat="23.555903" lon="120.206213"/>
    <rtept lat="23.555725" lon="120.205846"/>
    <rtept lat="23.555683" lon="120.205759"/>
    <rtept lat="23.555423" lon="120.205241"/>
    <rtept lat="23.555266" lon="120.204917"/>
    <rtept lat="23.555115" lon="120.204607"/>
    <rtept lat="23.555048" lon="120.204469"/>
    <rtept lat="23.554756" lon="120.203845"/>
    <rtept lat="23.554557" lon="120.203272"/>
    <rtept lat="23.553848" lon="120.201433"/>
    <rtept lat="23.553638" lon="120.20085"/>
    <rtept lat="23.553515" lon="120.200618"/>
    <rtept lat="23.552762" lon="120.199635"/>
    <rtept lat="23.552734" lon="120.199603"/>
    <rtept lat="23.552595" lon="120.199424"/>
    <rtept lat="23.552281" lon="120.199066"/>
    <rtept lat="23.552078" lon="120.198845"/>
    <rtept lat="23.550483" lon="120.196845"/>
    <rtept lat="23.54989" lon="120.196102"/>
    <rtept lat="23.549487" lon="120.195597"/>
    <rtept lat="23.54925" lon="120.195279"/>
    <rtept lat="23.548543" lon="120.194343"/>
    <rtept lat="23.547756" lon="120.193385"/>
    <rtept lat="23.547683" lon="120.193297"/>
    <rtept lat="23.547059" lon="120.192508"/>
    <rtept lat="23.546612" lon="120.19194"/>
    <rtept lat="23.546282" lon="120.191405"/>
    <rtept lat="23.546159" lon="120.191209"/>
    <rtept lat="23.545848" lon="120.190596"/>
    <rtept lat="23.545655" lon="120.190202"/>
    <rtept lat="23.545607" lon="120.189874"/>
    <rtept lat="23.545624" lon="120.189628"/>
    <rtept lat="23.545416" lon="120.189409"/>
    <rtept lat="23.544752" lon="120.188459"/>
    <rtept lat="23.544656" lon="120.188341"/>
    <rtept lat="23.544655" lon="120.188195"/>
    <rtept lat="23.544436" lon="120.187559"/>
    <rtept lat="23.54426" lon="120.187048"/>
    <rtept lat="23.544141" lon="120.18679"/>
    <rtept lat="23.544064" lon="120.186622"/>
    <rtept lat="23.543967" lon="120.186205"/>
    <rtept lat="23.543741" lon="120.186352"/>
    <rtept lat="23.542567" lon="120.187118"/>
    <rtept lat="23.54184" lon="120.187449"/>
    <rtept lat="23.5408" lon="120.187812"/>
    <rtept lat="23.538606" lon="120.18859"/>
    <rtept lat="23.537822" lon="120.188784"/>
    <rtept lat="23.537566" lon="120.188812"/>
    <rtept lat="23.537197" lon="120.188811"/>
    <rtept lat="23.536724" lon="120.1888"/>
    <rtept lat="23.536359" lon="120.188762"/>
    <rtept lat="23.534087" lon="120.18845"/>
    <rtept lat="23.53387" lon="120.188419"/>
    <rtept lat="23.533602" lon="120.188388"/>
    <rtept lat="23.533487" lon="120.188375"/>
    <rtept lat="23.531337" lon="120.188123"/>
    <rtept lat="23.530213" lon="120.188041"/>
    <rtept lat="23.529866" lon="120.188"/>
    <rtept lat="23.529232" lon="120.187854"/>
    <rtept lat="23.528894" lon="120.187724"/>
    <rtept lat="23.52836" lon="120.187441"/>
    <rtept lat="23.526789" lon="120.186436"/>
    <rtept lat="23.524514" lon="120.184968"/>
    <rtept lat="23.522167" lon="120.183472"/>
    <rtept lat="23.521785" lon="120.183245"/>
    <rtept lat="23.519475" lon="120.181866"/>
    <rtept lat="23.519102" lon="120.181644"/>
    <rtept lat="23.518297" lon="120.181128"/>
    <rtept lat="23.51661" lon="120.179825"/>
    <rtept lat="23.51068" lon="120.175022"/>
    <rtept lat="23.510057" lon="120.174606"/>
    <rtept lat="23.509507" lon="120.174298"/>
    <rtept lat="23.508785" lon="120.173964"/>
    <rtept lat="23.508507" lon="120.173869"/>
    <rtept lat="23.506894" lon="120.173321"/>
    <rtept lat="23.504178" lon="120.172422"/>
    <rtept lat="23.50314" lon="120.172061"/>
    <rtept lat="23.501108" lon="120.171401"/>
    <rtept lat="23.499482" lon="120.170896"/>
    <rtept lat="23.498513" lon="120.170586"/>
    <rtept lat="23.497426" lon="120.170245"/>
    <rtept lat="23.496563" lon="120.169998"/>
    <rtept lat="23.495861" lon="120.169843"/>
    <rtept lat="23.495119" lon="120.169784"/>
    <rtept lat="23.494009" lon="120.169722"/>
    <rtept lat="23.493511" lon="120.169784"/>
    <rtept lat="23.492223" lon="120.169786"/>
    <rtept lat="23.490474" lon="120.169768"/>
    <rtept lat="23.489793" lon="120.169738"/>
    <rtept lat="23.489231" lon="120.169727"/>
    <rtept lat="23.48877" lon="120.169717"/>
    <rtept lat="23.488198" lon="120.169697"/>
    <rtept lat="23.487524" lon="120.169675"/>
    <rtept lat="23.486767" lon="120.169666"/>
    <rtept lat="23.486657" lon="120.169663"/>
    <rtept lat="23.484625" lon="120.169604"/>
    <rtept lat="23.483262" lon="120.169505"/>
    <rtept lat="23.48106" lon="120.169207"/>
    <rtept lat="23.479246" lon="120.168942"/>
    <rtept lat="23.478188" lon="120.168794"/>
    <rtept lat="23.477684" lon="120.168716"/>
    <rtept lat="23.477259" lon="120.168626"/>
    <rtept lat="23.476506" lon="120.16852"/>
    <rtept lat="23.476135" lon="120.168498"/>
    <rtept lat="23.475939" lon="120.168486"/>
    <rtept lat="23.476056" lon="120.168387"/>
    <rtept lat="23.475951" lon="120.168189"/>
    <rtept lat="23.47571" lon="120.167821"/>
    <rtept lat="23.474788" lon="120.166032"/>
    <rtept lat="23.474654" lon="120.165647"/>
    <rtept lat="23.474554" lon="120.165199"/>
    <rtept lat="23.474507" lon="120.164877"/>
    <rtept lat="23.474504" lon="120.163881"/>
    <rtept lat="23.47432" lon="120.162661"/>
    <rtept lat="23.474277" lon="120.162191"/>
    <rtept lat="23.474178" lon="120.161598"/>
    <rtept lat="23.474079" lon="120.16042"/>
    <rtept lat="23.474025" lon="120.16005"/>
    <rtept lat="23.473993" lon="120.159202"/>
    <rtept lat="23.473924" lon="120.158577"/>
    <rtept lat="23.47383" lon="120.157324"/>
    <rtept lat="23.473802" lon="120.157192"/>
    <rtept lat="23.473809" lon="120.157016"/>
    <rtept lat="23.473787" lon="120.156893"/>
    <rtept lat="23.473546" lon="120.156268"/>
    <rtept lat="23.473433" lon="120.156056"/>
    <rtept lat="23.473126" lon="120.155684"/>
    <rtept lat="23.472588" lon="120.154928"/>
    <rtept lat="23.472421" lon="120.154653"/>
    <rtept lat="23.471084" lon="120.152907"/>
    <rtept lat="23.470894" lon="120.152675"/>
    <rtept lat="23.470811" lon="120.152605"/>
    <rtept lat="23.468171" lon="120.1512"/>
    <rtept lat="23.467551" lon="120.15084"/>
    <rtept lat="23.467135" lon="120.150494"/>
    <rtept lat="23.467019" lon="120.150371"/>
    <rtept lat="23.466872" lon="120.150135"/>
    <rtept lat="23.466665" lon="120.149708"/>
    <rtept lat="23.465863" lon="120.147742"/>
    <rtept lat="23.465799" lon="120.147651"/>
    <rtept lat="23.465607" lon="120.147471"/>
    <rtept lat="23.46538" lon="120.147327"/>
    <rtept lat="23.465275" lon="120.147235"/>
    <rtept lat="23.465261" lon="120.147271"/>
    <rtept lat="23.464939" lon="120.14713"/>
    <rtept lat="23.463868" lon="120.146583"/>
    <rtept lat="23.463317" lon="120.146227"/>
    <rtept lat="23.463093" lon="120.146048"/>
    <rtept lat="23.462279" lon="120.145508"/>
    <rtept lat="23.460263" lon="120.144851"/>
    <rtept lat="23.459922" lon="120.144993"/>
    <rtept lat="23.459752" lon="120.144994"/>
    <rtept lat="23.459602" lon="120.144946"/>
    <rtept lat="23.459019" lon="120.145185"/>
    <rtept lat="23.458984" lon="120.145092"/>
    <rtept lat="23.45844" lon="120.145314"/>
    <rtept lat="23.457346" lon="120.145765"/>
    <rtept lat="23.4573" lon="120.145594"/>
    <rtept lat="23.45717" lon="120.14531"/>
    <rtept lat="23.456746" lon="120.144382"/>
    <rtept lat="23.456296" lon="120.143436"/>
    <rtept lat="23.455869" lon="120.142536"/>
    <rtept lat="23.455003" lon="120.140678"/>
    <rtept lat="23.454425" lon="120.139457"/>
    <rtept lat="23.454369" lon="120.139351"/>
    <rtept lat="23.453571" lon="120.137662"/>
    <rtept lat="23.453262" lon="120.137009"/>
    <rtept lat="23.452783" lon="120.136002"/>
    <rtept lat="23.452672" lon="120.136062"/>
    <rtept lat="23.452143" lon="120.136355"/>
    <rtept lat="23.451257" lon="120.134507"/>
    <rtept lat="23.450898" lon="120.1347"/>
    <rtept lat="23.450751" lon="120.134382"/>
    <rtept lat="23.450677" lon="120.134364"/>
    <rtept lat="23.449349" lon="120.135095"/>
    <rtept lat="23.44882" lon="120.135407"/>
    <rtept lat="23.449349" lon="120.135095"/>
    <rtept lat="23.450677" lon="120.134364"/>
    <rtept lat="23.450751" lon="120.134382"/>
    <rtept lat="23.450898" lon="120.1347"/>
    <rtept lat="23.451257" lon="120.134507"/>
    <rtept lat="23.452143" lon="120.136355"/>
    <rtept lat="23.452672" lon="120.136062"/>
    <rtept lat="23.453165" lon="120.137064"/>
    <rtept lat="23.453262" lon="120.137009"/>
    <rtept lat="23.453254" lon="120.136991"/>
    <rtept lat="23.452783" lon="120.136002"/>
    <rtept lat="23.452672" lon="120.136062"/>
    <rtept lat="23.453165" lon="120.137064"/>
    <rtept lat="23.453475" lon="120.13772"/>
    <rtept lat="23.453781" lon="120.138366"/>
    <rtept lat="23.454273" lon="120.139403"/>
    <rtept lat="23.454316" lon="120.139501"/>
    <rtept lat="23.454893" lon="120.140737"/>
    <rtept lat="23.45577" lon="120.142593"/>
    <rtept lat="23.456192" lon="120.143493"/>
    <rtept lat="23.456639" lon="120.144447"/>
    <rtept lat="23.457061" lon="120.145353"/>
    <rtept lat="23.457217" lon="120.145686"/>
    <rtept lat="23.457346" lon="120.145765"/>
    <rtept lat="23.457408" lon="120.145835"/>
    <rtept lat="23.458033" lon="120.148025"/>
    <rtept lat="23.458294" lon="120.148934"/>
    <rtept lat="23.458307" lon="120.149141"/>
    <rtept lat="23.458284" lon="120.149337"/>
    <rtept lat="23.458247" lon="120.149495"/>
    <rtept lat="23.457981" lon="120.150189"/>
    <rtept lat="23.457899" lon="120.150392"/>
    <rtept lat="23.457708" lon="120.150855"/>
    <rtept lat="23.457649" lon="120.151004"/>
    <rtept lat="23.457408" lon="120.151429"/>
    <rtept lat="23.457261" lon="120.15159"/>
    <rtept lat="23.457205" lon="120.151711"/>
    <rtept lat="23.457083" lon="120.151773"/>
    <rtept lat="23.456717" lon="120.152105"/>
    <rtept lat="23.456445" lon="120.152182"/>
    <rtept lat="23.456471" lon="120.152254"/>
    <rtept lat="23.456728" lon="120.15272"/>
    <rtept lat="23.457054" lon="120.153064"/>
    <rtept lat="23.45773" lon="120.15364"/>
    <rtept lat="23.457907" lon="120.153861"/>
    <rtept lat="23.457724" lon="120.154195"/>
    <rtept lat="23.457438" lon="120.154625"/>
    <rtept lat="23.458339" lon="120.154761"/>
    <rtept lat="23.458574" lon="120.157365"/>
    <rtept lat="23.458673" lon="120.157351"/>
    <rtept lat="23.458878" lon="120.157321"/>
    <rtept lat="23.458951" lon="120.158584"/>
    <rtept lat="23.459009" lon="120.159216"/>
    <rtept lat="23.459047" lon="120.159261"/>
    <rtept lat="23.459869" lon="120.159234"/>
    <rtept lat="23.460393" lon="120.166208"/>
    <rtept lat="23.459554" lon="120.166058"/>
    <rtept lat="23.45947" lon="120.166048"/>
    <rtept lat="23.45876" lon="120.165939"/>
    <rtept lat="23.458072" lon="120.165886"/>
    <rtept lat="23.457312" lon="120.165789"/>
    <rtept lat="23.456424" lon="120.165651"/>
    <rtept lat="23.455198" lon="120.165542"/>
    <rtept lat="23.454264" lon="120.165506"/>
    <rtept lat="23.453729" lon="120.165486"/>
    <rtept lat="23.451123" lon="120.165527"/>
    <rtept lat="23.449243" lon="120.165522"/>
    <rtept lat="23.446904" lon="120.165531"/>
    <rtept lat="23.442164" lon="120.165509"/>
    <rtept lat="23.441656" lon="120.165502"/>
    <rtept lat="23.440655" lon="120.165451"/>
    <rtept lat="23.439179" lon="120.165442"/>
    <rtept lat="23.438716" lon="120.16541"/>
    <rtept lat="23.437785" lon="120.165376"/>
    <rtept lat="23.436348" lon="120.165"/>
    <rtept lat="23.435573" lon="120.16471"/>
    <rtept lat="23.434564" lon="120.164293"/>
    <rtept lat="23.432425" lon="120.163335"/>
    <rtept lat="23.431809" lon="120.163118"/>
    <rtept lat="23.430086" lon="120.162601"/>
    <rtept lat="23.42927" lon="120.162403"/>
    <rtept lat="23.428132" lon="120.162164"/>
    <rtept lat="23.427456" lon="120.162007"/>
    <rtept lat="23.426044" lon="120.161775"/>
    <rtept lat="23.42552" lon="120.161711"/>
    <rtept lat="23.424875" lon="120.161657"/>
    <rtept lat="23.424036" lon="120.161638"/>
    <rtept lat="23.423189" lon="120.161641"/>
    <rtept lat="23.422485" lon="120.161668"/>
    <rtept lat="23.420864" lon="120.161796"/>
    <rtept lat="23.420061" lon="120.161879"/>
    <rtept lat="23.419328" lon="120.16198"/>
    <rtept lat="23.418811" lon="120.162079"/>
    <rtept lat="23.417714" lon="120.16232"/>
    <rtept lat="23.41658" lon="120.162599"/>
    <rtept lat="23.415313" lon="120.163016"/>
    <rtept lat="23.410118" lon="120.164996"/>
    <rtept lat="23.405549" lon="120.166765"/>
    <rtept lat="23.404968" lon="120.166958"/>
    <rtept lat="23.404222" lon="120.167167"/>
    <rtept lat="23.40341" lon="120.167373"/>
    <rtept lat="23.401741" lon="120.167737"/>
    <rtept lat="23.400825" lon="120.167902"/>
    <rtept lat="23.400074" lon="120.168"/>
    <rtept lat="23.399314" lon="120.168051"/>
    <rtept lat="23.397588" lon="120.168062"/>
    <rtept lat="23.39712" lon="120.168027"/>
    <rtept lat="23.396258" lon="120.167926"/>
    <rtept lat="23.395448" lon="120.167796"/>
    <rtept lat="23.39487" lon="120.1677"/>
    <rtept lat="23.394339" lon="120.167579"/>
    <rtept lat="23.393254" lon="120.167264"/>
    <rtept lat="23.393068" lon="120.167206"/>
    <rtept lat="23.392233" lon="120.166888"/>
    <rtept lat="23.391616" lon="120.16663"/>
    <rtept lat="23.391101" lon="120.166379"/>
    <rtept lat="23.390892" lon="120.166292"/>
    <rtept lat="23.389928" lon="120.165777"/>
    <rtept lat="23.388535" lon="120.164908"/>
    <rtept lat="23.388411" lon="120.164794"/>
    <rtept lat="23.387518" lon="120.164179"/>
    <rtept lat="23.385826" lon="120.162775"/>
    <rtept lat="23.383561" lon="120.160672"/>
    <rtept lat="23.38275" lon="120.159872"/>
    <rtept lat="23.382437" lon="120.159563"/>
    <rtept lat="23.382286" lon="120.159427"/>
    <rtept lat="23.381504" lon="120.158655"/>
    <rtept lat="23.381428" lon="120.15858"/>
    <rtept lat="23.381319" lon="120.15853"/>
    <rtept lat="23.381015" lon="120.158567"/>
    <rtept lat="23.380852" lon="120.158608"/>
    <rtept lat="23.380771" lon="120.158601"/>
    <rtept lat="23.380658" lon="120.158627"/>
    <rtept lat="23.380401" lon="120.158635"/>
    <rtept lat="23.380075" lon="120.158504"/>
    <rtept lat="23.379623" lon="120.157917"/>
    <rtept lat="23.379648" lon="120.157463"/>
    <rtept lat="23.379653" lon="120.157358"/>
    <rtept lat="23.37966" lon="120.157233"/>
    <rtept lat="23.379719" lon="120.156374"/>
    <rtept lat="23.379728" lon="120.156241"/>
    <rtept lat="23.379728" lon="120.156203"/>
    <rtept lat="23.379728" lon="120.155205"/>
    <rtept lat="23.379642" lon="120.1552"/>
    <rtept lat="23.379639" lon="120.155468"/>
    <rtept lat="23.379642" lon="120.1552"/>
    <rtept lat="23.379728" lon="120.155205"/>
    <rtept lat="23.379727" lon="120.155017"/>
    <rtept lat="23.379632" lon="120.155016"/>
    <rtept lat="23.379657" lon="120.154984"/>
    <rtept lat="23.379632" lon="120.155016"/>
    <rtept lat="23.379727" lon="120.155017"/>
    <rtept lat="23.379728" lon="120.155205"/>
    <rtept lat="23.379728" lon="120.156203"/>
    <rtept lat="23.379728" lon="120.156241"/>
    <rtept lat="23.379719" lon="120.156374"/>
    <rtept lat="23.37966" lon="120.157233"/>
    <rtept lat="23.379653" lon="120.157358"/>
    <rtept lat="23.379648" lon="120.157463"/>
    <rtept lat="23.379623" lon="120.157917"/>
    <rtept lat="23.379605" lon="120.158263"/>
    <rtept lat="23.37967" lon="120.158372"/>
    <rtept lat="23.379818" lon="120.158447"/>
    <rtept lat="23.380075" lon="120.158504"/>
    <rtept lat="23.380401" lon="120.158635"/>
    <rtept lat="23.380547" lon="120.158744"/>
    <rtept lat="23.380846" lon="120.159039"/>
    <rtept lat="23.381267" lon="120.16"/>
    <rtept lat="23.381325" lon="120.160219"/>
    <rtept lat="23.381361" lon="120.160354"/>
    <rtept lat="23.38142" lon="120.160569"/>
    <rtept lat="23.381521" lon="120.161092"/>
    <rtept lat="23.382028" lon="120.164566"/>
    <rtept lat="23.382641" lon="120.168729"/>
    <rtept lat="23.382707" lon="120.169218"/>
    <rtept lat="23.382704" lon="120.169444"/>
    <rtept lat="23.382678" lon="120.169613"/>
    <rtept lat="23.382596" lon="120.16985"/>
    <rtept lat="23.382443" lon="120.170173"/>
    <rtept lat="23.382273" lon="120.170083"/>
    <rtept lat="23.380969" lon="120.169395"/>
    <rtept lat="23.380891" lon="120.169357"/>
    <rtept lat="23.380665" lon="120.169253"/>
    <rtept lat="23.380579" lon="120.169234"/>
    <rtept lat="23.380029" lon="120.169118"/>
    <rtept lat="23.37962" lon="120.169073"/>
    <rtept lat="23.379484" lon="120.169057"/>
    <rtept lat="23.379402" lon="120.169048"/>
    <rtept lat="23.379314" lon="120.169039"/>
    <rtept lat="23.377926" lon="120.1689"/>
    <rtept lat="23.377597" lon="120.168865"/>
    <rtept lat="23.377488" lon="120.168843"/>
    <rtept lat="23.377234" lon="120.168809"/>
    <rtept lat="23.37706" lon="120.169086"/>
    <rtept lat="23.376579" lon="120.169949"/>
    <rtept lat="23.376514" lon="120.170062"/>
    <rtept lat="23.376187" lon="120.170635"/>
    <rtept lat="23.375932" lon="120.17109"/>
    <rtept lat="23.37558" lon="120.171791"/>
    <rtept lat="23.374927" lon="120.173256"/>
    <rtept lat="23.374781" lon="120.173572"/>
    <rtept lat="23.374625" lon="120.173902"/>
    <rtept lat="23.374481" lon="120.174291"/>
    <rtept lat="23.3744" lon="120.174714"/>
    <rtept lat="23.374364" lon="120.175121"/>
    <rtept lat="23.374238" lon="120.175178"/>
    <rtept lat="23.373488" lon="120.175636"/>
    <rtept lat="23.371103" lon="120.17714"/>
    <rtept lat="23.369589" lon="120.17806"/>
    <rtept lat="23.36914" lon="120.178257"/>
    <rtept lat="23.368715" lon="120.178381"/>
    <rtept lat="23.368306" lon="120.178383"/>
    <rtept lat="23.368129" lon="120.178389"/>
    <rtept lat="23.36658" lon="120.178436"/>
    <rtept lat="23.363408" lon="120.178553"/>
    <rtept lat="23.361791" lon="120.178594"/>
    <rtept lat="23.360957" lon="120.178639"/>
    <rtept lat="23.355789" lon="120.178743"/>
    <rtept lat="23.353956" lon="120.178891"/>
    <rtept lat="23.35269" lon="120.178951"/>
    <rtept lat="23.350563" lon="120.179025"/>
    <rtept lat="23.349596" lon="120.17906"/>
    <rtept lat="23.348738" lon="120.179074"/>
    <rtept lat="23.348368" lon="120.179043"/>
    <rtept lat="23.348197" lon="120.178983"/>
    <rtept lat="23.347971" lon="120.178868"/>
    <rtept lat="23.345766" lon="120.177328"/>
    <rtept lat="23.342763" lon="120.175261"/>
    <rtept lat="23.342566" lon="120.175114"/>
    <rtept lat="23.341315" lon="120.174283"/>
    <rtept lat="23.341123" lon="120.174156"/>
    <rtept lat="23.34074" lon="120.173905"/>
    <rtept lat="23.339356" lon="120.172948"/>
    <rtept lat="23.337902" lon="120.171994"/>
    <rtept lat="23.336422" lon="120.170998"/>
    <rtept lat="23.33635" lon="120.170953"/>
    <rtept lat="23.335923" lon="120.170682"/>
    <rtept lat="23.33556" lon="120.170348"/>
    <rtept lat="23.33539" lon="120.170099"/>
    <rtept lat="23.335296" lon="120.169859"/>
    <rtept lat="23.335242" lon="120.169479"/>
    <rtept lat="23.335306" lon="120.167491"/>
    <rtept lat="23.335282" lon="120.166726"/>
    <rtept lat="23.335202" lon="120.165543"/>
    <rtept lat="23.335085" lon="120.163414"/>
    <rtept lat="23.335015" lon="120.161279"/>
    <rtept lat="23.334976" lon="120.160909"/>
    <rtept lat="23.334878" lon="120.16059"/>
    <rtept lat="23.334757" lon="120.160375"/>
    <rtept lat="23.334608" lon="120.160218"/>
    <rtept lat="23.334405" lon="120.160072"/>
    <rtept lat="23.334263" lon="120.159996"/>
    <rtept lat="23.334096" lon="120.159935"/>
    <rtept lat="23.333861" lon="120.159888"/>
    <rtept lat="23.333708" lon="120.159858"/>
    <rtept lat="23.332556" lon="120.159775"/>
    <rtept lat="23.332047" lon="120.159743"/>
    <rtept lat="23.331338" lon="120.159651"/>
    <rtept lat="23.330214" lon="120.159542"/>
    <rtept lat="23.329661" lon="120.159471"/>
    <rtept lat="23.329006" lon="120.159369"/>
    <rtept lat="23.327797" lon="120.159231"/>
    <rtept lat="23.327082" lon="120.159191"/>
    <rtept lat="23.326508" lon="120.15922"/>
    <rtept lat="23.325883" lon="120.159279"/>
    <rtept lat="23.325589" lon="120.159296"/>
    <rtept lat="23.325296" lon="120.159284"/>
    <rtept lat="23.325208" lon="120.159256"/>
    <rtept lat="23.325048" lon="120.159203"/>
    <rtept lat="23.3247" lon="120.159001"/>
    <rtept lat="23.323071" lon="120.157911"/>
    <rtept lat="23.321193" lon="120.156634"/>
    <rtept lat="23.3194" lon="120.155686"/>
    <rtept lat="23.319266" lon="120.155398"/>
    <rtept lat="23.31926" lon="120.155311"/>
    <rtept lat="23.318173" lon="120.154957"/>
    <rtept lat="23.316921" lon="120.154404"/>
    <rtept lat="23.31059" lon="120.151388"/>
    <rtept lat="23.308605" lon="120.150448"/>
    <rtept lat="23.302283" lon="120.147388"/>
    <rtept lat="23.30221" lon="120.14735"/>
    <rtept lat="23.301391" lon="120.146989"/>
    <rtept lat="23.299383" lon="120.145946"/>
    <rtept lat="23.299154" lon="120.145994"/>
    <rtept lat="23.298935" lon="120.146082"/>
    <rtept lat="23.298769" lon="120.146117"/>
    <rtept lat="23.298073" lon="120.146125"/>
    <rtept lat="23.293941" lon="120.146305"/>
    <rtept lat="23.293796" lon="120.146276"/>
    <rtept lat="23.293551" lon="120.146173"/>
    <rtept lat="23.29339" lon="120.14606"/>
    <rtept lat="23.293221" lon="120.145904"/>
    <rtept lat="23.2897" lon="120.14196"/>
    <rtept lat="23.289471" lon="120.141789"/>
    <rtept lat="23.289295" lon="120.141698"/>
    <rtept lat="23.288194" lon="120.141325"/>
    <rtept lat="23.286667" lon="120.140789"/>
    <rtept lat="23.286477" lon="120.140711"/>
    <rtept lat="23.286341" lon="120.140556"/>
    <rtept lat="23.285833" lon="120.139652"/>
    <rtept lat="23.285095" lon="120.138384"/>
    <rtept lat="23.284659" lon="120.13763"/>
    <rtept lat="23.284459" lon="120.13728"/>
    <rtept lat="23.284368" lon="120.137122"/>
    
  </rte>
  
</gpx>
