<?xml version="1.0" ?>
<gpx xmlns="https://raw.githubusercontent.com/GIScience/openrouteservice-schema/main/gpx/v2/ors-gpx.xsd" version="1.1" creator="openrouteservice">
  <metadata>
    <name>openrouteservice directions</name>
    <desc>This is a directions instructions file as GPX, generated from openrouteservice</desc>
    <author>
      <name>openrouteservice</name>
      <email id="support" domain="openrouteservice.heigit.org"/>
      <link href="https://openrouteservice.org/">
        <text>https://openrouteservice.org/</text>
        <type>text/html</type>
      </link>
    </author>
    <copyright author="openrouteservice.org | OpenStreetMap contributors">
      <year>2026</year>
      <license>LGPL 3.0</license>
    </copyright>
    <time>2026-05-20T13:02:49.571Z</time>
    <bounds maxlat="24.057306" maxlon="120.496848" minlat="23.567616" minlon="120.301552"/>
    
  </metadata>
  <rte>
    <rtept lat="24.056317" lon="120.432623"/>
    <rtept lat="24.05629" lon="120.432635"/>
    <rtept lat="24.056291" lon="120.432725"/>
    <rtept lat="24.056194" lon="120.432772"/>
    <rtept lat="24.056175" lon="120.432847"/>
    <rtept lat="24.055953" lon="120.432949"/>
    <rtept lat="24.055557" lon="120.433094"/>
    <rtept lat="24.055842" lon="120.433622"/>
    <rtept lat="24.056" lon="120.43391"/>
    <rtept lat="24.056373" lon="120.434547"/>
    <rtept lat="24.05668" lon="120.435111"/>
    <rtept lat="24.056938" lon="120.435567"/>
    <rtept lat="24.057086" lon="120.435843"/>
    <rtept lat="24.057124" lon="120.435923"/>
    <rtept lat="24.057306" lon="120.436274"/>
    <rtept lat="24.057119" lon="120.436391"/>
    <rtept lat="24.05683" lon="120.436625"/>
    <rtept lat="24.056408" lon="120.436982"/>
    <rtept lat="24.056581" lon="120.437156"/>
    <rtept lat="24.056608" lon="120.437233"/>
    <rtept lat="24.056696" lon="120.437779"/>
    <rtept lat="24.056518" lon="120.437822"/>
    <rtept lat="24.05639" lon="120.437845"/>
    <rtept lat="24.056141" lon="120.437889"/>
    <rtept lat="24.055392" lon="120.438063"/>
    <rtept lat="24.054346" lon="120.438339"/>
    <rtept lat="24.054187" lon="120.438386"/>
    <rtept lat="24.054009" lon="120.438438"/>
    <rtept lat="24.053755" lon="120.438523"/>
    <rtept lat="24.053562" lon="120.438588"/>
    <rtept lat="24.052471" lon="120.438839"/>
    <rtept lat="24.052132" lon="120.438924"/>
    <rtept lat="24.051912" lon="120.43898"/>
    <rtept lat="24.051491" lon="120.439084"/>
    <rtept lat="24.050219" lon="120.439387"/>
    <rtept lat="24.049144" lon="120.439652"/>
    <rtept lat="24.048874" lon="120.440781"/>
    <rtept lat="24.048597" lon="120.441016"/>
    <rtept lat="24.048159" lon="120.441403"/>
    <rtept lat="24.048055" lon="120.441489"/>
    <rtept lat="24.047458" lon="120.442057"/>
    <rtept lat="24.046767" lon="120.442656"/>
    <rtept lat="24.046545" lon="120.442886"/>
    <rtept lat="24.045343" lon="120.443945"/>
    <rtept lat="24.045055" lon="120.444148"/>
    <rtept lat="24.044518" lon="120.44431"/>
    <rtept lat="24.044129" lon="120.444469"/>
    <rtept lat="24.04368" lon="120.444783"/>
    <rtept lat="24.043584" lon="120.444856"/>
    <rtept lat="24.041177" lon="120.446799"/>
    <rtept lat="24.038903" lon="120.448662"/>
    <rtept lat="24.036827" lon="120.450362"/>
    <rtept lat="24.036825" lon="120.450402"/>
    <rtept lat="24.036094" lon="120.450981"/>
    <rtept lat="24.036024" lon="120.451005"/>
    <rtept lat="24.035852" lon="120.452623"/>
    <rtept lat="24.035708" lon="120.453616"/>
    <rtept lat="24.0354" lon="120.45358"/>
    <rtept lat="24.033282" lon="120.453332"/>
    <rtept lat="24.033192" lon="120.453343"/>
    <rtept lat="24.033018" lon="120.453489"/>
    <rtept lat="24.030963" lon="120.45514"/>
    <rtept lat="24.030713" lon="120.455097"/>
    <rtept lat="24.029087" lon="120.454897"/>
    <rtept lat="24.02717" lon="120.454662"/>
    <rtept lat="24.025238" lon="120.454432"/>
    <rtept lat="24.024343" lon="120.454331"/>
    <rtept lat="24.023201" lon="120.454184"/>
    <rtept lat="24.022218" lon="120.453907"/>
    <rtept lat="24.020025" lon="120.453207"/>
    <rtept lat="24.020271" lon="120.452287"/>
    <rtept lat="24.019879" lon="120.452479"/>
    <rtept lat="24.019544" lon="120.452689"/>
    <rtept lat="24.019344" lon="120.452915"/>
    <rtept lat="24.019217" lon="120.453207"/>
    <rtept lat="24.018602" lon="120.45404"/>
    <rtept lat="24.018378" lon="120.454183"/>
    <rtept lat="24.018306" lon="120.453983"/>
    <rtept lat="24.018246" lon="120.453905"/>
    <rtept lat="24.017767" lon="120.453529"/>
    <rtept lat="24.01771" lon="120.453473"/>
    <rtept lat="24.017626" lon="120.453374"/>
    <rtept lat="24.017431" lon="120.453217"/>
    <rtept lat="24.017131" lon="120.453067"/>
    <rtept lat="24.016995" lon="120.453021"/>
    <rtept lat="24.016855" lon="120.452988"/>
    <rtept lat="24.016639" lon="120.452971"/>
    <rtept lat="24.016442" lon="120.453006"/>
    <rtept lat="24.015971" lon="120.452992"/>
    <rtept lat="24.015831" lon="120.453006"/>
    <rtept lat="24.015604" lon="120.453052"/>
    <rtept lat="24.01549" lon="120.453062"/>
    <rtept lat="24.015397" lon="120.45305"/>
    <rtept lat="24.015432" lon="120.45287"/>
    <rtept lat="24.014495" lon="120.452808"/>
    <rtept lat="24.014373" lon="120.4528"/>
    <rtept lat="24.014019" lon="120.452798"/>
    <rtept lat="24.012877" lon="120.452674"/>
    <rtept lat="24.012148" lon="120.452592"/>
    <rtept lat="24.010278" lon="120.452353"/>
    <rtept lat="24.009695" lon="120.452272"/>
    <rtept lat="24.008399" lon="120.452016"/>
    <rtept lat="24.007519" lon="120.45186"/>
    <rtept lat="24.007246" lon="120.451864"/>
    <rtept lat="24.006947" lon="120.451788"/>
    <rtept lat="24.006752" lon="120.451731"/>
    <rtept lat="24.00668" lon="120.451695"/>
    <rtept lat="24.006418" lon="120.451648"/>
    <rtept lat="24.006252" lon="120.451553"/>
    <rtept lat="24.005401" lon="120.45115"/>
    <rtept lat="24.005344" lon="120.451093"/>
    <rtept lat="24.005119" lon="120.45105"/>
    <rtept lat="24.004438" lon="120.450968"/>
    <rtept lat="24.004161" lon="120.450905"/>
    <rtept lat="24.003662" lon="120.45076"/>
    <rtept lat="24.003548" lon="120.450734"/>
    <rtept lat="24.003484" lon="120.450721"/>
    <rtept lat="24.003337" lon="120.450679"/>
    <rtept lat="24.003301" lon="120.450665"/>
    <rtept lat="24.002747" lon="120.450446"/>
    <rtept lat="24.00242" lon="120.450387"/>
    <rtept lat="24.001077" lon="120.449973"/>
    <rtept lat="23.999232" lon="120.449417"/>
    <rtept lat="23.9983" lon="120.449133"/>
    <rtept lat="23.998085" lon="120.449119"/>
    <rtept lat="23.998022" lon="120.449104"/>
    <rtept lat="23.997946" lon="120.449086"/>
    <rtept lat="23.997679" lon="120.448995"/>
    <rtept lat="23.997611" lon="120.448966"/>
    <rtept lat="23.99612" lon="120.448461"/>
    <rtept lat="23.994456" lon="120.447871"/>
    <rtept lat="23.994297" lon="120.447855"/>
    <rtept lat="23.994143" lon="120.447875"/>
    <rtept lat="23.993536" lon="120.44802"/>
    <rtept lat="23.992948" lon="120.448192"/>
    <rtept lat="23.992713" lon="120.448231"/>
    <rtept lat="23.992582" lon="120.448232"/>
    <rtept lat="23.992498" lon="120.448232"/>
    <rtept lat="23.991779" lon="120.448125"/>
    <rtept lat="23.991253" lon="120.448032"/>
    <rtept lat="23.990304" lon="120.447865"/>
    <rtept lat="23.990226" lon="120.447849"/>
    <rtept lat="23.989049" lon="120.447618"/>
    <rtept lat="23.988694" lon="120.447481"/>
    <rtept lat="23.988477" lon="120.447379"/>
    <rtept lat="23.98796" lon="120.447158"/>
    <rtept lat="23.98745" lon="120.446883"/>
    <rtept lat="23.986888" lon="120.446552"/>
    <rtept lat="23.986688" lon="120.446416"/>
    <rtept lat="23.986022" lon="120.445976"/>
    <rtept lat="23.985665" lon="120.445821"/>
    <rtept lat="23.985414" lon="120.445753"/>
    <rtept lat="23.985226" lon="120.445703"/>
    <rtept lat="23.984954" lon="120.445679"/>
    <rtept lat="23.984332" lon="120.445538"/>
    <rtept lat="23.984087" lon="120.445365"/>
    <rtept lat="23.983567" lon="120.445186"/>
    <rtept lat="23.983145" lon="120.445054"/>
    <rtept lat="23.982412" lon="120.444826"/>
    <rtept lat="23.982254" lon="120.444775"/>
    <rtept lat="23.980962" lon="120.444366"/>
    <rtept lat="23.98055" lon="120.444256"/>
    <rtept lat="23.980507" lon="120.444243"/>
    <rtept lat="23.980164" lon="120.444136"/>
    <rtept lat="23.979554" lon="120.443866"/>
    <rtept lat="23.978963" lon="120.443592"/>
    <rtept lat="23.978676" lon="120.443437"/>
    <rtept lat="23.97742" lon="120.442757"/>
    <rtept lat="23.976996" lon="120.442587"/>
    <rtept lat="23.976415" lon="120.442329"/>
    <rtept lat="23.975913" lon="120.442127"/>
    <rtept lat="23.975241" lon="120.441704"/>
    <rtept lat="23.974598" lon="120.441313"/>
    <rtept lat="23.974057" lon="120.441168"/>
    <rtept lat="23.973852" lon="120.441141"/>
    <rtept lat="23.973581" lon="120.441138"/>
    <rtept lat="23.973428" lon="120.441105"/>
    <rtept lat="23.973216" lon="120.441027"/>
    <rtept lat="23.972942" lon="120.440921"/>
    <rtept lat="23.972768" lon="120.440923"/>
    <rtept lat="23.972538" lon="120.441004"/>
    <rtept lat="23.972415" lon="120.441081"/>
    <rtept lat="23.972181" lon="120.441102"/>
    <rtept lat="23.971682" lon="120.441112"/>
    <rtept lat="23.971435" lon="120.441048"/>
    <rtept lat="23.971137" lon="120.440931"/>
    <rtept lat="23.97096" lon="120.440836"/>
    <rtept lat="23.970189" lon="120.441443"/>
    <rtept lat="23.968954" lon="120.439958"/>
    <rtept lat="23.968828" lon="120.43982"/>
    <rtept lat="23.968685" lon="120.439718"/>
    <rtept lat="23.968647" lon="120.43981"/>
    <rtept lat="23.968089" lon="120.440635"/>
    <rtept lat="23.967487" lon="120.441402"/>
    <rtept lat="23.966952" lon="120.441878"/>
    <rtept lat="23.966333" lon="120.442363"/>
    <rtept lat="23.965552" lon="120.442853"/>
    <rtept lat="23.964685" lon="120.443335"/>
    <rtept lat="23.963941" lon="120.443771"/>
    <rtept lat="23.96221" lon="120.444745"/>
    <rtept lat="23.959027" lon="120.44657"/>
    <rtept lat="23.958479" lon="120.446865"/>
    <rtept lat="23.958038" lon="120.447149"/>
    <rtept lat="23.957416" lon="120.447497"/>
    <rtept lat="23.956616" lon="120.448053"/>
    <rtept lat="23.956371" lon="120.448242"/>
    <rtept lat="23.956297" lon="120.448289"/>
    <rtept lat="23.956178" lon="120.448353"/>
    <rtept lat="23.956087" lon="120.448303"/>
    <rtept lat="23.95601" lon="120.448299"/>
    <rtept lat="23.955939" lon="120.448314"/>
    <rtept lat="23.955707" lon="120.448398"/>
    <rtept lat="23.955491" lon="120.448504"/>
    <rtept lat="23.955211" lon="120.4487"/>
    <rtept lat="23.954982" lon="120.44884"/>
    <rtept lat="23.954609" lon="120.448936"/>
    <rtept lat="23.95409" lon="120.44919"/>
    <rtept lat="23.951143" lon="120.451028"/>
    <rtept lat="23.95005" lon="120.451677"/>
    <rtept lat="23.94954" lon="120.45195"/>
    <rtept lat="23.947846" lon="120.452659"/>
    <rtept lat="23.946395" lon="120.453206"/>
    <rtept lat="23.944913" lon="120.453832"/>
    <rtept lat="23.944825" lon="120.453872"/>
    <rtept lat="23.944779" lon="120.453988"/>
    <rtept lat="23.944747" lon="120.454002"/>
    <rtept lat="23.944661" lon="120.454123"/>
    <rtept lat="23.944624" lon="120.454019"/>
    <rtept lat="23.944368" lon="120.453309"/>
    <rtept lat="23.944178" lon="120.452943"/>
    <rtept lat="23.944151" lon="120.45289"/>
    <rtept lat="23.944149" lon="120.452885"/>
    <rtept lat="23.943835" lon="120.452259"/>
    <rtept lat="23.943625" lon="120.45231"/>
    <rtept lat="23.943491" lon="120.452345"/>
    <rtept lat="23.943105" lon="120.452374"/>
    <rtept lat="23.942728" lon="120.452177"/>
    <rtept lat="23.9426" lon="120.452076"/>
    <rtept lat="23.942199" lon="120.451813"/>
    <rtept lat="23.942092" lon="120.451775"/>
    <rtept lat="23.94195" lon="120.451645"/>
    <rtept lat="23.941652" lon="120.451368"/>
    <rtept lat="23.940376" lon="120.45114"/>
    <rtept lat="23.940245" lon="120.451174"/>
    <rtept lat="23.94007" lon="120.451173"/>
    <rtept lat="23.938536" lon="120.451179"/>
    <rtept lat="23.937265" lon="120.451296"/>
    <rtept lat="23.936774" lon="120.451328"/>
    <rtept lat="23.936036" lon="120.451391"/>
    <rtept lat="23.935636" lon="120.451418"/>
    <rtept lat="23.935568" lon="120.45145"/>
    <rtept lat="23.935541" lon="120.451503"/>
    <rtept lat="23.935542" lon="120.451765"/>
    <rtept lat="23.934925" lon="120.451811"/>
    <rtept lat="23.934721" lon="120.451777"/>
    <rtept lat="23.934629" lon="120.451834"/>
    <rtept lat="23.934527" lon="120.451848"/>
    <rtept lat="23.934204" lon="120.451845"/>
    <rtept lat="23.934115" lon="120.451842"/>
    <rtept lat="23.934075" lon="120.451979"/>
    <rtept lat="23.93377" lon="120.452459"/>
    <rtept lat="23.93181" lon="120.452183"/>
    <rtept lat="23.93169" lon="120.452989"/>
    <rtept lat="23.931406" lon="120.452971"/>
    <rtept lat="23.931352" lon="120.453011"/>
    <rtept lat="23.931342" lon="120.453223"/>
    <rtept lat="23.931293" lon="120.453277"/>
    <rtept lat="23.931156" lon="120.453381"/>
    <rtept lat="23.930417" lon="120.453868"/>
    <rtept lat="23.930063" lon="120.453966"/>
    <rtept lat="23.929867" lon="120.453921"/>
    <rtept lat="23.929784" lon="120.453818"/>
    <rtept lat="23.929633" lon="120.453771"/>
    <rtept lat="23.928404" lon="120.453737"/>
    <rtept lat="23.927144" lon="120.453718"/>
    <rtept lat="23.926433" lon="120.453753"/>
    <rtept lat="23.926279" lon="120.453738"/>
    <rtept lat="23.92567" lon="120.453266"/>
    <rtept lat="23.925562" lon="120.453234"/>
    <rtept lat="23.925465" lon="120.453231"/>
    <rtept lat="23.924896" lon="120.453516"/>
    <rtept lat="23.921464" lon="120.453404"/>
    <rtept lat="23.921014" lon="120.453406"/>
    <rtept lat="23.921012" lon="120.4535"/>
    <rtept lat="23.918776" lon="120.453469"/>
    <rtept lat="23.918645" lon="120.453586"/>
    <rtept lat="23.918585" lon="120.453821"/>
    <rtept lat="23.918465" lon="120.453926"/>
    <rtept lat="23.914413" lon="120.454958"/>
    <rtept lat="23.911973" lon="120.455577"/>
    <rtept lat="23.910471" lon="120.455977"/>
    <rtept lat="23.910028" lon="120.456072"/>
    <rtept lat="23.909249" lon="120.456241"/>
    <rtept lat="23.909192" lon="120.456255"/>
    <rtept lat="23.908414" lon="120.456444"/>
    <rtept lat="23.908207" lon="120.456429"/>
    <rtept lat="23.90671" lon="120.456126"/>
    <rtept lat="23.904972" lon="120.455675"/>
    <rtept lat="23.904587" lon="120.455574"/>
    <rtept lat="23.904206" lon="120.455584"/>
    <rtept lat="23.902482" lon="120.45623"/>
    <rtept lat="23.900393" lon="120.457037"/>
    <rtept lat="23.899513" lon="120.457415"/>
    <rtept lat="23.898789" lon="120.457655"/>
    <rtept lat="23.898376" lon="120.45784"/>
    <rtept lat="23.897978" lon="120.458238"/>
    <rtept lat="23.897753" lon="120.458687"/>
    <rtept lat="23.897673" lon="120.45901"/>
    <rtept lat="23.897397" lon="120.459983"/>
    <rtept lat="23.897399" lon="120.460078"/>
    <rtept lat="23.897183" lon="120.461094"/>
    <rtept lat="23.897105" lon="120.461491"/>
    <rtept lat="23.897078" lon="120.461603"/>
    <rtept lat="23.896745" lon="120.462852"/>
    <rtept lat="23.896532" lon="120.463769"/>
    <rtept lat="23.896516" lon="120.463853"/>
    <rtept lat="23.895901" lon="120.466354"/>
    <rtept lat="23.895279" lon="120.468918"/>
    <rtept lat="23.895045" lon="120.469323"/>
    <rtept lat="23.894633" lon="120.46983"/>
    <rtept lat="23.89419" lon="120.470132"/>
    <rtept lat="23.893483" lon="120.470455"/>
    <rtept lat="23.89123" lon="120.471475"/>
    <rtept lat="23.890534" lon="120.471802"/>
    <rtept lat="23.890104" lon="120.471967"/>
    <rtept lat="23.890026" lon="120.472"/>
    <rtept lat="23.887468" lon="120.473115"/>
    <rtept lat="23.887029" lon="120.473311"/>
    <rtept lat="23.885932" lon="120.473824"/>
    <rtept lat="23.885743" lon="120.473904"/>
    <rtept lat="23.885334" lon="120.474064"/>
    <rtept lat="23.882986" lon="120.475123"/>
    <rtept lat="23.882139" lon="120.475479"/>
    <rtept lat="23.881305" lon="120.475985"/>
    <rtept lat="23.87884" lon="120.477492"/>
    <rtept lat="23.876667" lon="120.478788"/>
    <rtept lat="23.876046" lon="120.479178"/>
    <rtept lat="23.875621" lon="120.479546"/>
    <rtept lat="23.875563" lon="120.479629"/>
    <rtept lat="23.875052" lon="120.479805"/>
    <rtept lat="23.874548" lon="120.47995"/>
    <rtept lat="23.874443" lon="120.479961"/>
    <rtept lat="23.874407" lon="120.479958"/>
    <rtept lat="23.873758" lon="120.479985"/>
    <rtept lat="23.873529" lon="120.480073"/>
    <rtept lat="23.873392" lon="120.480108"/>
    <rtept lat="23.873149" lon="120.480181"/>
    <rtept lat="23.87293" lon="120.480233"/>
    <rtept lat="23.872851" lon="120.48023"/>
    <rtept lat="23.872819" lon="120.480185"/>
    <rtept lat="23.872724" lon="120.480489"/>
    <rtept lat="23.872515" lon="120.480526"/>
    <rtept lat="23.87213" lon="120.480591"/>
    <rtept lat="23.872102" lon="120.480675"/>
    <rtept lat="23.871901" lon="120.480688"/>
    <rtept lat="23.871864" lon="120.480708"/>
    <rtept lat="23.871774" lon="120.481202"/>
    <rtept lat="23.871714" lon="120.481472"/>
    <rtept lat="23.871648" lon="120.481621"/>
    <rtept lat="23.871615" lon="120.481655"/>
    <rtept lat="23.871168" lon="120.482109"/>
    <rtept lat="23.871063" lon="120.482179"/>
    <rtept lat="23.870939" lon="120.482217"/>
    <rtept lat="23.870774" lon="120.482233"/>
    <rtept lat="23.870653" lon="120.482225"/>
    <rtept lat="23.869912" lon="120.482127"/>
    <rtept lat="23.869598" lon="120.482088"/>
    <rtept lat="23.868831" lon="120.482013"/>
    <rtept lat="23.868528" lon="120.481986"/>
    <rtept lat="23.868069" lon="120.48192"/>
    <rtept lat="23.867521" lon="120.481857"/>
    <rtept lat="23.867369" lon="120.481855"/>
    <rtept lat="23.867195" lon="120.481876"/>
    <rtept lat="23.86589" lon="120.482327"/>
    <rtept lat="23.865774" lon="120.482394"/>
    <rtept lat="23.865472" lon="120.482713"/>
    <rtept lat="23.865297" lon="120.482775"/>
    <rtept lat="23.8651" lon="120.482848"/>
    <rtept lat="23.86436" lon="120.483065"/>
    <rtept lat="23.864317" lon="120.483098"/>
    <rtept lat="23.864091" lon="120.483273"/>
    <rtept lat="23.8639" lon="120.483388"/>
    <rtept lat="23.863611" lon="120.483367"/>
    <rtept lat="23.862698" lon="120.483151"/>
    <rtept lat="23.862334" lon="120.482976"/>
    <rtept lat="23.862087" lon="120.482857"/>
    <rtept lat="23.861947" lon="120.482888"/>
    <rtept lat="23.86159" lon="120.482968"/>
    <rtept lat="23.861259" lon="120.482921"/>
    <rtept lat="23.861212" lon="120.482938"/>
    <rtept lat="23.861021" lon="120.482974"/>
    <rtept lat="23.860611" lon="120.483131"/>
    <rtept lat="23.860544" lon="120.483171"/>
    <rtept lat="23.860066" lon="120.483535"/>
    <rtept lat="23.860002" lon="120.483579"/>
    <rtept lat="23.859918" lon="120.48364"/>
    <rtept lat="23.859629" lon="120.484096"/>
    <rtept lat="23.859514" lon="120.484172"/>
    <rtept lat="23.859379" lon="120.484223"/>
    <rtept lat="23.859249" lon="120.484269"/>
    <rtept lat="23.858952" lon="120.484347"/>
    <rtept lat="23.85853" lon="120.484454"/>
    <rtept lat="23.858148" lon="120.484533"/>
    <rtept lat="23.857976" lon="120.484571"/>
    <rtept lat="23.857794" lon="120.48462"/>
    <rtept lat="23.857624" lon="120.484674"/>
    <rtept lat="23.857277" lon="120.48483"/>
    <rtept lat="23.857176" lon="120.484933"/>
    <rtept lat="23.85698" lon="120.485375"/>
    <rtept lat="23.856689" lon="120.485829"/>
    <rtept lat="23.856646" lon="120.485908"/>
    <rtept lat="23.854629" lon="120.485362"/>
    <rtept lat="23.853425" lon="120.48509"/>
    <rtept lat="23.852412" lon="120.484905"/>
    <rtept lat="23.8509" lon="120.484674"/>
    <rtept lat="23.849635" lon="120.484418"/>
    <rtept lat="23.849489" lon="120.484168"/>
    <rtept lat="23.848131" lon="120.481852"/>
    <rtept lat="23.848101" lon="120.481813"/>
    <rtept lat="23.848062" lon="120.481762"/>
    <rtept lat="23.847613" lon="120.481194"/>
    <rtept lat="23.847494" lon="120.481069"/>
    <rtept lat="23.847427" lon="120.481021"/>
    <rtept lat="23.84722" lon="120.480851"/>
    <rtept lat="23.84618" lon="120.479998"/>
    <rtept lat="23.845031" lon="120.479017"/>
    <rtept lat="23.843878" lon="120.478097"/>
    <rtept lat="23.842001" lon="120.476533"/>
    <rtept lat="23.840859" lon="120.475557"/>
    <rtept lat="23.840786" lon="120.475496"/>
    <rtept lat="23.840723" lon="120.475443"/>
    <rtept lat="23.838891" lon="120.473914"/>
    <rtept lat="23.838372" lon="120.473482"/>
    <rtept lat="23.83719" lon="120.472495"/>
    <rtept lat="23.834853" lon="120.470545"/>
    <rtept lat="23.833388" lon="120.469322"/>
    <rtept lat="23.833193" lon="120.469159"/>
    <rtept lat="23.832518" lon="120.468597"/>
    <rtept lat="23.831963" lon="120.468133"/>
    <rtept lat="23.830362" lon="120.466819"/>
    <rtept lat="23.829901" lon="120.46648"/>
    <rtept lat="23.826983" lon="120.463994"/>
    <rtept lat="23.826733" lon="120.463835"/>
    <rtept lat="23.826674" lon="120.463801"/>
    <rtept lat="23.826224" lon="120.463681"/>
    <rtept lat="23.825897" lon="120.463588"/>
    <rtept lat="23.823539" lon="120.463106"/>
    <rtept lat="23.822389" lon="120.462875"/>
    <rtept lat="23.814205" lon="120.461233"/>
    <rtept lat="23.8103" lon="120.460429"/>
    <rtept lat="23.805215" lon="120.459381"/>
    <rtept lat="23.805039" lon="120.459345"/>
    <rtept lat="23.804831" lon="120.459331"/>
    <rtept lat="23.804751" lon="120.459325"/>
    <rtept lat="23.804647" lon="120.45928"/>
    <rtept lat="23.804137" lon="120.459191"/>
    <rtept lat="23.803486" lon="120.4592"/>
    <rtept lat="23.803508" lon="120.459524"/>
    <rtept lat="23.8035" lon="120.459711"/>
    <rtept lat="23.803468" lon="120.459795"/>
    <rtept lat="23.801973" lon="120.459903"/>
    <rtept lat="23.801156" lon="120.459986"/>
    <rtept lat="23.801094" lon="120.459311"/>
    <rtept lat="23.801084" lon="120.459197"/>
    <rtept lat="23.801009" lon="120.459198"/>
    <rtept lat="23.800774" lon="120.459202"/>
    <rtept lat="23.799999" lon="120.4592"/>
    <rtept lat="23.799249" lon="120.459211"/>
    <rtept lat="23.798458" lon="120.459262"/>
    <rtept lat="23.798429" lon="120.459053"/>
    <rtept lat="23.798458" lon="120.459262"/>
    <rtept lat="23.798544" lon="120.460016"/>
    <rtept lat="23.798603" lon="120.460694"/>
    <rtept lat="23.798677" lon="120.461386"/>
    <rtept lat="23.79875" lon="120.462041"/>
    <rtept lat="23.798935" lon="120.463534"/>
    <rtept lat="23.799017" lon="120.464345"/>
    <rtept lat="23.799075" lon="120.46502"/>
    <rtept lat="23.799104" lon="120.465247"/>
    <rtept lat="23.799155" lon="120.465639"/>
    <rtept lat="23.799167" lon="120.465732"/>
    <rtept lat="23.799134" lon="120.465749"/>
    <rtept lat="23.798873" lon="120.465884"/>
    <rtept lat="23.797809" lon="120.466434"/>
    <rtept lat="23.797729" lon="120.466475"/>
    <rtept lat="23.797639" lon="120.466521"/>
    <rtept lat="23.796515" lon="120.467096"/>
    <rtept lat="23.796432" lon="120.467138"/>
    <rtept lat="23.796366" lon="120.467173"/>
    <rtept lat="23.795543" lon="120.467612"/>
    <rtept lat="23.795375" lon="120.467694"/>
    <rtept lat="23.795242" lon="120.467769"/>
    <rtept lat="23.795116" lon="120.46784"/>
    <rtept lat="23.794561" lon="120.468136"/>
    <rtept lat="23.794492" lon="120.468173"/>
    <rtept lat="23.7944" lon="120.468222"/>
    <rtept lat="23.794025" lon="120.468422"/>
    <rtept lat="23.793549" lon="120.468674"/>
    <rtept lat="23.793273" lon="120.46882"/>
    <rtept lat="23.793053" lon="120.468937"/>
    <rtept lat="23.792041" lon="120.469473"/>
    <rtept lat="23.791124" lon="120.470012"/>
    <rtept lat="23.790764" lon="120.470224"/>
    <rtept lat="23.790207" lon="120.470533"/>
    <rtept lat="23.789959" lon="120.470615"/>
    <rtept lat="23.78965" lon="120.470758"/>
    <rtept lat="23.788318" lon="120.471476"/>
    <rtept lat="23.78712" lon="120.472147"/>
    <rtept lat="23.787039" lon="120.472192"/>
    <rtept lat="23.785637" lon="120.47294"/>
    <rtept lat="23.78434" lon="120.473694"/>
    <rtept lat="23.783785" lon="120.474009"/>
    <rtept lat="23.783375" lon="120.474228"/>
    <rtept lat="23.782941" lon="120.474459"/>
    <rtept lat="23.782561" lon="120.474703"/>
    <rtept lat="23.77979" lon="120.476239"/>
    <rtept lat="23.778181" lon="120.477094"/>
    <rtept lat="23.777502" lon="120.477484"/>
    <rtept lat="23.775713" lon="120.478488"/>
    <rtept lat="23.775259" lon="120.478721"/>
    <rtept lat="23.773731" lon="120.479562"/>
    <rtept lat="23.773514" lon="120.479703"/>
    <rtept lat="23.773335" lon="120.479812"/>
    <rtept lat="23.772723" lon="120.480148"/>
    <rtept lat="23.7724" lon="120.480364"/>
    <rtept lat="23.771953" lon="120.480688"/>
    <rtept lat="23.771589" lon="120.481026"/>
    <rtept lat="23.770984" lon="120.481727"/>
    <rtept lat="23.770185" lon="120.482783"/>
    <rtept lat="23.770125" lon="120.482859"/>
    <rtept lat="23.768797" lon="120.484659"/>
    <rtept lat="23.768139" lon="120.485555"/>
    <rtept lat="23.766656" lon="120.487513"/>
    <rtept lat="23.765413" lon="120.489158"/>
    <rtept lat="23.765343" lon="120.489253"/>
    <rtept lat="23.76456" lon="120.490283"/>
    <rtept lat="23.763454" lon="120.491711"/>
    <rtept lat="23.763015" lon="120.492457"/>
    <rtept lat="23.762954" lon="120.492562"/>
    <rtept lat="23.762754" lon="120.492885"/>
    <rtept lat="23.762716" lon="120.492954"/>
    <rtept lat="23.761323" lon="120.495429"/>
    <rtept lat="23.761159" lon="120.495645"/>
    <rtept lat="23.761058" lon="120.495772"/>
    <rtept lat="23.760987" lon="120.495854"/>
    <rtept lat="23.760813" lon="120.495988"/>
    <rtept lat="23.760554" lon="120.496173"/>
    <rtept lat="23.76005" lon="120.496424"/>
    <rtept lat="23.759769" lon="120.49651"/>
    <rtept lat="23.759505" lon="120.496557"/>
    <rtept lat="23.759138" lon="120.496578"/>
    <rtept lat="23.758652" lon="120.496587"/>
    <rtept lat="23.757772" lon="120.496615"/>
    <rtept lat="23.757686" lon="120.496618"/>
    <rtept lat="23.757575" lon="120.496623"/>
    <rtept lat="23.75614" lon="120.496665"/>
    <rtept lat="23.755444" lon="120.496694"/>
    <rtept lat="23.755395" lon="120.496697"/>
    <rtept lat="23.755334" lon="120.496698"/>
    <rtept lat="23.754845" lon="120.496707"/>
    <rtept lat="23.753921" lon="120.496736"/>
    <rtept lat="23.75285" lon="120.49677"/>
    <rtept lat="23.752504" lon="120.496785"/>
    <rtept lat="23.752356" lon="120.496791"/>
    <rtept lat="23.751611" lon="120.496807"/>
    <rtept lat="23.751406" lon="120.496819"/>
    <rtept lat="23.751044" lon="120.496839"/>
    <rtept lat="23.750636" lon="120.496848"/>
    <rtept lat="23.750393" lon="120.496839"/>
    <rtept lat="23.74993" lon="120.496729"/>
    <rtept lat="23.749728" lon="120.496669"/>
    <rtept lat="23.749189" lon="120.496458"/>
    <rtept lat="23.748721" lon="120.496245"/>
    <rtept lat="23.748509" lon="120.496168"/>
    <rtept lat="23.747592" lon="120.495845"/>
    <rtept lat="23.745693" lon="120.495274"/>
    <rtept lat="23.745069" lon="120.4951"/>
    <rtept lat="23.744968" lon="120.495066"/>
    <rtept lat="23.744893" lon="120.495042"/>
    <rtept lat="23.743415" lon="120.494605"/>
    <rtept lat="23.743253" lon="120.494555"/>
    <rtept lat="23.74313" lon="120.494515"/>
    <rtept lat="23.742304" lon="120.494255"/>
    <rtept lat="23.742044" lon="120.494165"/>
    <rtept lat="23.741799" lon="120.494077"/>
    <rtept lat="23.738686" lon="120.492887"/>
    <rtept lat="23.735995" lon="120.491847"/>
    <rtept lat="23.735785" lon="120.491767"/>
    <rtept lat="23.734895" lon="120.491424"/>
    <rtept lat="23.733601" lon="120.490929"/>
    <rtept lat="23.732921" lon="120.490663"/>
    <rtept lat="23.732782" lon="120.490627"/>
    <rtept lat="23.732176" lon="120.490398"/>
    <rtept lat="23.732091" lon="120.490365"/>
    <rtept lat="23.732003" lon="120.490329"/>
    <rtept lat="23.73191" lon="120.49029"/>
    <rtept lat="23.73104" lon="120.489944"/>
    <rtept lat="23.73072" lon="120.489814"/>
    <rtept lat="23.728308" lon="120.488887"/>
    <rtept lat="23.728203" lon="120.488847"/>
    <rtept lat="23.728001" lon="120.488773"/>
    <rtept lat="23.727619" lon="120.488622"/>
    <rtept lat="23.724481" lon="120.487411"/>
    <rtept lat="23.724131" lon="120.487279"/>
    <rtept lat="23.724028" lon="120.48724"/>
    <rtept lat="23.723833" lon="120.487167"/>
    <rtept lat="23.723546" lon="120.487059"/>
    <rtept lat="23.723066" lon="120.486867"/>
    <rtept lat="23.722568" lon="120.486691"/>
    <rtept lat="23.721936" lon="120.486483"/>
    <rtept lat="23.721823" lon="120.486455"/>
    <rtept lat="23.721194" lon="120.486304"/>
    <rtept lat="23.720076" lon="120.48603"/>
    <rtept lat="23.719605" lon="120.485913"/>
    <rtept lat="23.719408" lon="120.485864"/>
    <rtept lat="23.717301" lon="120.485337"/>
    <rtept lat="23.716812" lon="120.485217"/>
    <rtept lat="23.716009" lon="120.485008"/>
    <rtept lat="23.714311" lon="120.484575"/>
    <rtept lat="23.713073" lon="120.484249"/>
    <rtept lat="23.711992" lon="120.483964"/>
    <rtept lat="23.71135" lon="120.483806"/>
    <rtept lat="23.710682" lon="120.483653"/>
    <rtept lat="23.710369" lon="120.483615"/>
    <rtept lat="23.710003" lon="120.483606"/>
    <rtept lat="23.709628" lon="120.483621"/>
    <rtept lat="23.707136" lon="120.483875"/>
    <rtept lat="23.705826" lon="120.483993"/>
    <rtept lat="23.705635" lon="120.484012"/>
    <rtept lat="23.705508" lon="120.484025"/>
    <rtept lat="23.704511" lon="120.484139"/>
    <rtept lat="23.702351" lon="120.484351"/>
    <rtept lat="23.702315" lon="120.484355"/>
    <rtept lat="23.70184" lon="120.484419"/>
    <rtept lat="23.701638" lon="120.484438"/>
    <rtept lat="23.701351" lon="120.48444"/>
    <rtept lat="23.701223" lon="120.484419"/>
    <rtept lat="23.700979" lon="120.484325"/>
    <rtept lat="23.700823" lon="120.484238"/>
    <rtept lat="23.699825" lon="120.483469"/>
    <rtept lat="23.699623" lon="120.483313"/>
    <rtept lat="23.698603" lon="120.482525"/>
    <rtept lat="23.698023" lon="120.48208"/>
    <rtept lat="23.697494" lon="120.481661"/>
    <rtept lat="23.696381" lon="120.480794"/>
    <rtept lat="23.696188" lon="120.480654"/>
    <rtept lat="23.695673" lon="120.480268"/>
    <rtept lat="23.695295" lon="120.47998"/>
    <rtept lat="23.695089" lon="120.479882"/>
    <rtept lat="23.694969" lon="120.479845"/>
    <rtept lat="23.694678" lon="120.479777"/>
    <rtept lat="23.694319" lon="120.479776"/>
    <rtept lat="23.694231" lon="120.47978"/>
    <rtept lat="23.693657" lon="120.479827"/>
    <rtept lat="23.693558" lon="120.479838"/>
    <rtept lat="23.692851" lon="120.479884"/>
    <rtept lat="23.692184" lon="120.479923"/>
    <rtept lat="23.69219" lon="120.479782"/>
    <rtept lat="23.691857" lon="120.477031"/>
    <rtept lat="23.691843" lon="120.476914"/>
    <rtept lat="23.691829" lon="120.476814"/>
    <rtept lat="23.691816" lon="120.476694"/>
    <rtept lat="23.691565" lon="120.474606"/>
    <rtept lat="23.69153" lon="120.474501"/>
    <rtept lat="23.691137" lon="120.474039"/>
    <rtept lat="23.691141" lon="120.473899"/>
    <rtept lat="23.691093" lon="120.473241"/>
    <rtept lat="23.691041" lon="120.473136"/>
    <rtept lat="23.690892" lon="120.472993"/>
    <rtept lat="23.690842" lon="120.472901"/>
    <rtept lat="23.690492" lon="120.471153"/>
    <rtept lat="23.690479" lon="120.471054"/>
    <rtept lat="23.690413" lon="120.470866"/>
    <rtept lat="23.690257" lon="120.470566"/>
    <rtept lat="23.690581" lon="120.469918"/>
    <rtept lat="23.690327" lon="120.469743"/>
    <rtept lat="23.68995" lon="120.469568"/>
    <rtept lat="23.689777" lon="120.469094"/>
    <rtept lat="23.689767" lon="120.468913"/>
    <rtept lat="23.689633" lon="120.468381"/>
    <rtept lat="23.689631" lon="120.468084"/>
    <rtept lat="23.689617" lon="120.467964"/>
    <rtept lat="23.689637" lon="120.467791"/>
    <rtept lat="23.689797" lon="120.46743"/>
    <rtept lat="23.689991" lon="120.467046"/>
    <rtept lat="23.690005" lon="120.466974"/>
    <rtept lat="23.690028" lon="120.466855"/>
    <rtept lat="23.689803" lon="120.466522"/>
    <rtept lat="23.689744" lon="120.466379"/>
    <rtept lat="23.689698" lon="120.466075"/>
    <rtept lat="23.689709" lon="120.465913"/>
    <rtept lat="23.689636" lon="120.46574"/>
    <rtept lat="23.689588" lon="120.465749"/>
    <rtept lat="23.689542" lon="120.465733"/>
    <rtept lat="23.689237" lon="120.465514"/>
    <rtept lat="23.688766" lon="120.465162"/>
    <rtept lat="23.687682" lon="120.464369"/>
    <rtept lat="23.687436" lon="120.464157"/>
    <rtept lat="23.687149" lon="120.463513"/>
    <rtept lat="23.687084" lon="120.463261"/>
    <rtept lat="23.687014" lon="120.462475"/>
    <rtept lat="23.687065" lon="120.461866"/>
    <rtept lat="23.686919" lon="120.461913"/>
    <rtept lat="23.686412" lon="120.461955"/>
    <rtept lat="23.686307" lon="120.46195"/>
    <rtept lat="23.686071" lon="120.461904"/>
    <rtept lat="23.685693" lon="120.461824"/>
    <rtept lat="23.685548" lon="120.461794"/>
    <rtept lat="23.684894" lon="120.461664"/>
    <rtept lat="23.684738" lon="120.461611"/>
    <rtept lat="23.684329" lon="120.461442"/>
    <rtept lat="23.684137" lon="120.461211"/>
    <rtept lat="23.684092" lon="120.461139"/>
    <rtept lat="23.684048" lon="120.461063"/>
    <rtept lat="23.68333" lon="120.460014"/>
    <rtept lat="23.683179" lon="120.459637"/>
    <rtept lat="23.683146" lon="120.459512"/>
    <rtept lat="23.68292" lon="120.458579"/>
    <rtept lat="23.682232" lon="120.455719"/>
    <rtept lat="23.682168" lon="120.455592"/>
    <rtept lat="23.682013" lon="120.455354"/>
    <rtept lat="23.681317" lon="120.454439"/>
    <rtept lat="23.681294" lon="120.454389"/>
    <rtept lat="23.681311" lon="120.454288"/>
    <rtept lat="23.681262" lon="120.454209"/>
    <rtept lat="23.68105" lon="120.453403"/>
    <rtept lat="23.680247" lon="120.45327"/>
    <rtept lat="23.679535" lon="120.453137"/>
    <rtept lat="23.679404" lon="120.453115"/>
    <rtept lat="23.679112" lon="120.453087"/>
    <rtept lat="23.679553" lon="120.451938"/>
    <rtept lat="23.679908" lon="120.449683"/>
    <rtept lat="23.680262" lon="120.447365"/>
    <rtept lat="23.68083" lon="120.443631"/>
    <rtept lat="23.681179" lon="120.441355"/>
    <rtept lat="23.68133" lon="120.440558"/>
    <rtept lat="23.679821" lon="120.43824"/>
    <rtept lat="23.678696" lon="120.436469"/>
    <rtept lat="23.678585" lon="120.436341"/>
    <rtept lat="23.678305" lon="120.436089"/>
    <rtept lat="23.678125" lon="120.435922"/>
    <rtept lat="23.677887" lon="120.435693"/>
    <rtept lat="23.677825" lon="120.435636"/>
    <rtept lat="23.677414" lon="120.435272"/>
    <rtept lat="23.676338" lon="120.434276"/>
    <rtept lat="23.675599" lon="120.433629"/>
    <rtept lat="23.675241" lon="120.433253"/>
    <rtept lat="23.675186" lon="120.433159"/>
    <rtept lat="23.675119" lon="120.432607"/>
    <rtept lat="23.675112" lon="120.43255"/>
    <rtept lat="23.674983" lon="120.431554"/>
    <rtept lat="23.674575" lon="120.428448"/>
    <rtept lat="23.674517" lon="120.428327"/>
    <rtept lat="23.674137" lon="120.42756"/>
    <rtept lat="23.67409" lon="120.427478"/>
    <rtept lat="23.673772" lon="120.426856"/>
    <rtept lat="23.673462" lon="120.425783"/>
    <rtept lat="23.673402" lon="120.425356"/>
    <rtept lat="23.673057" lon="120.423031"/>
    <rtept lat="23.672925" lon="120.42148"/>
    <rtept lat="23.672705" lon="120.419762"/>
    <rtept lat="23.672403" lon="120.4183"/>
    <rtept lat="23.672341" lon="120.418021"/>
    <rtept lat="23.671822" lon="120.4164"/>
    <rtept lat="23.671589" lon="120.415744"/>
    <rtept lat="23.67117" lon="120.414775"/>
    <rtept lat="23.670417" lon="120.4133"/>
    <rtept lat="23.669813" lon="120.412323"/>
    <rtept lat="23.669086" lon="120.411353"/>
    <rtept lat="23.668686" lon="120.410881"/>
    <rtept lat="23.668275" lon="120.41043"/>
    <rtept lat="23.66775" lon="120.409886"/>
    <rtept lat="23.667366" lon="120.409443"/>
    <rtept lat="23.665482" lon="120.407286"/>
    <rtept lat="23.664003" lon="120.405425"/>
    <rtept lat="23.663965" lon="120.405376"/>
    <rtept lat="23.663948" lon="120.405353"/>
    <rtept lat="23.663819" lon="120.405164"/>
    <rtept lat="23.662679" lon="120.403654"/>
    <rtept lat="23.661475" lon="120.40201"/>
    <rtept lat="23.660781" lon="120.401082"/>
    <rtept lat="23.660335" lon="120.400456"/>
    <rtept lat="23.660166" lon="120.400219"/>
    <rtept lat="23.659117" lon="120.398886"/>
    <rtept lat="23.658505" lon="120.398123"/>
    <rtept lat="23.657226" lon="120.396672"/>
    <rtept lat="23.656951" lon="120.396367"/>
    <rtept lat="23.656125" lon="120.395526"/>
    <rtept lat="23.65608" lon="120.395437"/>
    <rtept lat="23.655296" lon="120.394658"/>
    <rtept lat="23.655225" lon="120.394607"/>
    <rtept lat="23.654027" lon="120.393449"/>
    <rtept lat="23.653685" lon="120.393143"/>
    <rtept lat="23.652475" lon="120.392055"/>
    <rtept lat="23.651743" lon="120.391498"/>
    <rtept lat="23.651054" lon="120.391013"/>
    <rtept lat="23.650723" lon="120.390784"/>
    <rtept lat="23.649816" lon="120.390314"/>
    <rtept lat="23.649542" lon="120.390153"/>
    <rtept lat="23.648424" lon="120.389686"/>
    <rtept lat="23.6485" lon="120.389629"/>
    <rtept lat="23.648969" lon="120.38982"/>
    <rtept lat="23.649093" lon="120.389853"/>
    <rtept lat="23.649127" lon="120.389852"/>
    <rtept lat="23.64915" lon="120.389814"/>
    <rtept lat="23.649151" lon="120.389781"/>
    <rtept lat="23.649126" lon="120.389742"/>
    <rtept lat="23.648991" lon="120.38969"/>
    <rtept lat="23.648537" lon="120.38944"/>
    <rtept lat="23.648627" lon="120.387078"/>
    <rtept lat="23.648641" lon="120.386406"/>
    <rtept lat="23.648601" lon="120.385603"/>
    <rtept lat="23.648549" lon="120.38444"/>
    <rtept lat="23.648591" lon="120.384407"/>
    <rtept lat="23.649194" lon="120.38456"/>
    <rtept lat="23.649283" lon="120.38457"/>
    <rtept lat="23.649342" lon="120.384515"/>
    <rtept lat="23.64617" lon="120.38349"/>
    <rtept lat="23.644288" lon="120.38276"/>
    <rtept lat="23.643094" lon="120.382211"/>
    <rtept lat="23.641104" lon="120.381253"/>
    <rtept lat="23.636991" lon="120.37901"/>
    <rtept lat="23.632805" lon="120.376806"/>
    <rtept lat="23.624738" lon="120.372666"/>
    <rtept lat="23.619067" lon="120.369742"/>
    <rtept lat="23.614974" lon="120.367632"/>
    <rtept lat="23.613832" lon="120.367053"/>
    <rtept lat="23.613306" lon="120.366737"/>
    <rtept lat="23.611493" lon="120.36583"/>
    <rtept lat="23.609541" lon="120.365009"/>
    <rtept lat="23.607542" lon="120.364255"/>
    <rtept lat="23.603888" lon="120.362912"/>
    <rtept lat="23.602546" lon="120.362316"/>
    <rtept lat="23.601811" lon="120.361868"/>
    <rtept lat="23.601025" lon="120.361321"/>
    <rtept lat="23.600179" lon="120.360605"/>
    <rtept lat="23.59944" lon="120.359838"/>
    <rtept lat="23.598804" lon="120.35906"/>
    <rtept lat="23.598458" lon="120.358322"/>
    <rtept lat="23.597733" lon="120.356643"/>
    <rtept lat="23.597766" lon="120.356605"/>
    <rtept lat="23.597751" lon="120.356543"/>
    <rtept lat="23.597391" lon="120.355592"/>
    <rtept lat="23.597404" lon="120.355567"/>
    <rtept lat="23.597467" lon="120.355542"/>
    <rtept lat="23.597369" lon="120.35524"/>
    <rtept lat="23.597015" lon="120.354173"/>
    <rtept lat="23.596762" lon="120.353294"/>
    <rtept lat="23.596522" lon="120.352341"/>
    <rtept lat="23.596411" lon="120.351807"/>
    <rtept lat="23.596356" lon="120.351897"/>
    <rtept lat="23.596354" lon="120.351943"/>
    <rtept lat="23.596566" lon="120.352913"/>
    <rtept lat="23.596562" lon="120.353006"/>
    <rtept lat="23.596539" lon="120.353024"/>
    <rtept lat="23.596242" lon="120.351797"/>
    <rtept lat="23.59603" lon="120.350525"/>
    <rtept lat="23.595844" lon="120.349048"/>
    <rtept lat="23.595763" lon="120.347951"/>
    <rtept lat="23.595656" lon="120.345741"/>
    <rtept lat="23.595287" lon="120.337828"/>
    <rtept lat="23.595102" lon="120.333986"/>
    <rtept lat="23.594978" lon="120.331045"/>
    <rtept lat="23.594919" lon="120.330468"/>
    <rtept lat="23.594745" lon="120.329693"/>
    <rtept lat="23.594504" lon="120.328912"/>
    <rtept lat="23.594492" lon="120.328711"/>
    <rtept lat="23.593842" lon="120.327595"/>
    <rtept lat="23.591167" lon="120.325241"/>
    <rtept lat="23.59073" lon="120.324806"/>
    <rtept lat="23.590481" lon="120.324608"/>
    <rtept lat="23.590324" lon="120.324538"/>
    <rtept lat="23.590125" lon="120.324479"/>
    <rtept lat="23.586797" lon="120.324447"/>
    <rtept lat="23.586011" lon="120.324329"/>
    <rtept lat="23.58599" lon="120.324379"/>
    <rtept lat="23.585889" lon="120.324365"/>
    <rtept lat="23.585366" lon="120.32438"/>
    <rtept lat="23.582792" lon="120.325093"/>
    <rtept lat="23.582494" lon="120.325125"/>
    <rtept lat="23.580105" lon="120.325163"/>
    <rtept lat="23.579588" lon="120.325153"/>
    <rtept lat="23.579091" lon="120.325044"/>
    <rtept lat="23.578392" lon="120.324777"/>
    <rtept lat="23.577118" lon="120.324024"/>
    <rtept lat="23.576399" lon="120.323339"/>
    <rtept lat="23.576005" lon="120.322853"/>
    <rtept lat="23.575655" lon="120.322322"/>
    <rtept lat="23.575245" lon="120.32151"/>
    <rtept lat="23.574903" lon="120.320556"/>
    <rtept lat="23.574844" lon="120.320305"/>
    <rtept lat="23.574815" lon="120.319935"/>
    <rtept lat="23.574829" lon="120.319605"/>
    <rtept lat="23.574888" lon="120.319278"/>
    <rtept lat="23.575318" lon="120.317708"/>
    <rtept lat="23.577085" lon="120.310852"/>
    <rtept lat="23.577153" lon="120.310444"/>
    <rtept lat="23.577156" lon="120.310044"/>
    <rtept lat="23.577107" lon="120.309623"/>
    <rtept lat="23.577015" lon="120.309252"/>
    <rtept lat="23.576899" lon="120.30891"/>
    <rtept lat="23.576925" lon="120.308886"/>
    <rtept lat="23.576913" lon="120.308809"/>
    <rtept lat="23.576614" lon="120.307764"/>
    <rtept lat="23.576672" lon="120.307736"/>
    <rtept lat="23.576587" lon="120.307538"/>
    <rtept lat="23.576508" lon="120.307345"/>
    <rtept lat="23.576297" lon="120.306905"/>
    <rtept lat="23.576187" lon="120.306676"/>
    <rtept lat="23.575754" lon="120.306041"/>
    <rtept lat="23.575547" lon="120.305789"/>
    <rtept lat="23.575338" lon="120.3056"/>
    <rtept lat="23.575022" lon="120.305393"/>
    <rtept lat="23.574398" lon="120.304953"/>
    <rtept lat="23.573876" lon="120.304668"/>
    <rtept lat="23.573407" lon="120.304536"/>
    <rtept lat="23.573236" lon="120.304489"/>
    <rtept lat="23.572752" lon="120.304446"/>
    <rtept lat="23.572395" lon="120.304587"/>
    <rtept lat="23.572182" lon="120.304671"/>
    <rtept lat="23.571969" lon="120.304756"/>
    <rtept lat="23.571748" lon="120.304957"/>
    <rtept lat="23.571729" lon="120.304976"/>
    <rtept lat="23.571486" lon="120.30491"/>
    <rtept lat="23.571433" lon="120.30489"/>
    <rtept lat="23.570869" lon="120.304681"/>
    <rtept lat="23.570442" lon="120.304521"/>
    <rtept lat="23.569527" lon="120.304149"/>
    <rtept lat="23.569328" lon="120.304065"/>
    <rtept lat="23.568835" lon="120.303857"/>
    <rtept lat="23.568577" lon="120.304356"/>
    <rtept lat="23.56847" lon="120.304512"/>
    <rtept lat="23.568307" lon="120.304395"/>
    <rtept lat="23.567987" lon="120.304346"/>
    <rtept lat="23.56788" lon="120.304346"/>
    <rtept lat="23.567794" lon="120.304355"/>
    <rtept lat="23.567692" lon="120.304433"/>
    <rtept lat="23.567636" lon="120.30452"/>
    <rtept lat="23.567621" lon="120.30459"/>
    <rtept lat="23.567616" lon="120.304634"/>
    <rtept lat="23.567636" lon="120.30473"/>
    <rtept lat="23.567684" lon="120.304829"/>
    <rtept lat="23.567763" lon="120.304911"/>
    <rtept lat="23.568088" lon="120.304956"/>
    <rtept lat="23.568253" lon="120.304979"/>
    <rtept lat="23.568347" lon="120.304964"/>
    <rtept lat="23.568428" lon="120.304912"/>
    <rtept lat="23.568482" lon="120.304822"/>
    <rtept lat="23.568496" lon="120.304614"/>
    <rtept lat="23.56847" lon="120.304512"/>
    <rtept lat="23.568307" lon="120.304395"/>
    <rtept lat="23.567987" lon="120.304346"/>
    <rtept lat="23.568097" lon="120.303609"/>
    <rtept lat="23.568226" lon="120.303124"/>
    <rtept lat="23.568379" lon="120.30255"/>
    <rtept lat="23.568413" lon="120.302421"/>
    <rtept lat="23.56843" lon="120.302362"/>
    <rtept lat="23.568625" lon="120.301591"/>
    <rtept lat="23.56872" lon="120.301589"/>
    <rtept lat="23.56877" lon="120.301552"/>
    
  </rte>
  
</gpx>
