<?xml version="1.0" encoding="UTF-8" standalone="yes"?><gpx version="1.1" creator="openrouteservice" xmlns="https://raw.githubusercontent.com/GIScience/openrouteservice-schema/main/gpx/v2/ors-gpx.xsd"><metadata><name>openrouteservice directions</name><desc>This is a directions instructions file as GPX, generated from openrouteservice</desc><author><name>openrouteservice</name><email id="support" domain="openrouteservice.heigit.org"/><link href="https://openrouteservice.org/"><text>https://openrouteservice.org/</text><type>text/html</type></link></author><copyright author="openrouteservice.org | OpenStreetMap contributors"><year>2026</year><license>LGPL 3.0</license></copyright><time>2026-06-01T03:29:23.804Z</time><bounds maxlat="23.331692" maxlon="121.337138" minlat="22.616012" minlon="121.005123"/></metadata>
  <wpt lat="22.618796099999997" lon="121.00501509999998"><name>太麻里車站</name><sym>Flag, Green</sym></wpt>
  <wpt lat="22.6930439" lon="121.01812399999999"><name>知本溫泉</name><sym>Waypoint</sym></wpt>
  <wpt lat="22.7536877" lon="121.1457215"><name>鐵花村音樂聚落慢市集</name><sym>Waypoint</sym></wpt>
  <wpt lat="22.865761799999998" lon="121.1084195"><name>初鹿牧場</name><sym>Waypoint</sym></wpt>
  <wpt lat="22.910521" lon="121.136215"><name>7-ELEVEN 新鹿野門市</name><sym>Waypoint</sym></wpt>
  <wpt lat="23.0420572" lon="121.1708451"><name>關山環鎮自行車道</name><sym>Waypoint</sym></wpt>
  <wpt lat="23.045086" lon="121.163145"><name>7-ELEVEN 關山門市</name><sym>Waypoint</sym></wpt>
  <wpt lat="23.0988065" lon="121.2130022"><name>伯朗大道</name><sym>Waypoint</sym></wpt>
  <wpt lat="23.1242563" lon="121.2209041"><name>悟饕池上飯包文化故事館</name><sym>Waypoint</sym></wpt>
  <wpt lat="23.12075" lon="121.213276"><name>7-ELEVEN 池上門市</name><sym>Waypoint</sym></wpt>
  <wpt lat="23.331519999999998" lon="121.31172"><name>玉里車站</name><sym>Flag, Red</sym></wpt><rte><rtept lat="22.618669" lon="121.005123"/><rtept lat="22.617784" lon="121.006318"/><rtept lat="22.61752" lon="121.006677"/><rtept lat="22.616298" lon="121.008267"/><rtept lat="22.616045" lon="121.008601"/><rtept lat="22.616012" lon="121.008693"/><rtept lat="22.617898" lon="121.009819"/><rtept lat="22.618046" lon="121.009904"/><rtept lat="22.618472" lon="121.010078"/><rtept lat="22.618761" lon="121.010144"/><rtept lat="22.619049" lon="121.010175"/><rtept lat="22.61937" lon="121.010213"/><rtept lat="22.620618" lon="121.010252"/><rtept lat="22.620781" lon="121.010281"/><rtept lat="22.621158" lon="121.010391"/><rtept lat="22.621833" lon="121.010728"/><rtept lat="22.621971" lon="121.010799"/><rtept lat="22.622449" lon="121.011076"/><rtept lat="22.623984" lon="121.01189"/><rtept lat="22.624446" lon="121.012105"/><rtept lat="22.62512" lon="121.012329"/><rtept lat="22.626719" lon="121.012753"/><rtept lat="22.627751" lon="121.012984"/><rtept lat="22.629484" lon="121.013443"/><rtept lat="22.629906" lon="121.013532"/><rtept lat="22.630699" lon="121.013732"/><rtept lat="22.631837" lon="121.013903"/><rtept lat="22.632442" lon="121.014033"/><rtept lat="22.632974" lon="121.014206"/><rtept lat="22.633296" lon="121.014333"/><rtept lat="22.634064" lon="121.014562"/><rtept lat="22.634485" lon="121.0147"/><rtept lat="22.63688" lon="121.015431"/><rtept lat="22.637372" lon="121.0156"/><rtept lat="22.637766" lon="121.015782"/><rtept lat="22.638657" lon="121.016261"/><rtept lat="22.639052" lon="121.016443"/><rtept lat="22.639399" lon="121.016534"/><rtept lat="22.640662" lon="121.016731"/><rtept lat="22.640816" lon="121.016763"/><rtept lat="22.641657" lon="121.016876"/><rtept lat="22.642119" lon="121.017036"/><rtept lat="22.642468" lon="121.017186"/><rtept lat="22.642552" lon="121.017239"/><rtept lat="22.643058" lon="121.017501"/><rtept lat="22.643899" lon="121.017891"/><rtept lat="22.645184" lon="121.018241"/><rtept lat="22.645273" lon="121.018265"/><rtept lat="22.645656" lon="121.018387"/><rtept lat="22.645834" lon="121.01848"/><rtept lat="22.64695" lon="121.019224"/><rtept lat="22.647319" lon="121.019424"/><rtept lat="22.647719" lon="121.019611"/><rtept lat="22.648136" lon="121.019774"/><rtept lat="22.649516" lon="121.020298"/><rtept lat="22.650026" lon="121.020533"/><rtept lat="22.650437" lon="121.020764"/><rtept lat="22.650795" lon="121.020996"/><rtept lat="22.651163" lon="121.021277"/><rtept lat="22.651552" lon="121.021602"/><rtept lat="22.651915" lon="121.021865"/><rtept lat="22.65303" lon="121.022587"/><rtept lat="22.654901" lon="121.023725"/><rtept lat="22.65544" lon="121.02403"/><rtept lat="22.656474" lon="121.024683"/><rtept lat="22.6572" lon="121.025151"/><rtept lat="22.657844" lon="121.025504"/><rtept lat="22.658547" lon="121.025919"/><rtept lat="22.659175" lon="121.026346"/><rtept lat="22.659936" lon="121.026924"/><rtept lat="22.660459" lon="121.027293"/><rtept lat="22.660926" lon="121.027643"/><rtept lat="22.661272" lon="121.027899"/><rtept lat="22.661557" lon="121.028102"/><rtept lat="22.662139" lon="121.028448"/><rtept lat="22.662521" lon="121.028706"/><rtept lat="22.663095" lon="121.02903"/><rtept lat="22.663463" lon="121.029279"/><rtept lat="22.663702" lon="121.029475"/><rtept lat="22.664233" lon="121.02999"/><rtept lat="22.664937" lon="121.030777"/><rtept lat="22.665447" lon="121.031253"/><rtept lat="22.665793" lon="121.031614"/><rtept lat="22.666473" lon="121.032157"/><rtept lat="22.666942" lon="121.032569"/><rtept lat="22.668245" lon="121.033826"/><rtept lat="22.668846" lon="121.034422"/><rtept lat="22.669839" lon="121.03542"/><rtept lat="22.670255" lon="121.035881"/><rtept lat="22.670464" lon="121.03608"/><rtept lat="22.670701" lon="121.036346"/><rtept lat="22.670989" lon="121.036613"/><rtept lat="22.671088" lon="121.036741"/><rtept lat="22.671481" lon="121.037141"/><rtept lat="22.671819" lon="121.037493"/><rtept lat="22.672466" lon="121.03809"/><rtept lat="22.673463" lon="121.03893"/><rtept lat="22.673732" lon="121.03927"/><rtept lat="22.67414" lon="121.039669"/><rtept lat="22.67471" lon="121.040227"/><rtept lat="22.675672" lon="121.041151"/><rtept lat="22.676019" lon="121.041418"/><rtept lat="22.676134" lon="121.041476"/><rtept lat="22.676412" lon="121.041626"/><rtept lat="22.676886" lon="121.041712"/><rtept lat="22.678467" lon="121.04207"/><rtept lat="22.679269" lon="121.042274"/><rtept lat="22.67971" lon="121.042353"/><rtept lat="22.681291" lon="121.042747"/><rtept lat="22.681359" lon="121.042774"/><rtept lat="22.683555" lon="121.043267"/><rtept lat="22.684479" lon="121.043532"/><rtept lat="22.684678" lon="121.043641"/><rtept lat="22.686598" lon="121.044638"/><rtept lat="22.687163" lon="121.044973"/><rtept lat="22.687544" lon="121.045177"/><rtept lat="22.688053" lon="121.045469"/><rtept lat="22.688299" lon="121.045605"/><rtept lat="22.688988" lon="121.046037"/><rtept lat="22.690312" lon="121.046792"/><rtept lat="22.690386" lon="121.046738"/><rtept lat="22.690469" lon="121.046598"/><rtept lat="22.690553" lon="121.04652"/><rtept lat="22.690705" lon="121.046482"/><rtept lat="22.691024" lon="121.046516"/><rtept lat="22.69134" lon="121.046478"/><rtept lat="22.691513" lon="121.046535"/><rtept lat="22.691766" lon="121.046486"/><rtept lat="22.692853" lon="121.046157"/><rtept lat="22.693322" lon="121.046008"/><rtept lat="22.694291" lon="121.045714"/><rtept lat="22.694478" lon="121.045646"/><rtept lat="22.694665" lon="121.045551"/><rtept lat="22.694865" lon="121.045415"/><rtept lat="22.695153" lon="121.045152"/><rtept lat="22.695388" lon="121.044982"/><rtept lat="22.695697" lon="121.044684"/><rtept lat="22.696103" lon="121.044233"/><rtept lat="22.697079" lon="121.043499"/><rtept lat="22.698068" lon="121.042577"/><rtept lat="22.698673" lon="121.042028"/><rtept lat="22.698891" lon="121.041778"/><rtept lat="22.699047" lon="121.041507"/><rtept lat="22.699332" lon="121.041013"/><rtept lat="22.699834" lon="121.040052"/><rtept lat="22.699949" lon="121.039919"/><rtept lat="22.700116" lon="121.039815"/><rtept lat="22.70009" lon="121.039726"/><rtept lat="22.699987" lon="121.039208"/><rtept lat="22.699572" lon="121.037676"/><rtept lat="22.698806" lon="121.035282"/><rtept lat="22.698524" lon="121.034486"/><rtept lat="22.698266" lon="121.033759"/><rtept lat="22.69741" lon="121.031706"/><rtept lat="22.69517" lon="121.026421"/><rtept lat="22.694936" lon="121.025836"/><rtept lat="22.694627" lon="121.025175"/><rtept lat="22.69462" lon="121.025016"/><rtept lat="22.694539" lon="121.024667"/><rtept lat="22.694489" lon="121.024144"/><rtept lat="22.694452" lon="121.024037"/><rtept lat="22.694387" lon="121.023928"/><rtept lat="22.693955" lon="121.023383"/><rtept lat="22.693899" lon="121.023279"/><rtept lat="22.69372" lon="121.022758"/><rtept lat="22.693604" lon="121.022361"/><rtept lat="22.693586" lon="121.022175"/><rtept lat="22.693334" lon="121.021751"/><rtept lat="22.692902" lon="121.020579"/><rtept lat="22.692858" lon="121.020411"/><rtept lat="22.692779" lon="121.019837"/><rtept lat="22.692597" lon="121.018034"/><rtept lat="22.692586" lon="121.017155"/><rtept lat="22.692537" lon="121.016892"/><rtept lat="22.692608" lon="121.016872"/><rtept lat="22.692845" lon="121.016912"/><rtept lat="22.692931" lon="121.016928"/><rtept lat="22.693112" lon="121.016975"/><rtept lat="22.693147" lon="121.017"/><rtept lat="22.693165" lon="121.017041"/><rtept lat="22.69314" lon="121.017533"/><rtept lat="22.693119" lon="121.017563"/><rtept lat="22.693007" lon="121.01757"/><rtept lat="22.693007" lon="121.018124"/><rtept lat="22.693007" lon="121.01757"/><rtept lat="22.693119" lon="121.017563"/><rtept lat="22.69314" lon="121.017533"/><rtept lat="22.693165" lon="121.017041"/><rtept lat="22.693147" lon="121.017"/><rtept lat="22.693112" lon="121.016975"/><rtept lat="22.692931" lon="121.016928"/><rtept lat="22.692845" lon="121.016912"/><rtept lat="22.692608" lon="121.016872"/><rtept lat="22.692537" lon="121.016892"/><rtept lat="22.692586" lon="121.017155"/><rtept lat="22.692597" lon="121.018034"/><rtept lat="22.692779" lon="121.019837"/><rtept lat="22.692858" lon="121.020411"/><rtept lat="22.692902" lon="121.020579"/><rtept lat="22.693334" lon="121.021751"/><rtept lat="22.693586" lon="121.022175"/><rtept lat="22.693604" lon="121.022361"/><rtept lat="22.69372" lon="121.022758"/><rtept lat="22.693899" lon="121.023279"/><rtept lat="22.693955" lon="121.023383"/><rtept lat="22.694387" lon="121.023928"/><rtept lat="22.694452" lon="121.024037"/><rtept lat="22.694489" lon="121.024144"/><rtept lat="22.694539" lon="121.024667"/><rtept lat="22.69462" lon="121.025016"/><rtept lat="22.694627" lon="121.025175"/><rtept lat="22.694936" lon="121.025836"/><rtept lat="22.69517" lon="121.026421"/><rtept lat="22.69741" lon="121.031706"/><rtept lat="22.698266" lon="121.033759"/><rtept lat="22.698524" lon="121.034486"/><rtept lat="22.698806" lon="121.035282"/><rtept lat="22.699572" lon="121.037676"/><rtept lat="22.699987" lon="121.039208"/><rtept lat="22.70009" lon="121.039726"/><rtept lat="22.699862" lon="121.039893"/><rtept lat="22.699779" lon="121.039977"/><rtept lat="22.699691" lon="121.040109"/><rtept lat="22.699263" lon="121.040899"/><rtept lat="22.698983" lon="121.04146"/><rtept lat="22.698889" lon="121.041628"/><rtept lat="22.698611" lon="121.041982"/><rtept lat="22.698023" lon="121.042525"/><rtept lat="22.696506" lon="121.043902"/><rtept lat="22.696055" lon="121.04417"/><rtept lat="22.695472" lon="121.044803"/><rtept lat="22.695023" lon="121.045193"/><rtept lat="22.694821" lon="121.045354"/><rtept lat="22.694651" lon="121.045461"/><rtept lat="22.694464" lon="121.045566"/><rtept lat="22.69426" lon="121.04565"/><rtept lat="22.693637" lon="121.045831"/><rtept lat="22.693295" lon="121.045905"/><rtept lat="22.693322" lon="121.046008"/><rtept lat="22.693342" lon="121.046084"/><rtept lat="22.693401" lon="121.046201"/><rtept lat="22.693717" lon="121.046589"/><rtept lat="22.69385" lon="121.046921"/><rtept lat="22.693946" lon="121.047167"/><rtept lat="22.694063" lon="121.047384"/><rtept lat="22.693227" lon="121.04825"/><rtept lat="22.693147" lon="121.048312"/><rtept lat="22.694853" lon="121.049175"/><rtept lat="22.695469" lon="121.049482"/><rtept lat="22.695543" lon="121.049522"/><rtept lat="22.695761" lon="121.049641"/><rtept lat="22.700715" lon="121.052203"/><rtept lat="22.7014" lon="121.052633"/><rtept lat="22.701704" lon="121.052861"/><rtept lat="22.702669" lon="121.053691"/><rtept lat="22.702879" lon="121.053876"/><rtept lat="22.704376" lon="121.055222"/><rtept lat="22.704968" lon="121.055914"/><rtept lat="22.705297" lon="121.056298"/><rtept lat="22.705585" lon="121.056687"/><rtept lat="22.705806" lon="121.057031"/><rtept lat="22.706088" lon="121.057521"/><rtept lat="22.706194" lon="121.057676"/><rtept lat="22.706271" lon="121.05784"/><rtept lat="22.70687" lon="121.059117"/><rtept lat="22.707284" lon="121.060124"/><rtept lat="22.708761" lon="121.063579"/><rtept lat="22.708959" lon="121.064037"/><rtept lat="22.709264" lon="121.064787"/><rtept lat="22.709767" lon="121.06594"/><rtept lat="22.71039" lon="121.067417"/><rtept lat="22.71051" lon="121.067789"/><rtept lat="22.710554" lon="121.068001"/><rtept lat="22.710566" lon="121.068142"/><rtept lat="22.710553" lon="121.068643"/><rtept lat="22.710514" lon="121.068996"/><rtept lat="22.710455" lon="121.069344"/><rtept lat="22.710252" lon="121.070313"/><rtept lat="22.710169" lon="121.070822"/><rtept lat="22.710198" lon="121.071093"/><rtept lat="22.710266" lon="121.071321"/><rtept lat="22.710363" lon="121.071525"/><rtept lat="22.710578" lon="121.071862"/><rtept lat="22.71123" lon="121.072716"/><rtept lat="22.711838" lon="121.07356"/><rtept lat="22.712438" lon="121.07439"/><rtept lat="22.713078" lon="121.075209"/><rtept lat="22.714346" lon="121.076895"/><rtept lat="22.715585" lon="121.078547"/><rtept lat="22.716206" lon="121.0794"/><rtept lat="22.716803" lon="121.080255"/><rtept lat="22.717439" lon="121.081056"/><rtept lat="22.71806" lon="121.081908"/><rtept lat="22.718686" lon="121.082759"/><rtept lat="22.719395" lon="121.083723"/><rtept lat="22.719934" lon="121.084431"/><rtept lat="22.720578" lon="121.085286"/><rtept lat="22.721414" lon="121.086405"/><rtept lat="22.721676" lon="121.086831"/><rtept lat="22.721731" lon="121.086947"/><rtept lat="22.721879" lon="121.087329"/><rtept lat="22.721944" lon="121.087547"/><rtept lat="22.721988" lon="121.087747"/><rtept lat="22.722027" lon="121.088034"/><rtept lat="22.72203" lon="121.088439"/><rtept lat="22.722006" lon="121.088846"/><rtept lat="22.721885" lon="121.090104"/><rtept lat="22.721814" lon="121.090999"/><rtept lat="22.721815" lon="121.091348"/><rtept lat="22.721839" lon="121.091626"/><rtept lat="22.721946" lon="121.092107"/><rtept lat="22.722041" lon="121.092418"/><rtept lat="22.722155" lon="121.092707"/><rtept lat="22.722545" lon="121.093513"/><rtept lat="22.724995" lon="121.098601"/><rtept lat="22.726755" lon="121.102156"/><rtept lat="22.727379" lon="121.103427"/><rtept lat="22.727696" lon="121.104106"/><rtept lat="22.727789" lon="121.104347"/><rtept lat="22.727852" lon="121.104695"/><rtept lat="22.727869" lon="121.1049"/><rtept lat="22.727863" lon="121.105238"/><rtept lat="22.727802" lon="121.105588"/><rtept lat="22.727745" lon="121.10578"/><rtept lat="22.72754" lon="121.106255"/><rtept lat="22.726406" lon="121.108435"/><rtept lat="22.7261" lon="121.108993"/><rtept lat="22.725646" lon="121.109812"/><rtept lat="22.725415" lon="121.110255"/><rtept lat="22.725313" lon="121.110503"/><rtept lat="22.725059" lon="121.111132"/><rtept lat="22.724938" lon="121.111478"/><rtept lat="22.724886" lon="121.111677"/><rtept lat="22.724853" lon="121.111871"/><rtept lat="22.72483" lon="121.112048"/><rtept lat="22.724827" lon="121.112232"/><rtept lat="22.724905" lon="121.112694"/><rtept lat="22.725025" lon="121.113071"/><rtept lat="22.72532" lon="121.113726"/><rtept lat="22.725878" lon="121.114854"/><rtept lat="22.725985" lon="121.115058"/><rtept lat="22.72652" lon="121.116195"/><rtept lat="22.727026" lon="121.117222"/><rtept lat="22.727631" lon="121.118468"/><rtept lat="22.727887" lon="121.119009"/><rtept lat="22.728797" lon="121.120863"/><rtept lat="22.730025" lon="121.123391"/><rtept lat="22.731191" lon="121.125801"/><rtept lat="22.732478" lon="121.128419"/><rtept lat="22.733421" lon="121.130363"/><rtept lat="22.733549" lon="121.130601"/><rtept lat="22.734482" lon="121.132498"/><rtept lat="22.73549" lon="121.134446"/><rtept lat="22.735973" lon="121.1354"/><rtept lat="22.737795" lon="121.139034"/><rtept lat="22.737852" lon="121.139063"/><rtept lat="22.740398" lon="121.144181"/><rtept lat="22.740964" lon="121.145201"/><rtept lat="22.741011" lon="121.145307"/><rtept lat="22.741041" lon="121.145371"/><rtept lat="22.741591" lon="121.146478"/><rtept lat="22.741625" lon="121.146558"/><rtept lat="22.742268" lon="121.147856"/><rtept lat="22.742342" lon="121.147766"/><rtept lat="22.742438" lon="121.147561"/><rtept lat="22.742568" lon="121.147355"/><rtept lat="22.742711" lon="121.147225"/><rtept lat="22.742955" lon="121.147059"/><rtept lat="22.74361" lon="121.146693"/><rtept lat="22.743857" lon="121.146549"/><rtept lat="22.744308" lon="121.146284"/><rtept lat="22.744789" lon="121.146001"/><rtept lat="22.746056" lon="121.145306"/><rtept lat="22.746221" lon="121.145206"/><rtept lat="22.746399" lon="121.145116"/><rtept lat="22.747448" lon="121.144541"/><rtept lat="22.747348" lon="121.14431"/><rtept lat="22.747255" lon="121.144102"/><rtept lat="22.748036" lon="121.143863"/><rtept lat="22.748174" lon="121.143858"/><rtept lat="22.748298" lon="121.143883"/><rtept lat="22.74884" lon="121.143969"/><rtept lat="22.749922" lon="121.144117"/><rtept lat="22.752905" lon="121.144529"/><rtept lat="22.753135" lon="121.144567"/><rtept lat="22.753217" lon="121.144605"/><rtept lat="22.753505" lon="121.144859"/><rtept lat="22.753632" lon="121.145078"/><rtept lat="22.753785" lon="121.145307"/><rtept lat="22.753832" lon="121.145391"/><rtept lat="22.753607" lon="121.145633"/><rtept lat="22.753832" lon="121.145391"/><rtept lat="22.754176" lon="121.145732"/><rtept lat="22.754389" lon="121.145944"/><rtept lat="22.754926" lon="121.145368"/><rtept lat="22.755252" lon="121.145046"/><rtept lat="22.755791" lon="121.144504"/><rtept lat="22.756344" lon="121.143921"/><rtept lat="22.757233" lon="121.142957"/><rtept lat="22.757642" lon="121.142409"/><rtept lat="22.758099" lon="121.14174"/><rtept lat="22.758498" lon="121.141153"/><rtept lat="22.758924" lon="121.140558"/><rtept lat="22.759159" lon="121.140213"/><rtept lat="22.759289" lon="121.140057"/><rtept lat="22.760204" lon="121.139187"/><rtept lat="22.760494" lon="121.138897"/><rtept lat="22.760781" lon="121.138611"/><rtept lat="22.761101" lon="121.138319"/><rtept lat="22.761528" lon="121.137897"/><rtept lat="22.761919" lon="121.137517"/><rtept lat="22.762229" lon="121.137225"/><rtept lat="22.762482" lon="121.136958"/><rtept lat="22.76267" lon="121.136791"/><rtept lat="22.762815" lon="121.136642"/><rtept lat="22.763111" lon="121.13635"/><rtept lat="22.763212" lon="121.136258"/><rtept lat="22.763893" lon="121.135615"/><rtept lat="22.764371" lon="121.135132"/><rtept lat="22.764745" lon="121.134768"/><rtept lat="22.766121" lon="121.13343"/><rtept lat="22.76632" lon="121.133333"/><rtept lat="22.76708" lon="121.13308"/><rtept lat="22.76718" lon="121.133021"/><rtept lat="22.767853" lon="121.132584"/><rtept lat="22.768228" lon="121.132296"/><rtept lat="22.768694" lon="121.131968"/><rtept lat="22.769431" lon="121.131349"/><rtept lat="22.770003" lon="121.130775"/><rtept lat="22.770512" lon="121.130102"/><rtept lat="22.771895" lon="121.128176"/><rtept lat="22.772647" lon="121.127058"/><rtept lat="22.773204" lon="121.126028"/><rtept lat="22.773882" lon="121.124537"/><rtept lat="22.77503" lon="121.125631"/><rtept lat="22.775239" lon="121.125686"/><rtept lat="22.775671" lon="121.126159"/><rtept lat="22.776032" lon="121.126511"/><rtept lat="22.776104" lon="121.126581"/><rtept lat="22.776237" lon="121.126673"/><rtept lat="22.77645" lon="121.126781"/><rtept lat="22.776658" lon="121.126846"/><rtept lat="22.776959" lon="121.126916"/><rtept lat="22.777055" lon="121.126816"/><rtept lat="22.778285" lon="121.12552"/><rtept lat="22.778788" lon="121.124987"/><rtept lat="22.779004" lon="121.124753"/><rtept lat="22.779076" lon="121.124681"/><rtept lat="22.779567" lon="121.124191"/><rtept lat="22.779752" lon="121.12392"/><rtept lat="22.780075" lon="121.123467"/><rtept lat="22.780397" lon="121.122986"/><rtept lat="22.780846" lon="121.1223"/><rtept lat="22.78139" lon="121.121506"/><rtept lat="22.781692" lon="121.121054"/><rtept lat="22.781796" lon="121.120913"/><rtept lat="22.78201" lon="121.12061"/><rtept lat="22.782111" lon="121.120466"/><rtept lat="22.782676" lon="121.119665"/><rtept lat="22.782883" lon="121.11937"/><rtept lat="22.783114" lon="121.119042"/><rtept lat="22.783429" lon="121.118596"/><rtept lat="22.783662" lon="121.118264"/><rtept lat="22.784051" lon="121.117713"/><rtept lat="22.784286" lon="121.11738"/><rtept lat="22.784628" lon="121.116894"/><rtept lat="22.784713" lon="121.116773"/><rtept lat="22.784946" lon="121.116443"/><rtept lat="22.785205" lon="121.116075"/><rtept lat="22.785475" lon="121.115693"/><rtept lat="22.785735" lon="121.115339"/><rtept lat="22.786001" lon="121.114978"/><rtept lat="22.786274" lon="121.114608"/><rtept lat="22.786531" lon="121.114259"/><rtept lat="22.786796" lon="121.113899"/><rtept lat="22.787052" lon="121.113551"/><rtept lat="22.787475" lon="121.112977"/><rtept lat="22.78794" lon="121.112346"/><rtept lat="22.788981" lon="121.110932"/><rtept lat="22.789513" lon="121.110243"/><rtept lat="22.790475" lon="121.108937"/><rtept lat="22.790749" lon="121.108557"/><rtept lat="22.791868" lon="121.107045"/><rtept lat="22.792717" lon="121.105898"/><rtept lat="22.793005" lon="121.105498"/><rtept lat="22.793283" lon="121.105112"/><rtept lat="22.795036" lon="121.102667"/><rtept lat="22.795622" lon="121.101871"/><rtept lat="22.797142" lon="121.099797"/><rtept lat="22.798881" lon="121.097424"/><rtept lat="22.799277" lon="121.096914"/><rtept lat="22.800679" lon="121.094967"/><rtept lat="22.800883" lon="121.094697"/><rtept lat="22.801363" lon="121.094329"/><rtept lat="22.801735" lon="121.094068"/><rtept lat="22.801954" lon="121.093954"/><rtept lat="22.802344" lon="121.093824"/><rtept lat="22.806093" lon="121.092833"/><rtept lat="22.807179" lon="121.092548"/><rtept lat="22.807797" lon="121.092385"/><rtept lat="22.807895" lon="121.092354"/><rtept lat="22.80883" lon="121.092127"/><rtept lat="22.809301" lon="121.091989"/><rtept lat="22.809505" lon="121.091893"/><rtept lat="22.809783" lon="121.091603"/><rtept lat="22.810391" lon="121.090666"/><rtept lat="22.81043" lon="121.090612"/><rtept lat="22.810898" lon="121.089894"/><rtept lat="22.810979" lon="121.089781"/><rtept lat="22.811074" lon="121.089655"/><rtept lat="22.811213" lon="121.089527"/><rtept lat="22.811374" lon="121.089409"/><rtept lat="22.811578" lon="121.089343"/><rtept lat="22.811854" lon="121.089297"/><rtept lat="22.814058" lon="121.089224"/><rtept lat="22.814855" lon="121.08921"/><rtept lat="22.815249" lon="121.089219"/><rtept lat="22.816121" lon="121.089319"/><rtept lat="22.816533" lon="121.089406"/><rtept lat="22.81962" lon="121.090167"/><rtept lat="22.8204" lon="121.090362"/><rtept lat="22.82138" lon="121.090695"/><rtept lat="22.821637" lon="121.09079"/><rtept lat="22.821908" lon="121.09089"/><rtept lat="22.822841" lon="121.091267"/><rtept lat="22.823231" lon="121.091393"/><rtept lat="22.825062" lon="121.092054"/><rtept lat="22.825619" lon="121.092247"/><rtept lat="22.826837" lon="121.092666"/><rtept lat="22.82782" lon="121.093057"/><rtept lat="22.827962" lon="121.093113"/><rtept lat="22.828898" lon="121.093562"/><rtept lat="22.829221" lon="121.093661"/><rtept lat="22.829555" lon="121.093697"/><rtept lat="22.829781" lon="121.093702"/><rtept lat="22.83012" lon="121.093689"/><rtept lat="22.831103" lon="121.09371"/><rtept lat="22.834632" lon="121.093657"/><rtept lat="22.835014" lon="121.093655"/><rtept lat="22.835131" lon="121.093649"/><rtept lat="22.83524" lon="121.093649"/><rtept lat="22.83573" lon="121.093644"/><rtept lat="22.836309" lon="121.093632"/><rtept lat="22.836746" lon="121.09363"/><rtept lat="22.837033" lon="121.093629"/><rtept lat="22.837618" lon="121.093626"/><rtept lat="22.8385" lon="121.093592"/><rtept lat="22.839132" lon="121.093567"/><rtept lat="22.841147" lon="121.09361"/><rtept lat="22.841655" lon="121.093594"/><rtept lat="22.842709" lon="121.093651"/><rtept lat="22.843123" lon="121.093549"/><rtept lat="22.843382" lon="121.093534"/><rtept lat="22.843929" lon="121.093491"/><rtept lat="22.844258" lon="121.093387"/><rtept lat="22.845112" lon="121.09301"/><rtept lat="22.846245" lon="121.092555"/><rtept lat="22.84692" lon="121.092279"/><rtept lat="22.847605" lon="121.092092"/><rtept lat="22.847826" lon="121.092056"/><rtept lat="22.848302" lon="121.092041"/><rtept lat="22.848352" lon="121.092038"/><rtept lat="22.848464" lon="121.09204"/><rtept lat="22.848543" lon="121.092046"/><rtept lat="22.851142" lon="121.092134"/><rtept lat="22.851303" lon="121.092139"/><rtept lat="22.852107" lon="121.092156"/><rtept lat="22.852862" lon="121.092193"/><rtept lat="22.853384" lon="121.092201"/><rtept lat="22.85408" lon="121.092234"/><rtept lat="22.854388" lon="121.092255"/><rtept lat="22.855735" lon="121.0923"/><rtept lat="22.856071" lon="121.092324"/><rtept lat="22.856182" lon="121.092404"/><rtept lat="22.856206" lon="121.092526"/><rtept lat="22.856385" lon="121.092683"/><rtept lat="22.856524" lon="121.092829"/><rtept lat="22.856637" lon="121.093025"/><rtept lat="22.8567" lon="121.093087"/><rtept lat="22.856879" lon="121.093186"/><rtept lat="22.856588" lon="121.09388"/><rtept lat="22.856375" lon="121.094426"/><rtept lat="22.856328" lon="121.094514"/><rtept lat="22.856247" lon="121.0946"/><rtept lat="22.856159" lon="121.09465"/><rtept lat="22.855052" lon="121.094941"/><rtept lat="22.854939" lon="121.09497"/><rtept lat="22.853742" lon="121.095264"/><rtept lat="22.853593" lon="121.09528"/><rtept lat="22.853287" lon="121.095431"/><rtept lat="22.852914" lon="121.095571"/><rtept lat="22.852713" lon="121.095545"/><rtept lat="22.852586" lon="121.0955"/><rtept lat="22.85232" lon="121.095473"/><rtept lat="22.85181" lon="121.095766"/><rtept lat="22.851307" lon="121.096119"/><rtept lat="22.851148" lon="121.096263"/><rtept lat="22.851075" lon="121.096422"/><rtept lat="22.851007" lon="121.09664"/><rtept lat="22.850915" lon="121.09685"/><rtept lat="22.850628" lon="121.097125"/><rtept lat="22.850441" lon="121.097322"/><rtept lat="22.850217" lon="121.097689"/><rtept lat="22.849948" lon="121.098171"/><rtept lat="22.849924" lon="121.098325"/><rtept lat="22.849938" lon="121.098475"/><rtept lat="22.850111" lon="121.098611"/><rtept lat="22.851009" lon="121.098858"/><rtept lat="22.852269" lon="121.099237"/><rtept lat="22.852932" lon="121.099489"/><rtept lat="22.853234" lon="121.099587"/><rtept lat="22.853357" lon="121.099648"/><rtept lat="22.85345" lon="121.099737"/><rtept lat="22.85352" lon="121.100023"/><rtept lat="22.853533" lon="121.100176"/><rtept lat="22.85321" lon="121.101434"/><rtept lat="22.853178" lon="121.101647"/><rtept lat="22.85319" lon="121.101737"/><rtept lat="22.853276" lon="121.101952"/><rtept lat="22.853383" lon="121.10205"/><rtept lat="22.85353" lon="121.102108"/><rtept lat="22.854602" lon="121.102422"/><rtept lat="22.854928" lon="121.102503"/><rtept lat="22.855288" lon="121.10279"/><rtept lat="22.855575" lon="121.1031"/><rtept lat="22.855866" lon="121.103585"/><rtept lat="22.856064" lon="121.103956"/><rtept lat="22.856163" lon="121.10407"/><rtept lat="22.856326" lon="121.104169"/><rtept lat="22.856553" lon="121.104229"/><rtept lat="22.856733" lon="121.104376"/><rtept lat="22.856821" lon="121.104481"/><rtept lat="22.857004" lon="121.104802"/><rtept lat="22.85719" lon="121.105377"/><rtept lat="22.857557" lon="121.106126"/><rtept lat="22.857647" lon="121.10626"/><rtept lat="22.857892" lon="121.106477"/><rtept lat="22.858037" lon="121.106574"/><rtept lat="22.858322" lon="121.106658"/><rtept lat="22.858543" lon="121.106658"/><rtept lat="22.859417" lon="121.106446"/><rtept lat="22.859515" lon="121.10649"/><rtept lat="22.861367" lon="121.10704"/><rtept lat="22.86171" lon="121.10713"/><rtept lat="22.86204" lon="121.107161"/><rtept lat="22.862382" lon="121.107241"/><rtept lat="22.863784" lon="121.107215"/><rtept lat="22.863973" lon="121.107233"/><rtept lat="22.864242" lon="121.107305"/><rtept lat="22.865616" lon="121.107843"/><rtept lat="22.865703" lon="121.107888"/><rtept lat="22.86583" lon="121.107953"/><rtept lat="22.865924" lon="121.10803"/><rtept lat="22.866005" lon="121.108358"/><rtept lat="22.866004" lon="121.108422"/><rtept lat="22.866005" lon="121.108358"/><rtept lat="22.865924" lon="121.10803"/><rtept lat="22.86583" lon="121.107953"/><rtept lat="22.865703" lon="121.107888"/><rtept lat="22.865616" lon="121.107843"/><rtept lat="22.865787" lon="121.107731"/><rtept lat="22.86592" lon="121.107702"/><rtept lat="22.866419" lon="121.107641"/><rtept lat="22.866543" lon="121.107606"/><rtept lat="22.866689" lon="121.107524"/><rtept lat="22.866792" lon="121.107407"/><rtept lat="22.867367" lon="121.106626"/><rtept lat="22.867461" lon="121.106571"/><rtept lat="22.867649" lon="121.106505"/><rtept lat="22.868591" lon="121.106299"/><rtept lat="22.868674" lon="121.106294"/><rtept lat="22.868767" lon="121.106313"/><rtept lat="22.86885" lon="121.106358"/><rtept lat="22.86891" lon="121.106441"/><rtept lat="22.868938" lon="121.106539"/><rtept lat="22.868915" lon="121.10666"/><rtept lat="22.868854" lon="121.106734"/><rtept lat="22.86858" lon="121.106944"/><rtept lat="22.86855" lon="121.107012"/><rtept lat="22.868573" lon="121.1071"/><rtept lat="22.868639" lon="121.107174"/><rtept lat="22.868761" lon="121.10715"/><rtept lat="22.869282" lon="121.106955"/><rtept lat="22.869441" lon="121.10686"/><rtept lat="22.870021" lon="121.106458"/><rtept lat="22.8703" lon="121.106489"/><rtept lat="22.870453" lon="121.10653"/><rtept lat="22.870493" lon="121.106588"/><rtept lat="22.870475" lon="121.10675"/><rtept lat="22.870383" lon="121.107059"/><rtept lat="22.870379" lon="121.107163"/><rtept lat="22.8704" lon="121.107249"/><rtept lat="22.870452" lon="121.107289"/><rtept lat="22.870519" lon="121.107279"/><rtept lat="22.870561" lon="121.107224"/><rtept lat="22.870633" lon="121.107011"/><rtept lat="22.870697" lon="121.106691"/><rtept lat="22.870706" lon="121.106569"/><rtept lat="22.870671" lon="121.106401"/><rtept lat="22.870626" lon="121.106318"/><rtept lat="22.870478" lon="121.106253"/><rtept lat="22.870151" lon="121.106215"/><rtept lat="22.869672" lon="121.106185"/><rtept lat="22.86961" lon="121.106107"/><rtept lat="22.869612" lon="121.106004"/><rtept lat="22.869808" lon="121.105589"/><rtept lat="22.869811" lon="121.105515"/><rtept lat="22.869771" lon="121.10542"/><rtept lat="22.869643" lon="121.105315"/><rtept lat="22.869533" lon="121.105255"/><rtept lat="22.869419" lon="121.105215"/><rtept lat="22.869076" lon="121.105013"/><rtept lat="22.868782" lon="121.104791"/><rtept lat="22.868578" lon="121.104674"/><rtept lat="22.868241" lon="121.104633"/><rtept lat="22.868173" lon="121.104595"/><rtept lat="22.86815" lon="121.104551"/><rtept lat="22.86816" lon="121.104463"/><rtept lat="22.868202" lon="121.104414"/><rtept lat="22.86826" lon="121.104392"/><rtept lat="22.86862" lon="121.104365"/><rtept lat="22.8691" lon="121.10446"/><rtept lat="22.869275" lon="121.104444"/><rtept lat="22.869408" lon="121.104415"/><rtept lat="22.869704" lon="121.104292"/><rtept lat="22.869928" lon="121.104255"/><rtept lat="22.870125" lon="121.104313"/><rtept lat="22.870386" lon="121.104693"/><rtept lat="22.870489" lon="121.104757"/><rtept lat="22.870622" lon="121.104801"/><rtept lat="22.87068" lon="121.104788"/><rtept lat="22.87076" lon="121.104736"/><rtept lat="22.870781" lon="121.104649"/><rtept lat="22.870787" lon="121.104371"/><rtept lat="22.87088" lon="121.103881"/><rtept lat="22.870939" lon="121.10376"/><rtept lat="22.871198" lon="121.103466"/><rtept lat="22.871242" lon="121.103375"/><rtept lat="22.871261" lon="121.103289"/><rtept lat="22.871265" lon="121.103156"/><rtept lat="22.871244" lon="121.102962"/><rtept lat="22.871133" lon="121.102448"/><rtept lat="22.871065" lon="121.101921"/><rtept lat="22.87101" lon="121.101767"/><rtept lat="22.870872" lon="121.101546"/><rtept lat="22.870792" lon="121.101365"/><rtept lat="22.870739" lon="121.101033"/><rtept lat="22.870778" lon="121.100871"/><rtept lat="22.871056" lon="121.10027"/><rtept lat="22.871102" lon="121.099981"/><rtept lat="22.871093" lon="121.099811"/><rtept lat="22.871034" lon="121.099499"/><rtept lat="22.871048" lon="121.099355"/><rtept lat="22.871122" lon="121.098954"/><rtept lat="22.871345" lon="121.098569"/><rtept lat="22.871374" lon="121.098434"/><rtept lat="22.871873" lon="121.098546"/><rtept lat="22.872204" lon="121.098661"/><rtept lat="22.87239" lon="121.09875"/><rtept lat="22.872685" lon="121.09891"/><rtept lat="22.873059" lon="121.099138"/><rtept lat="22.873573" lon="121.099353"/><rtept lat="22.873948" lon="121.099472"/><rtept lat="22.874248" lon="121.099542"/><rtept lat="22.874943" lon="121.099546"/><rtept lat="22.875476" lon="121.099524"/><rtept lat="22.87574" lon="121.099556"/><rtept lat="22.875973" lon="121.099646"/><rtept lat="22.876208" lon="121.099785"/><rtept lat="22.876531" lon="121.100029"/><rtept lat="22.877575" lon="121.100991"/><rtept lat="22.87784" lon="121.101203"/><rtept lat="22.878048" lon="121.101347"/><rtept lat="22.878755" lon="121.101688"/><rtept lat="22.87886" lon="121.101761"/><rtept lat="22.878928" lon="121.101857"/><rtept lat="22.878987" lon="121.10202"/><rtept lat="22.879034" lon="121.102306"/><rtept lat="22.879081" lon="121.102476"/><rtept lat="22.879128" lon="121.102573"/><rtept lat="22.879212" lon="121.102653"/><rtept lat="22.879999" lon="121.103183"/><rtept lat="22.880143" lon="121.103407"/><rtept lat="22.880211" lon="121.103567"/><rtept lat="22.880383" lon="121.103847"/><rtept lat="22.880739" lon="121.104325"/><rtept lat="22.881003" lon="121.104554"/><rtept lat="22.881148" lon="121.104628"/><rtept lat="22.881639" lon="121.104795"/><rtept lat="22.881756" lon="121.104892"/><rtept lat="22.882219" lon="121.105543"/><rtept lat="22.882548" lon="121.106059"/><rtept lat="22.882752" lon="121.106175"/><rtept lat="22.882904" lon="121.106217"/><rtept lat="22.883106" lon="121.106208"/><rtept lat="22.883222" lon="121.106174"/><rtept lat="22.883359" lon="121.106112"/><rtept lat="22.883483" lon="121.106018"/><rtept lat="22.883727" lon="121.105761"/><rtept lat="22.883867" lon="121.10557"/><rtept lat="22.884566" lon="121.10474"/><rtept lat="22.885" lon="121.104198"/><rtept lat="22.885157" lon="121.103974"/><rtept lat="22.885226" lon="121.103801"/><rtept lat="22.885238" lon="121.103735"/><rtept lat="22.885251" lon="121.103575"/><rtept lat="22.885204" lon="121.103269"/><rtept lat="22.885014" lon="121.102652"/><rtept lat="22.884965" lon="121.102315"/><rtept lat="22.884839" lon="121.10029"/><rtept lat="22.884774" lon="121.099947"/><rtept lat="22.884631" lon="121.099699"/><rtept lat="22.884584" lon="121.099539"/><rtept lat="22.884558" lon="121.099344"/><rtept lat="22.884556" lon="121.099139"/><rtept lat="22.884621" lon="121.098925"/><rtept lat="22.884777" lon="121.098548"/><rtept lat="22.884903" lon="121.098164"/><rtept lat="22.885197" lon="121.097662"/><rtept lat="22.885529" lon="121.097189"/><rtept lat="22.885997" lon="121.096472"/><rtept lat="22.88698" lon="121.095204"/><rtept lat="22.887349" lon="121.094787"/><rtept lat="22.887682" lon="121.094342"/><rtept lat="22.887984" lon="121.094004"/><rtept lat="22.888244" lon="121.093816"/><rtept lat="22.888455" lon="121.093713"/><rtept lat="22.888744" lon="121.093654"/><rtept lat="22.888962" lon="121.093692"/><rtept lat="22.889169" lon="121.093712"/><rtept lat="22.889624" lon="121.093829"/><rtept lat="22.88977" lon="121.093875"/><rtept lat="22.893365" lon="121.0949"/><rtept lat="22.893845" lon="121.095038"/><rtept lat="22.894716" lon="121.095156"/><rtept lat="22.895273" lon="121.095198"/><rtept lat="22.896178" lon="121.095266"/><rtept lat="22.896959" lon="121.095356"/><rtept lat="22.897254" lon="121.095383"/><rtept lat="22.897481" lon="121.095432"/><rtept lat="22.897584" lon="121.095497"/><rtept lat="22.897714" lon="121.095655"/><rtept lat="22.898025" lon="121.096171"/><rtept lat="22.898775" lon="121.097823"/><rtept lat="22.899467" lon="121.09946"/><rtept lat="22.899474" lon="121.099512"/><rtept lat="22.899506" lon="121.099623"/><rtept lat="22.899535" lon="121.099875"/><rtept lat="22.89953" lon="121.100256"/><rtept lat="22.899488" lon="121.100495"/><rtept lat="22.899412" lon="121.101073"/><rtept lat="22.899392" lon="121.101226"/><rtept lat="22.899108" lon="121.104464"/><rtept lat="22.899066" lon="121.10547"/><rtept lat="22.89903" lon="121.105824"/><rtept lat="22.898849" lon="121.108869"/><rtept lat="22.898804" lon="121.109386"/><rtept lat="22.898772" lon="121.109612"/><rtept lat="22.898528" lon="121.110633"/><rtept lat="22.898173" lon="121.112237"/><rtept lat="22.897974" lon="121.113216"/><rtept lat="22.897379" lon="121.115807"/><rtept lat="22.89722" lon="121.116406"/><rtept lat="22.897129" lon="121.116739"/><rtept lat="22.896966" lon="121.117015"/><rtept lat="22.895778" lon="121.118606"/><rtept lat="22.895641" lon="121.118792"/><rtept lat="22.894695" lon="121.120046"/><rtept lat="22.894387" lon="121.120503"/><rtept lat="22.894312" lon="121.120668"/><rtept lat="22.89421" lon="121.120969"/><rtept lat="22.893951" lon="121.121798"/><rtept lat="22.893893" lon="121.122062"/><rtept lat="22.893862" lon="121.122509"/><rtept lat="22.893844" lon="121.123756"/><rtept lat="22.893814" lon="121.124429"/><rtept lat="22.893799" lon="121.124692"/><rtept lat="22.893691" lon="121.125655"/><rtept lat="22.893692" lon="121.125933"/><rtept lat="22.893907" lon="121.128146"/><rtept lat="22.89389" lon="121.128653"/><rtept lat="22.893717" lon="121.131416"/><rtept lat="22.893639" lon="121.132187"/><rtept lat="22.893537" lon="121.133496"/><rtept lat="22.893531" lon="121.13385"/><rtept lat="22.893604" lon="121.134337"/><rtept lat="22.893727" lon="121.134684"/><rtept lat="22.893967" lon="121.135167"/><rtept lat="22.894097" lon="121.135386"/><rtept lat="22.894287" lon="121.135589"/><rtept lat="22.894591" lon="121.135873"/><rtept lat="22.894776" lon="121.136005"/><rtept lat="22.895224" lon="121.136263"/><rtept lat="22.895633" lon="121.136399"/><rtept lat="22.895951" lon="121.136442"/><rtept lat="22.896263" lon="121.136461"/><rtept lat="22.898511" lon="121.136473"/><rtept lat="22.899079" lon="121.136516"/><rtept lat="22.899464" lon="121.136588"/><rtept lat="22.899906" lon="121.136709"/><rtept lat="22.900351" lon="121.136889"/><rtept lat="22.900625" lon="121.137037"/><rtept lat="22.901063" lon="121.137308"/><rtept lat="22.901401" lon="121.137504"/><rtept lat="22.901868" lon="121.13774"/><rtept lat="22.902129" lon="121.137805"/><rtept lat="22.902454" lon="121.137826"/><rtept lat="22.903265" lon="121.137784"/><rtept lat="22.903859" lon="121.137708"/><rtept lat="22.904345" lon="121.137613"/><rtept lat="22.904803" lon="121.137449"/><rtept lat="22.905509" lon="121.137109"/><rtept lat="22.906621" lon="121.136603"/><rtept lat="22.907001" lon="121.136521"/><rtept lat="22.907601" lon="121.136445"/><rtept lat="22.909774" lon="121.136231"/><rtept lat="22.910068" lon="121.136201"/><rtept lat="22.910451" lon="121.136186"/><rtept lat="22.910519" lon="121.13618"/><rtept lat="22.910907" lon="121.136149"/><rtept lat="22.911063" lon="121.136136"/><rtept lat="22.911727" lon="121.136108"/><rtept lat="22.912304" lon="121.136031"/><rtept lat="22.912435" lon="121.136019"/><rtept lat="22.912645" lon="121.135994"/><rtept lat="22.912948" lon="121.135986"/><rtept lat="22.913108" lon="121.136018"/><rtept lat="22.913748" lon="121.136213"/><rtept lat="22.914016" lon="121.136314"/><rtept lat="22.914394" lon="121.136469"/><rtept lat="22.914632" lon="121.136611"/><rtept lat="22.915626" lon="121.137429"/><rtept lat="22.915936" lon="121.137652"/><rtept lat="22.91707" lon="121.138118"/><rtept lat="22.917233" lon="121.138191"/><rtept lat="22.917805" lon="121.138449"/><rtept lat="22.918576" lon="121.138863"/><rtept lat="22.919634" lon="121.139629"/><rtept lat="22.919977" lon="121.13988"/><rtept lat="22.920101" lon="121.139987"/><rtept lat="22.923154" lon="121.14304"/><rtept lat="22.923691" lon="121.143492"/><rtept lat="22.923936" lon="121.143679"/><rtept lat="22.924097" lon="121.14381"/><rtept lat="22.924347" lon="121.143991"/><rtept lat="22.924565" lon="121.144089"/><rtept lat="22.925056" lon="121.144335"/><rtept lat="22.925434" lon="121.144481"/><rtept lat="22.925898" lon="121.144635"/><rtept lat="22.926191" lon="121.144666"/><rtept lat="22.927455" lon="121.144638"/><rtept lat="22.929404" lon="121.144494"/><rtept lat="22.929657" lon="121.144513"/><rtept lat="22.930115" lon="121.144621"/><rtept lat="22.931056" lon="121.145024"/><rtept lat="22.931499" lon="121.145102"/><rtept lat="22.931645" lon="121.145108"/><rtept lat="22.932007" lon="121.145066"/><rtept lat="22.933765" lon="121.14443"/><rtept lat="22.934443" lon="121.144147"/><rtept lat="22.93544" lon="121.143738"/><rtept lat="22.935993" lon="121.14355"/><rtept lat="22.936447" lon="121.143438"/><rtept lat="22.937871" lon="121.143089"/><rtept lat="22.938663" lon="121.142895"/><rtept lat="22.93886" lon="121.142857"/><rtept lat="22.939681" lon="121.142641"/><rtept lat="22.940587" lon="121.14222"/><rtept lat="22.94302" lon="121.140804"/><rtept lat="22.944224" lon="121.140029"/><rtept lat="22.944565" lon="121.139747"/><rtept lat="22.944857" lon="121.139475"/><rtept lat="22.945196" lon="121.139091"/><rtept lat="22.94547" lon="121.138698"/><rtept lat="22.945639" lon="121.138455"/><rtept lat="22.946194" lon="121.137508"/><rtept lat="22.946323" lon="121.137287"/><rtept lat="22.947068" lon="121.135944"/><rtept lat="22.947363" lon="121.135322"/><rtept lat="22.947458" lon="121.135104"/><rtept lat="22.947835" lon="121.133925"/><rtept lat="22.94796" lon="121.133563"/><rtept lat="22.948148" lon="121.133171"/><rtept lat="22.948559" lon="121.132542"/><rtept lat="22.949149" lon="121.131632"/><rtept lat="22.949343" lon="121.131331"/><rtept lat="22.949409" lon="121.131224"/><rtept lat="22.950601" lon="121.129305"/><rtept lat="22.950776" lon="121.129106"/><rtept lat="22.951022" lon="121.128813"/><rtept lat="22.951167" lon="121.128753"/><rtept lat="22.95138" lon="121.128709"/><rtept lat="22.951505" lon="121.128668"/><rtept lat="22.951972" lon="121.128581"/><rtept lat="22.954286" lon="121.128381"/><rtept lat="22.954509" lon="121.12841"/><rtept lat="22.954838" lon="121.128482"/><rtept lat="22.955501" lon="121.128739"/><rtept lat="22.955963" lon="121.128893"/><rtept lat="22.956318" lon="121.129019"/><rtept lat="22.95713" lon="121.129344"/><rtept lat="22.957843" lon="121.129609"/><rtept lat="22.958494" lon="121.12984"/><rtept lat="22.960815" lon="121.130736"/><rtept lat="22.961163" lon="121.130895"/><rtept lat="22.962455" lon="121.131362"/><rtept lat="22.963747" lon="121.131905"/><rtept lat="22.967062" lon="121.133168"/><rtept lat="22.968676" lon="121.13378"/><rtept lat="22.973406" lon="121.135572"/><rtept lat="22.975192" lon="121.136249"/><rtept lat="22.975483" lon="121.136359"/><rtept lat="22.975994" lon="121.136556"/><rtept lat="22.976104" lon="121.136598"/><rtept lat="22.977395" lon="121.137057"/><rtept lat="22.978247" lon="121.137424"/><rtept lat="22.979858" lon="121.138034"/><rtept lat="22.980046" lon="121.138104"/><rtept lat="22.980087" lon="121.138121"/><rtept lat="22.981044" lon="121.138507"/><rtept lat="22.982447" lon="121.139016"/><rtept lat="22.983278" lon="121.139328"/><rtept lat="22.98399" lon="121.139604"/><rtept lat="22.984798" lon="121.139909"/><rtept lat="22.986206" lon="121.140463"/><rtept lat="22.986996" lon="121.140767"/><rtept lat="22.987634" lon="121.141023"/><rtept lat="22.987993" lon="121.141165"/><rtept lat="22.988427" lon="121.141326"/><rtept lat="22.988803" lon="121.141459"/><rtept lat="22.989266" lon="121.141637"/><rtept lat="22.989624" lon="121.141776"/><rtept lat="22.990165" lon="121.14197"/><rtept lat="22.99025" lon="121.142009"/><rtept lat="22.991338" lon="121.142423"/><rtept lat="22.992422" lon="121.142847"/><rtept lat="22.993002" lon="121.143062"/><rtept lat="22.994299" lon="121.143535"/><rtept lat="22.994884" lon="121.143751"/><rtept lat="22.997827" lon="121.144886"/><rtept lat="22.997974" lon="121.144937"/><rtept lat="22.998157" lon="121.145003"/><rtept lat="22.998197" lon="121.14505"/><rtept lat="22.999632" lon="121.145607"/><rtept lat="22.999952" lon="121.14572"/><rtept lat="23.000047" lon="121.145756"/><rtept lat="23.001883" lon="121.146472"/><rtept lat="23.002463" lon="121.146705"/><rtept lat="23.003494" lon="121.147087"/><rtept lat="23.003616" lon="121.147124"/><rtept lat="23.005089" lon="121.147747"/><rtept lat="23.006684" lon="121.148358"/><rtept lat="23.009182" lon="121.149266"/><rtept lat="23.009636" lon="121.149429"/><rtept lat="23.012559" lon="121.150556"/><rtept lat="23.014475" lon="121.151304"/><rtept lat="23.016251" lon="121.151969"/><rtept lat="23.016687" lon="121.152126"/><rtept lat="23.018801" lon="121.152948"/><rtept lat="23.019011" lon="121.153024"/><rtept lat="23.019138" lon="121.153072"/><rtept lat="23.019539" lon="121.153222"/><rtept lat="23.022218" lon="121.154235"/><rtept lat="23.022578" lon="121.154362"/><rtept lat="23.02284" lon="121.154473"/><rtept lat="23.026852" lon="121.155968"/><rtept lat="23.030641" lon="121.157465"/><rtept lat="23.031043" lon="121.157619"/><rtept lat="23.031236" lon="121.157693"/><rtept lat="23.031518" lon="121.157804"/><rtept lat="23.03172" lon="121.157871"/><rtept lat="23.032998" lon="121.158359"/><rtept lat="23.034147" lon="121.158797"/><rtept lat="23.035125" lon="121.159175"/><rtept lat="23.036931" lon="121.159887"/><rtept lat="23.037571" lon="121.16014"/><rtept lat="23.039149" lon="121.160736"/><rtept lat="23.039342" lon="121.160797"/><rtept lat="23.04066" lon="121.161302"/><rtept lat="23.042776" lon="121.162112"/><rtept lat="23.044021" lon="121.162589"/><rtept lat="23.044513" lon="121.162777"/><rtept lat="23.044978" lon="121.162956"/><rtept lat="23.04485" lon="121.163327"/><rtept lat="23.044626" lon="121.164047"/><rtept lat="23.044486" lon="121.164458"/><rtept lat="23.044284" lon="121.16505"/><rtept lat="23.044184" lon="121.165335"/><rtept lat="23.044006" lon="121.165793"/><rtept lat="23.043977" lon="121.165923"/><rtept lat="23.04367" lon="121.167271"/><rtept lat="23.043606" lon="121.167535"/><rtept lat="23.043461" lon="121.168135"/><rtept lat="23.043374" lon="121.168356"/><rtept lat="23.043262" lon="121.168622"/><rtept lat="23.043113" lon="121.16889"/><rtept lat="23.043067" lon="121.168971"/><rtept lat="23.042766" lon="121.16951"/><rtept lat="23.042641" lon="121.169734"/><rtept lat="23.041978" lon="121.170772"/><rtept lat="23.04196" lon="121.170804"/><rtept lat="23.042059" lon="121.170841"/><rtept lat="23.04196" lon="121.170804"/><rtept lat="23.041978" lon="121.170772"/><rtept lat="23.042641" lon="121.169734"/><rtept lat="23.042766" lon="121.16951"/><rtept lat="23.043067" lon="121.168971"/><rtept lat="23.043113" lon="121.16889"/><rtept lat="23.043262" lon="121.168622"/><rtept lat="23.043374" lon="121.168356"/><rtept lat="23.043461" lon="121.168135"/><rtept lat="23.043606" lon="121.167535"/><rtept lat="23.04367" lon="121.167271"/><rtept lat="23.043977" lon="121.165923"/><rtept lat="23.044006" lon="121.165793"/><rtept lat="23.044184" lon="121.165335"/><rtept lat="23.044284" lon="121.16505"/><rtept lat="23.044486" lon="121.164458"/><rtept lat="23.044626" lon="121.164047"/><rtept lat="23.04485" lon="121.163327"/><rtept lat="23.044978" lon="121.162956"/><rtept lat="23.044869" lon="121.163058"/><rtept lat="23.044537" lon="121.164049"/><rtept lat="23.044669" lon="121.164095"/><rtept lat="23.044777" lon="121.163767"/><rtept lat="23.044993" lon="121.163109"/><rtept lat="23.044978" lon="121.162956"/><rtept lat="23.04598" lon="121.16334"/><rtept lat="23.046423" lon="121.163509"/><rtept lat="23.047013" lon="121.163735"/><rtept lat="23.047609" lon="121.163963"/><rtept lat="23.048042" lon="121.164129"/><rtept lat="23.048519" lon="121.164312"/><rtept lat="23.048644" lon="121.16436"/><rtept lat="23.049054" lon="121.164517"/><rtept lat="23.049483" lon="121.164681"/><rtept lat="23.050821" lon="121.165193"/><rtept lat="23.051379" lon="121.165407"/><rtept lat="23.051848" lon="121.165587"/><rtept lat="23.052331" lon="121.165772"/><rtept lat="23.052815" lon="121.165957"/><rtept lat="23.053576" lon="121.166249"/><rtept lat="23.053818" lon="121.166341"/><rtept lat="23.054012" lon="121.166415"/><rtept lat="23.054865" lon="121.166741"/><rtept lat="23.056873" lon="121.167508"/><rtept lat="23.057392" lon="121.167706"/><rtept lat="23.058397" lon="121.168095"/><rtept lat="23.059252" lon="121.168422"/><rtept lat="23.061281" lon="121.169174"/><rtept lat="23.063943" lon="121.170145"/><rtept lat="23.064299" lon="121.170274"/><rtept lat="23.065238" lon="121.170659"/><rtept lat="23.066589" lon="121.171183"/><rtept lat="23.066891" lon="121.171297"/><rtept lat="23.066972" lon="121.171328"/><rtept lat="23.067561" lon="121.171551"/><rtept lat="23.069695" lon="121.172358"/><rtept lat="23.069762" lon="121.172384"/><rtept lat="23.070688" lon="121.172719"/><rtept lat="23.071611" lon="121.173084"/><rtept lat="23.073853" lon="121.173945"/><rtept lat="23.074868" lon="121.174318"/><rtept lat="23.076608" lon="121.174954"/><rtept lat="23.079118" lon="121.175914"/><rtept lat="23.079374" lon="121.175998"/><rtept lat="23.079721" lon="121.176091"/><rtept lat="23.080636" lon="121.176179"/><rtept lat="23.082337" lon="121.176211"/><rtept lat="23.083307" lon="121.176216"/><rtept lat="23.084511" lon="121.176264"/><rtept lat="23.085165" lon="121.17631"/><rtept lat="23.085653" lon="121.176372"/><rtept lat="23.086514" lon="121.176345"/><rtept lat="23.087015" lon="121.176305"/><rtept lat="23.088077" lon="121.176293"/><rtept lat="23.088812" lon="121.176293"/><rtept lat="23.088993" lon="121.17633"/><rtept lat="23.089187" lon="121.176403"/><rtept lat="23.08934" lon="121.176496"/><rtept lat="23.089479" lon="121.176608"/><rtept lat="23.089717" lon="121.17695"/><rtept lat="23.090379" lon="121.178063"/><rtept lat="23.090966" lon="121.179092"/><rtept lat="23.091058" lon="121.179241"/><rtept lat="23.091232" lon="121.179529"/><rtept lat="23.091355" lon="121.179723"/><rtept lat="23.092052" lon="121.18087"/><rtept lat="23.092283" lon="121.181254"/><rtept lat="23.092754" lon="121.182055"/><rtept lat="23.093658" lon="121.183544"/><rtept lat="23.093851" lon="121.183873"/><rtept lat="23.094314" lon="121.184676"/><rtept lat="23.094939" lon="121.185742"/><rtept lat="23.095652" lon="121.186893"/><rtept lat="23.096101" lon="121.187667"/><rtept lat="23.096824" lon="121.188869"/><rtept lat="23.101119" lon="121.196041"/><rtept lat="23.101985" lon="121.197518"/><rtept lat="23.102721" lon="121.198739"/><rtept lat="23.103025" lon="121.19912"/><rtept lat="23.103059" lon="121.199209"/><rtept lat="23.103376" lon="121.199483"/><rtept lat="23.103745" lon="121.199815"/><rtept lat="23.104583" lon="121.200457"/><rtept lat="23.104163" lon="121.200912"/><rtept lat="23.103918" lon="121.201324"/><rtept lat="23.103541" lon="121.201554"/><rtept lat="23.103134" lon="121.201767"/><rtept lat="23.103069" lon="121.20182"/><rtept lat="23.102982" lon="121.201932"/><rtept lat="23.102795" lon="121.202205"/><rtept lat="23.102671" lon="121.20228"/><rtept lat="23.101839" lon="121.202633"/><rtept lat="23.10168" lon="121.202711"/><rtept lat="23.101553" lon="121.202796"/><rtept lat="23.101503" lon="121.202854"/><rtept lat="23.101483" lon="121.202925"/><rtept lat="23.101499" lon="121.203001"/><rtept lat="23.101691" lon="121.203204"/><rtept lat="23.101748" lon="121.203303"/><rtept lat="23.101742" lon="121.203416"/><rtept lat="23.101236" lon="121.204303"/><rtept lat="23.101089" lon="121.204515"/><rtept lat="23.10092" lon="121.204685"/><rtept lat="23.100797" lon="121.204791"/><rtept lat="23.100663" lon="121.204873"/><rtept lat="23.100584" lon="121.2049"/><rtept lat="23.100578" lon="121.204979"/><rtept lat="23.100612" lon="121.205085"/><rtept lat="23.100786" lon="121.205309"/><rtept lat="23.100771" lon="121.20542"/><rtept lat="23.100289" lon="121.206013"/><rtept lat="23.100039" lon="121.206364"/><rtept lat="23.099815" lon="121.20675"/><rtept lat="23.099802" lon="121.206827"/><rtept lat="23.099818" lon="121.206951"/><rtept lat="23.099932" lon="121.207216"/><rtept lat="23.099967" lon="121.207364"/><rtept lat="23.099977" lon="121.207709"/><rtept lat="23.099939" lon="121.208022"/><rtept lat="23.099899" lon="121.208118"/><rtept lat="23.099162" lon="121.209396"/><rtept lat="23.098457" lon="121.210483"/><rtept lat="23.098885" lon="121.212986"/><rtept lat="23.098457" lon="121.210483"/><rtept lat="23.099162" lon="121.209396"/><rtept lat="23.099899" lon="121.208118"/><rtept lat="23.099939" lon="121.208022"/><rtept lat="23.099977" lon="121.207709"/><rtept lat="23.099967" lon="121.207364"/><rtept lat="23.099932" lon="121.207216"/><rtept lat="23.099818" lon="121.206951"/><rtept lat="23.099802" lon="121.206827"/><rtept lat="23.099815" lon="121.20675"/><rtept lat="23.100039" lon="121.206364"/><rtept lat="23.100289" lon="121.206013"/><rtept lat="23.100771" lon="121.20542"/><rtept lat="23.100786" lon="121.205309"/><rtept lat="23.100612" lon="121.205085"/><rtept lat="23.100578" lon="121.204979"/><rtept lat="23.100584" lon="121.2049"/><rtept lat="23.100663" lon="121.204873"/><rtept lat="23.100797" lon="121.204791"/><rtept lat="23.10092" lon="121.204685"/><rtept lat="23.101089" lon="121.204515"/><rtept lat="23.101236" lon="121.204303"/><rtept lat="23.101742" lon="121.203416"/><rtept lat="23.101748" lon="121.203303"/><rtept lat="23.101691" lon="121.203204"/><rtept lat="23.101499" lon="121.203001"/><rtept lat="23.101483" lon="121.202925"/><rtept lat="23.101503" lon="121.202854"/><rtept lat="23.101553" lon="121.202796"/><rtept lat="23.10168" lon="121.202711"/><rtept lat="23.101839" lon="121.202633"/><rtept lat="23.102671" lon="121.20228"/><rtept lat="23.102795" lon="121.202205"/><rtept lat="23.102982" lon="121.201932"/><rtept lat="23.103069" lon="121.20182"/><rtept lat="23.103134" lon="121.201767"/><rtept lat="23.103541" lon="121.201554"/><rtept lat="23.103918" lon="121.201324"/><rtept lat="23.104163" lon="121.200912"/><rtept lat="23.104583" lon="121.200457"/><rtept lat="23.105372" lon="121.200997"/><rtept lat="23.105786" lon="121.20132"/><rtept lat="23.107761" lon="121.202855"/><rtept lat="23.108444" lon="121.203369"/><rtept lat="23.109517" lon="121.204165"/><rtept lat="23.110673" lon="121.205069"/><rtept lat="23.111267" lon="121.205465"/><rtept lat="23.113117" lon="121.206872"/><rtept lat="23.113809" lon="121.207418"/><rtept lat="23.114025" lon="121.207585"/><rtept lat="23.115496" lon="121.208759"/><rtept lat="23.116298" lon="121.209349"/><rtept lat="23.117774" lon="121.210433"/><rtept lat="23.11822" lon="121.21077"/><rtept lat="23.119088" lon="121.211417"/><rtept lat="23.120071" lon="121.212168"/><rtept lat="23.120186" lon="121.212292"/><rtept lat="23.12073" lon="121.213052"/><rtept lat="23.120899" lon="121.213311"/><rtept lat="23.120473" lon="121.213947"/><rtept lat="23.120386" lon="121.214185"/><rtept lat="23.120356" lon="121.214322"/><rtept lat="23.120325" lon="121.215073"/><rtept lat="23.120362" lon="121.215461"/><rtept lat="23.120409" lon="121.215761"/><rtept lat="23.120486" lon="121.215987"/><rtept lat="23.120618" lon="121.216235"/><rtept lat="23.12149" lon="121.217418"/><rtept lat="23.122473" lon="121.21878"/><rtept lat="23.123006" lon="121.219516"/><rtept lat="23.123587" lon="121.220329"/><rtept lat="23.123911" lon="121.220783"/><rtept lat="23.124184" lon="121.221165"/><rtept lat="23.124235" lon="121.221117"/><rtept lat="23.124148" lon="121.220995"/><rtept lat="23.123961" lon="121.220732"/><rtept lat="23.123637" lon="121.220276"/><rtept lat="23.123064" lon="121.219472"/><rtept lat="23.122535" lon="121.218732"/><rtept lat="23.122234" lon="121.218311"/><rtept lat="23.121552" lon="121.217367"/><rtept lat="23.120902" lon="121.216479"/><rtept lat="23.120719" lon="121.216202"/><rtept lat="23.1206" lon="121.216037"/><rtept lat="23.120545" lon="121.215875"/><rtept lat="23.120504" lon="121.215754"/><rtept lat="23.12046" lon="121.215447"/><rtept lat="23.120445" lon="121.215172"/><rtept lat="23.12044" lon="121.214569"/><rtept lat="23.120488" lon="121.214208"/><rtept lat="23.120508" lon="121.214114"/><rtept lat="23.120601" lon="121.213909"/><rtept lat="23.12096" lon="121.213395"/><rtept lat="23.120899" lon="121.213311"/><rtept lat="23.120834" lon="121.213212"/><rtept lat="23.120899" lon="121.213311"/><rtept lat="23.120473" lon="121.213947"/><rtept lat="23.120386" lon="121.214185"/><rtept lat="23.120356" lon="121.214322"/><rtept lat="23.120325" lon="121.215073"/><rtept lat="23.120362" lon="121.215461"/><rtept lat="23.120409" lon="121.215761"/><rtept lat="23.120486" lon="121.215987"/><rtept lat="23.120618" lon="121.216235"/><rtept lat="23.12149" lon="121.217418"/><rtept lat="23.122473" lon="121.21878"/><rtept lat="23.123006" lon="121.219516"/><rtept lat="23.123587" lon="121.220329"/><rtept lat="23.123911" lon="121.220783"/><rtept lat="23.124184" lon="121.221165"/><rtept lat="23.12503" lon="121.222352"/><rtept lat="23.125118" lon="121.222452"/><rtept lat="23.125229" lon="121.222502"/><rtept lat="23.125155" lon="121.222693"/><rtept lat="23.125088" lon="121.22287"/><rtept lat="23.124512" lon="121.224383"/><rtept lat="23.124333" lon="121.224843"/><rtept lat="23.124297" lon="121.22497"/><rtept lat="23.124259" lon="121.225203"/><rtept lat="23.124259" lon="121.225336"/><rtept lat="23.124311" lon="121.225654"/><rtept lat="23.124664" lon="121.227337"/><rtept lat="23.124893" lon="121.228333"/><rtept lat="23.124951" lon="121.228512"/><rtept lat="23.125024" lon="121.228652"/><rtept lat="23.125136" lon="121.228807"/><rtept lat="23.125335" lon="121.229003"/><rtept lat="23.126075" lon="121.229678"/><rtept lat="23.126245" lon="121.229828"/><rtept lat="23.126328" lon="121.2299"/><rtept lat="23.126818" lon="121.230334"/><rtept lat="23.127267" lon="121.230736"/><rtept lat="23.127446" lon="121.230847"/><rtept lat="23.127574" lon="121.230884"/><rtept lat="23.127807" lon="121.230922"/><rtept lat="23.128858" lon="121.231074"/><rtept lat="23.129027" lon="121.2311"/><rtept lat="23.129358" lon="121.231189"/><rtept lat="23.1296" lon="121.231269"/><rtept lat="23.130011" lon="121.231435"/><rtept lat="23.130376" lon="121.231584"/><rtept lat="23.130483" lon="121.231618"/><rtept lat="23.131386" lon="121.232008"/><rtept lat="23.13221" lon="121.232385"/><rtept lat="23.132277" lon="121.232416"/><rtept lat="23.132964" lon="121.232738"/><rtept lat="23.13321" lon="121.232836"/><rtept lat="23.133668" lon="121.232983"/><rtept lat="23.134049" lon="121.233056"/><rtept lat="23.134197" lon="121.233087"/><rtept lat="23.134249" lon="121.233137"/><rtept lat="23.134754" lon="121.233199"/><rtept lat="23.134954" lon="121.233256"/><rtept lat="23.135097" lon="121.233302"/><rtept lat="23.135755" lon="121.233598"/><rtept lat="23.136376" lon="121.233905"/><rtept lat="23.136572" lon="121.234004"/><rtept lat="23.137563" lon="121.234535"/><rtept lat="23.138757" lon="121.235092"/><rtept lat="23.139295" lon="121.235422"/><rtept lat="23.140049" lon="121.235929"/><rtept lat="23.140284" lon="121.236061"/><rtept lat="23.140782" lon="121.236246"/><rtept lat="23.141498" lon="121.236424"/><rtept lat="23.14234" lon="121.236605"/><rtept lat="23.143258" lon="121.236815"/><rtept lat="23.145092" lon="121.237233"/><rtept lat="23.145767" lon="121.237411"/><rtept lat="23.1462" lon="121.237573"/><rtept lat="23.148322" lon="121.238362"/><rtept lat="23.148418" lon="121.238397"/><rtept lat="23.149911" lon="121.23889"/><rtept lat="23.15084" lon="121.239222"/><rtept lat="23.152865" lon="121.239835"/><rtept lat="23.153152" lon="121.239878"/><rtept lat="23.153435" lon="121.239887"/><rtept lat="23.153778" lon="121.23986"/><rtept lat="23.154427" lon="121.239749"/><rtept lat="23.154659" lon="121.239726"/><rtept lat="23.154937" lon="121.239744"/><rtept lat="23.155223" lon="121.239784"/><rtept lat="23.155776" lon="121.239927"/><rtept lat="23.156635" lon="121.240186"/><rtept lat="23.156954" lon="121.240313"/><rtept lat="23.157183" lon="121.240434"/><rtept lat="23.157325" lon="121.240527"/><rtept lat="23.15828" lon="121.241329"/><rtept lat="23.158497" lon="121.241459"/><rtept lat="23.158594" lon="121.241519"/><rtept lat="23.15895" lon="121.24165"/><rtept lat="23.160626" lon="121.24213"/><rtept lat="23.16101" lon="121.242237"/><rtept lat="23.161203" lon="121.242285"/><rtept lat="23.161557" lon="121.242322"/><rtept lat="23.161885" lon="121.242297"/><rtept lat="23.162219" lon="121.242262"/><rtept lat="23.163049" lon="121.242152"/><rtept lat="23.1633" lon="121.242119"/><rtept lat="23.163541" lon="121.242115"/><rtept lat="23.163956" lon="121.24214"/><rtept lat="23.164679" lon="121.242205"/><rtept lat="23.165021" lon="121.242212"/><rtept lat="23.165149" lon="121.242201"/><rtept lat="23.165893" lon="121.242145"/><rtept lat="23.166012" lon="121.242139"/><rtept lat="23.166289" lon="121.24211"/><rtept lat="23.167177" lon="121.242012"/><rtept lat="23.168428" lon="121.241899"/><rtept lat="23.17036" lon="121.241728"/><rtept lat="23.171168" lon="121.241714"/><rtept lat="23.171341" lon="121.241738"/><rtept lat="23.171612" lon="121.241802"/><rtept lat="23.171914" lon="121.241904"/><rtept lat="23.17232" lon="121.242093"/><rtept lat="23.1725" lon="121.2422"/><rtept lat="23.173522" lon="121.242816"/><rtept lat="23.174172" lon="121.243214"/><rtept lat="23.174852" lon="121.243646"/><rtept lat="23.17648" lon="121.244637"/><rtept lat="23.177766" lon="121.245434"/><rtept lat="23.178376" lon="121.245839"/><rtept lat="23.179989" lon="121.246784"/><rtept lat="23.183333" lon="121.248854"/><rtept lat="23.183648" lon="121.24904"/><rtept lat="23.183842" lon="121.249202"/><rtept lat="23.183921" lon="121.249296"/><rtept lat="23.183995" lon="121.249434"/><rtept lat="23.184036" lon="121.249553"/><rtept lat="23.184166" lon="121.250191"/><rtept lat="23.184691" lon="121.252886"/><rtept lat="23.184809" lon="121.253602"/><rtept lat="23.184947" lon="121.254299"/><rtept lat="23.185112" lon="121.255177"/><rtept lat="23.185171" lon="121.255693"/><rtept lat="23.185209" lon="121.255822"/><rtept lat="23.185257" lon="121.255983"/><rtept lat="23.185332" lon="121.256514"/><rtept lat="23.185487" lon="121.257062"/><rtept lat="23.185527" lon="121.257165"/><rtept lat="23.185914" lon="121.25774"/><rtept lat="23.186161" lon="121.258031"/><rtept lat="23.186822" lon="121.258745"/><rtept lat="23.187345" lon="121.259335"/><rtept lat="23.187819" lon="121.259778"/><rtept lat="23.188682" lon="121.260368"/><rtept lat="23.189132" lon="121.260768"/><rtept lat="23.189234" lon="121.260893"/><rtept lat="23.18985" lon="121.261445"/><rtept lat="23.190599" lon="121.262173"/><rtept lat="23.191176" lon="121.262813"/><rtept lat="23.19151" lon="121.26308"/><rtept lat="23.191874" lon="121.263293"/><rtept lat="23.192234" lon="121.263511"/><rtept lat="23.19285" lon="121.26385"/><rtept lat="23.193319" lon="121.264018"/><rtept lat="23.193602" lon="121.264087"/><rtept lat="23.193872" lon="121.264208"/><rtept lat="23.194071" lon="121.264319"/><rtept lat="23.1943" lon="121.264561"/><rtept lat="23.194834" lon="121.265284"/><rtept lat="23.194931" lon="121.265422"/><rtept lat="23.195061" lon="121.265615"/><rtept lat="23.196267" lon="121.267272"/><rtept lat="23.196785" lon="121.267843"/><rtept lat="23.197567" lon="121.268412"/><rtept lat="23.198212" lon="121.268725"/><rtept lat="23.198754" lon="121.268961"/><rtept lat="23.199367" lon="121.269201"/><rtept lat="23.201292" lon="121.270017"/><rtept lat="23.201887" lon="121.270298"/><rtept lat="23.202225" lon="121.270448"/><rtept lat="23.202516" lon="121.270572"/><rtept lat="23.205755" lon="121.271939"/><rtept lat="23.205809" lon="121.272"/><rtept lat="23.206163" lon="121.272238"/><rtept lat="23.206468" lon="121.272478"/><rtept lat="23.206771" lon="121.272723"/><rtept lat="23.207862" lon="121.273609"/><rtept lat="23.207959" lon="121.273689"/><rtept lat="23.208755" lon="121.27435"/><rtept lat="23.208862" lon="121.27444"/><rtept lat="23.209995" lon="121.275306"/><rtept lat="23.210069" lon="121.2753"/><rtept lat="23.211116" lon="121.276167"/><rtept lat="23.211186" lon="121.276226"/><rtept lat="23.212828" lon="121.27761"/><rtept lat="23.213573" lon="121.278215"/><rtept lat="23.213641" lon="121.278272"/><rtept lat="23.214551" lon="121.279049"/><rtept lat="23.215008" lon="121.279439"/><rtept lat="23.215543" lon="121.279863"/><rtept lat="23.215892" lon="121.280156"/><rtept lat="23.217162" lon="121.28123"/><rtept lat="23.217305" lon="121.281344"/><rtept lat="23.218185" lon="121.282039"/><rtept lat="23.218448" lon="121.282164"/><rtept lat="23.21875" lon="121.282253"/><rtept lat="23.219009" lon="121.282258"/><rtept lat="23.219587" lon="121.282226"/><rtept lat="23.219819" lon="121.282209"/><rtept lat="23.220045" lon="121.282192"/><rtept lat="23.220579" lon="121.282153"/><rtept lat="23.221924" lon="121.282052"/><rtept lat="23.222208" lon="121.282031"/><rtept lat="23.222446" lon="121.282037"/><rtept lat="23.222725" lon="121.282139"/><rtept lat="23.22294" lon="121.282266"/><rtept lat="23.226461" lon="121.284591"/><rtept lat="23.2271" lon="121.285014"/><rtept lat="23.23078" lon="121.287357"/><rtept lat="23.23262" lon="121.288526"/><rtept lat="23.233014" lon="121.288776"/><rtept lat="23.233589" lon="121.289136"/><rtept lat="23.23418" lon="121.289475"/><rtept lat="23.234791" lon="121.289776"/><rtept lat="23.234867" lon="121.289807"/><rtept lat="23.235127" lon="121.289924"/><rtept lat="23.235204" lon="121.289967"/><rtept lat="23.235749" lon="121.290199"/><rtept lat="23.236735" lon="121.290679"/><rtept lat="23.237175" lon="121.290945"/><rtept lat="23.237418" lon="121.291074"/><rtept lat="23.237477" lon="121.291124"/><rtept lat="23.237861" lon="121.291411"/><rtept lat="23.238195" lon="121.29169"/><rtept lat="23.238622" lon="121.292101"/><rtept lat="23.238957" lon="121.292427"/><rtept lat="23.240064" lon="121.293476"/><rtept lat="23.24051" lon="121.293733"/><rtept lat="23.241479" lon="121.294153"/><rtept lat="23.241675" lon="121.294243"/><rtept lat="23.242051" lon="121.29442"/><rtept lat="23.243493" lon="121.295589"/><rtept lat="23.243951" lon="121.295985"/><rtept lat="23.244777" lon="121.296646"/><rtept lat="23.245555" lon="121.297238"/><rtept lat="23.24578" lon="121.297408"/><rtept lat="23.24626" lon="121.297724"/><rtept lat="23.247074" lon="121.298189"/><rtept lat="23.247384" lon="121.298282"/><rtept lat="23.247633" lon="121.298309"/><rtept lat="23.248658" lon="121.298291"/><rtept lat="23.248898" lon="121.29825"/><rtept lat="23.249158" lon="121.298205"/><rtept lat="23.25041" lon="121.297882"/><rtept lat="23.250744" lon="121.297795"/><rtept lat="23.251206" lon="121.297676"/><rtept lat="23.252627" lon="121.297298"/><rtept lat="23.253515" lon="121.297062"/><rtept lat="23.25382" lon="121.296999"/><rtept lat="23.253918" lon="121.296986"/><rtept lat="23.254007" lon="121.296988"/><rtept lat="23.254472" lon="121.297"/><rtept lat="23.255459" lon="121.297343"/><rtept lat="23.25571" lon="121.29743"/><rtept lat="23.256591" lon="121.297739"/><rtept lat="23.257324" lon="121.297991"/><rtept lat="23.257809" lon="121.298194"/><rtept lat="23.257985" lon="121.298284"/><rtept lat="23.258026" lon="121.298308"/><rtept lat="23.258727" lon="121.298763"/><rtept lat="23.259035" lon="121.298878"/><rtept lat="23.259414" lon="121.298876"/><rtept lat="23.259783" lon="121.29889"/><rtept lat="23.259914" lon="121.298917"/><rtept lat="23.260156" lon="121.299005"/><rtept lat="23.260846" lon="121.299299"/><rtept lat="23.260941" lon="121.299326"/><rtept lat="23.261725" lon="121.299654"/><rtept lat="23.262271" lon="121.299806"/><rtept lat="23.262386" lon="121.299827"/><rtept lat="23.263099" lon="121.300133"/><rtept lat="23.263631" lon="121.300393"/><rtept lat="23.264594" lon="121.300897"/><rtept lat="23.265691" lon="121.301688"/><rtept lat="23.266362" lon="121.302098"/><rtept lat="23.266666" lon="121.302217"/><rtept lat="23.26728" lon="121.3026"/><rtept lat="23.267537" lon="121.302813"/><rtept lat="23.267677" lon="121.302986"/><rtept lat="23.267781" lon="121.303141"/><rtept lat="23.267943" lon="121.303455"/><rtept lat="23.267995" lon="121.303553"/><rtept lat="23.268014" lon="121.303588"/><rtept lat="23.268256" lon="121.304125"/><rtept lat="23.268395" lon="121.304537"/><rtept lat="23.268531" lon="121.304908"/><rtept lat="23.268688" lon="121.305207"/><rtept lat="23.269138" lon="121.305921"/><rtept lat="23.269262" lon="121.306146"/><rtept lat="23.269581" lon="121.306626"/><rtept lat="23.270163" lon="121.307548"/><rtept lat="23.270723" lon="121.30843"/><rtept lat="23.270805" lon="121.308549"/><rtept lat="23.271092" lon="121.309092"/><rtept lat="23.272007" lon="121.311115"/><rtept lat="23.272695" lon="121.312093"/><rtept lat="23.272829" lon="121.312292"/><rtept lat="23.273335" lon="121.313025"/><rtept lat="23.273555" lon="121.313362"/><rtept lat="23.277115" lon="121.318524"/><rtept lat="23.277992" lon="121.319807"/><rtept lat="23.278217" lon="121.320174"/><rtept lat="23.278304" lon="121.320342"/><rtept lat="23.278383" lon="121.320529"/><rtept lat="23.278688" lon="121.321314"/><rtept lat="23.278851" lon="121.321553"/><rtept lat="23.279125" lon="121.321847"/><rtept lat="23.279879" lon="121.322466"/><rtept lat="23.280075" lon="121.322636"/><rtept lat="23.280111" lon="121.322671"/><rtept lat="23.28056" lon="121.323077"/><rtept lat="23.280889" lon="121.323348"/><rtept lat="23.281221" lon="121.323585"/><rtept lat="23.281565" lon="121.323764"/><rtept lat="23.2833" lon="121.324508"/><rtept lat="23.283732" lon="121.324764"/><rtept lat="23.284149" lon="121.325074"/><rtept lat="23.284699" lon="121.325524"/><rtept lat="23.285383" lon="121.326084"/><rtept lat="23.285635" lon="121.32629"/><rtept lat="23.286682" lon="121.32692"/><rtept lat="23.28742" lon="121.327365"/><rtept lat="23.288678" lon="121.328291"/><rtept lat="23.289305" lon="121.328857"/><rtept lat="23.289507" lon="121.329074"/><rtept lat="23.289659" lon="121.329236"/><rtept lat="23.290608" lon="121.330254"/><rtept lat="23.291271" lon="121.330876"/><rtept lat="23.29194" lon="121.331446"/><rtept lat="23.29321" lon="121.332518"/><rtept lat="23.2935" lon="121.332703"/><rtept lat="23.293895" lon="121.332904"/><rtept lat="23.294838" lon="121.333178"/><rtept lat="23.295518" lon="121.333258"/><rtept lat="23.296426" lon="121.333304"/><rtept lat="23.297293" lon="121.333329"/><rtept lat="23.297341" lon="121.333331"/><rtept lat="23.297469" lon="121.333338"/><rtept lat="23.297675" lon="121.333321"/><rtept lat="23.297723" lon="121.333317"/><rtept lat="23.297838" lon="121.333308"/><rtept lat="23.299498" lon="121.332889"/><rtept lat="23.299633" lon="121.332863"/><rtept lat="23.300018" lon="121.332788"/><rtept lat="23.300275" lon="121.332788"/><rtept lat="23.300404" lon="121.332831"/><rtept lat="23.302159" lon="121.333633"/><rtept lat="23.302774" lon="121.333888"/><rtept lat="23.302989" lon="121.333952"/><rtept lat="23.303397" lon="121.334038"/><rtept lat="23.304019" lon="121.334081"/><rtept lat="23.304341" lon="121.334167"/><rtept lat="23.304548" lon="121.334239"/><rtept lat="23.305564" lon="121.334596"/><rtept lat="23.306208" lon="121.334939"/><rtept lat="23.306526" lon="121.335076"/><rtept lat="23.307315" lon="121.335363"/><rtept lat="23.308632" lon="121.335776"/><rtept lat="23.310564" lon="121.336398"/><rtept lat="23.310928" lon="121.336484"/><rtept lat="23.311293" lon="121.336527"/><rtept lat="23.313993" lon="121.336658"/><rtept lat="23.314297" lon="121.336677"/><rtept lat="23.31449" lon="121.33672"/><rtept lat="23.31537" lon="121.337042"/><rtept lat="23.315738" lon="121.337111"/><rtept lat="23.315819" lon="121.337121"/><rtept lat="23.316057" lon="121.337136"/><rtept lat="23.316748" lon="121.337138"/><rtept lat="23.316784" lon="121.33691"/><rtept lat="23.31644" lon="121.335944"/><rtept lat="23.316411" lon="121.335825"/><rtept lat="23.317368" lon="121.335741"/><rtept lat="23.317697" lon="121.335691"/><rtept lat="23.318043" lon="121.335608"/><rtept lat="23.31836" lon="121.335511"/><rtept lat="23.318692" lon="121.335357"/><rtept lat="23.31888" lon="121.33525"/><rtept lat="23.319142" lon="121.335068"/><rtept lat="23.319215" lon="121.33501"/><rtept lat="23.319469" lon="121.334806"/><rtept lat="23.319804" lon="121.334449"/><rtept lat="23.320278" lon="121.333725"/><rtept lat="23.320466" lon="121.333273"/><rtept lat="23.320608" lon="121.33279"/><rtept lat="23.320795" lon="121.332021"/><rtept lat="23.321973" lon="121.326879"/><rtept lat="23.322577" lon="121.323645"/><rtept lat="23.323739" lon="121.318493"/><rtept lat="23.323998" lon="121.318413"/><rtept lat="23.325185" lon="121.318"/><rtept lat="23.325284" lon="121.317966"/><rtept lat="23.325365" lon="121.317935"/><rtept lat="23.325857" lon="121.317748"/><rtept lat="23.325985" lon="121.317696"/><rtept lat="23.326839" lon="121.317383"/><rtept lat="23.326901" lon="121.317359"/><rtept lat="23.326961" lon="121.317337"/><rtept lat="23.32731" lon="121.317209"/><rtept lat="23.327912" lon="121.316988"/><rtept lat="23.328584" lon="121.316741"/><rtept lat="23.328663" lon="121.316712"/><rtept lat="23.328623" lon="121.316661"/><rtept lat="23.32855" lon="121.316569"/><rtept lat="23.328267" lon="121.31633"/><rtept lat="23.328403" lon="121.316121"/><rtept lat="23.328878" lon="121.315441"/><rtept lat="23.329017" lon="121.315232"/><rtept lat="23.329132" lon="121.315101"/><rtept lat="23.329393" lon="121.314717"/><rtept lat="23.329403" lon="121.314611"/><rtept lat="23.329714" lon="121.314213"/><rtept lat="23.329852" lon="121.31409"/><rtept lat="23.329879" lon="121.314066"/><rtept lat="23.330006" lon="121.31405"/><rtept lat="23.330536" lon="121.314058"/><rtept lat="23.330669" lon="121.314048"/><rtept lat="23.331067" lon="121.314016"/><rtept lat="23.33128" lon="121.314013"/><rtept lat="23.331379" lon="121.313188"/><rtept lat="23.331483" lon="121.31235"/><rtept lat="23.33164" lon="121.312372"/><rtept lat="23.331666" lon="121.312161"/><rtept lat="23.331678" lon="121.312033"/><rtept lat="23.331692" lon="121.311891"/><rtept lat="23.331504" lon="121.311867"/></rte></gpx>