<?xml version="1.0" ?>
<gpx xmlns="https://raw.githubusercontent.com/GIScience/openrouteservice-schema/main/gpx/v2/ors-gpx.xsd" version="1.1" creator="openrouteservice">
  <metadata>
    <name>openrouteservice directions</name>
    <desc>This is a directions instructions file as GPX, generated from openrouteservice</desc>
    <author>
      <name>openrouteservice</name>
      <email id="support" domain="openrouteservice.heigit.org"/>
      <link href="https://openrouteservice.org/">
        <text>https://openrouteservice.org/</text>
        <type>text/html</type>
      </link>
    </author>
    <copyright author="openrouteservice.org | OpenStreetMap contributors">
      <year>2026</year>
      <license>LGPL 3.0</license>
    </copyright>
    <time>2026-05-20T11:02:21.883Z</time>
    <bounds maxlat="24.694224" maxlon="120.880556" minlat="24.438132" minlon="120.649373"/>
    
  </metadata>
  <rte>
    <rtept lat="24.686485" lon="120.880556"/>
    <rtept lat="24.686499" lon="120.88027"/>
    <rtept lat="24.686581" lon="120.880276"/>
    <rtept lat="24.686588" lon="120.880197"/>
    <rtept lat="24.686743" lon="120.880214"/>
    <rtept lat="24.686957" lon="120.880238"/>
    <rtept lat="24.686968" lon="120.879962"/>
    <rtept lat="24.68676" lon="120.87995"/>
    <rtept lat="24.686666" lon="120.879945"/>
    <rtept lat="24.686708" lon="120.879204"/>
    <rtept lat="24.686755" lon="120.878448"/>
    <rtept lat="24.686786" lon="120.877706"/>
    <rtept lat="24.686828" lon="120.876972"/>
    <rtept lat="24.686895" lon="120.8756"/>
    <rtept lat="24.6869" lon="120.875494"/>
    <rtept lat="24.686931" lon="120.874846"/>
    <rtept lat="24.686957" lon="120.874295"/>
    <rtept lat="24.686967" lon="120.874084"/>
    <rtept lat="24.687016" lon="120.872811"/>
    <rtept lat="24.687335" lon="120.871614"/>
    <rtept lat="24.687659" lon="120.870501"/>
    <rtept lat="24.687785" lon="120.870082"/>
    <rtept lat="24.687831" lon="120.869927"/>
    <rtept lat="24.687867" lon="120.869819"/>
    <rtept lat="24.687914" lon="120.869659"/>
    <rtept lat="24.688324" lon="120.868275"/>
    <rtept lat="24.688493" lon="120.867768"/>
    <rtept lat="24.68877" lon="120.866781"/>
    <rtept lat="24.688869" lon="120.86643"/>
    <rtept lat="24.688886" lon="120.866367"/>
    <rtept lat="24.688903" lon="120.866307"/>
    <rtept lat="24.688924" lon="120.866233"/>
    <rtept lat="24.689087" lon="120.865654"/>
    <rtept lat="24.689489" lon="120.864142"/>
    <rtept lat="24.689885" lon="120.862812"/>
    <rtept lat="24.690028" lon="120.862583"/>
    <rtept lat="24.690203" lon="120.862494"/>
    <rtept lat="24.69176" lon="120.862131"/>
    <rtept lat="24.692" lon="120.862058"/>
    <rtept lat="24.692201" lon="120.861963"/>
    <rtept lat="24.692427" lon="120.861811"/>
    <rtept lat="24.692596" lon="120.861639"/>
    <rtept lat="24.693125" lon="120.86114"/>
    <rtept lat="24.693481" lon="120.860827"/>
    <rtept lat="24.693817" lon="120.860498"/>
    <rtept lat="24.694009" lon="120.860361"/>
    <rtept lat="24.694224" lon="120.86022"/>
    <rtept lat="24.693413" lon="120.858847"/>
    <rtept lat="24.693042" lon="120.858308"/>
    <rtept lat="24.693019" lon="120.858275"/>
    <rtept lat="24.692451" lon="120.857541"/>
    <rtept lat="24.691806" lon="120.856896"/>
    <rtept lat="24.691201" lon="120.85638"/>
    <rtept lat="24.690682" lon="120.855914"/>
    <rtept lat="24.689779" lon="120.855206"/>
    <rtept lat="24.688358" lon="120.854068"/>
    <rtept lat="24.686846" lon="120.852844"/>
    <rtept lat="24.686602" lon="120.852662"/>
    <rtept lat="24.685427" lon="120.851553"/>
    <rtept lat="24.683726" lon="120.849833"/>
    <rtept lat="24.683547" lon="120.849651"/>
    <rtept lat="24.682014" lon="120.848022"/>
    <rtept lat="24.680461" lon="120.846391"/>
    <rtept lat="24.679412" lon="120.845272"/>
    <rtept lat="24.679067" lon="120.844913"/>
    <rtept lat="24.677744" lon="120.843556"/>
    <rtept lat="24.677658" lon="120.843472"/>
    <rtept lat="24.67761" lon="120.84342"/>
    <rtept lat="24.676762" lon="120.842494"/>
    <rtept lat="24.67614" lon="120.841859"/>
    <rtept lat="24.675868" lon="120.841587"/>
    <rtept lat="24.67521" lon="120.840868"/>
    <rtept lat="24.674671" lon="120.84031"/>
    <rtept lat="24.673761" lon="120.839329"/>
    <rtept lat="24.673224" lon="120.838772"/>
    <rtept lat="24.67164" lon="120.837115"/>
    <rtept lat="24.671136" lon="120.83655"/>
    <rtept lat="24.670659" lon="120.836062"/>
    <rtept lat="24.669706" lon="120.835089"/>
    <rtept lat="24.667742" lon="120.832959"/>
    <rtept lat="24.667009" lon="120.831939"/>
    <rtept lat="24.666561" lon="120.831067"/>
    <rtept lat="24.666459" lon="120.830799"/>
    <rtept lat="24.666047" lon="120.82958"/>
    <rtept lat="24.664204" lon="120.823596"/>
    <rtept lat="24.663897" lon="120.823512"/>
    <rtept lat="24.663471" lon="120.823641"/>
    <rtept lat="24.663408" lon="120.823416"/>
    <rtept lat="24.663262" lon="120.823055"/>
    <rtept lat="24.663145" lon="120.822852"/>
    <rtept lat="24.662809" lon="120.822408"/>
    <rtept lat="24.662434" lon="120.821931"/>
    <rtept lat="24.660907" lon="120.819869"/>
    <rtept lat="24.660806" lon="120.819746"/>
    <rtept lat="24.660669" lon="120.819545"/>
    <rtept lat="24.660638" lon="120.819502"/>
    <rtept lat="24.660403" lon="120.819181"/>
    <rtept lat="24.66013" lon="120.818809"/>
    <rtept lat="24.659714" lon="120.818387"/>
    <rtept lat="24.659311" lon="120.818013"/>
    <rtept lat="24.659142" lon="120.817878"/>
    <rtept lat="24.658977" lon="120.817745"/>
    <rtept lat="24.658507" lon="120.81737"/>
    <rtept lat="24.657606" lon="120.816771"/>
    <rtept lat="24.657523" lon="120.816716"/>
    <rtept lat="24.655285" lon="120.815136"/>
    <rtept lat="24.653423" lon="120.813847"/>
    <rtept lat="24.652782" lon="120.813362"/>
    <rtept lat="24.652289" lon="120.813057"/>
    <rtept lat="24.65188" lon="120.812851"/>
    <rtept lat="24.651544" lon="120.812705"/>
    <rtept lat="24.650605" lon="120.812298"/>
    <rtept lat="24.650266" lon="120.8121"/>
    <rtept lat="24.650008" lon="120.811909"/>
    <rtept lat="24.649486" lon="120.811354"/>
    <rtept lat="24.64938" lon="120.811265"/>
    <rtept lat="24.649091" lon="120.811001"/>
    <rtept lat="24.648461" lon="120.810672"/>
    <rtept lat="24.647338" lon="120.8102"/>
    <rtept lat="24.646804" lon="120.809971"/>
    <rtept lat="24.646316" lon="120.809687"/>
    <rtept lat="24.64554" lon="120.809106"/>
    <rtept lat="24.645096" lon="120.808718"/>
    <rtept lat="24.644437" lon="120.808091"/>
    <rtept lat="24.644253" lon="120.807925"/>
    <rtept lat="24.644249" lon="120.807921"/>
    <rtept lat="24.644213" lon="120.807891"/>
    <rtept lat="24.644057" lon="120.80776"/>
    <rtept lat="24.643619" lon="120.807509"/>
    <rtept lat="24.643687" lon="120.807387"/>
    <rtept lat="24.643931" lon="120.806948"/>
    <rtept lat="24.64422" lon="120.806427"/>
    <rtept lat="24.644346" lon="120.806199"/>
    <rtept lat="24.644652" lon="120.805643"/>
    <rtept lat="24.645237" lon="120.80462"/>
    <rtept lat="24.645329" lon="120.804426"/>
    <rtept lat="24.644689" lon="120.803959"/>
    <rtept lat="24.643117" lon="120.802812"/>
    <rtept lat="24.643134" lon="120.802782"/>
    <rtept lat="24.643402" lon="120.802336"/>
    <rtept lat="24.643465" lon="120.802126"/>
    <rtept lat="24.643542" lon="120.80198"/>
    <rtept lat="24.643933" lon="120.801202"/>
    <rtept lat="24.644345" lon="120.800378"/>
    <rtept lat="24.644441" lon="120.800197"/>
    <rtept lat="24.64475" lon="120.799573"/>
    <rtept lat="24.645221" lon="120.798636"/>
    <rtept lat="24.645489" lon="120.798066"/>
    <rtept lat="24.645788" lon="120.797471"/>
    <rtept lat="24.645844" lon="120.797395"/>
    <rtept lat="24.645887" lon="120.797322"/>
    <rtept lat="24.64594" lon="120.797202"/>
    <rtept lat="24.645667" lon="120.796769"/>
    <rtept lat="24.645115" lon="120.795586"/>
    <rtept lat="24.645027" lon="120.795404"/>
    <rtept lat="24.644872" lon="120.795007"/>
    <rtept lat="24.643507" lon="120.79107"/>
    <rtept lat="24.643379" lon="120.790709"/>
    <rtept lat="24.643248" lon="120.790339"/>
    <rtept lat="24.642909" lon="120.789488"/>
    <rtept lat="24.642513" lon="120.788747"/>
    <rtept lat="24.642085" lon="120.788048"/>
    <rtept lat="24.641638" lon="120.787456"/>
    <rtept lat="24.641308" lon="120.787051"/>
    <rtept lat="24.63978" lon="120.785427"/>
    <rtept lat="24.637897" lon="120.783428"/>
    <rtept lat="24.636853" lon="120.782337"/>
    <rtept lat="24.635876" lon="120.781281"/>
    <rtept lat="24.633511" lon="120.778779"/>
    <rtept lat="24.632303" lon="120.777537"/>
    <rtept lat="24.631585" lon="120.776936"/>
    <rtept lat="24.630909" lon="120.776445"/>
    <rtept lat="24.630103" lon="120.77599"/>
    <rtept lat="24.629166" lon="120.775587"/>
    <rtept lat="24.627983" lon="120.77519"/>
    <rtept lat="24.627423" lon="120.774978"/>
    <rtept lat="24.627073" lon="120.774845"/>
    <rtept lat="24.62617" lon="120.7744"/>
    <rtept lat="24.625748" lon="120.774131"/>
    <rtept lat="24.625437" lon="120.773886"/>
    <rtept lat="24.625277" lon="120.773755"/>
    <rtept lat="24.625078" lon="120.773577"/>
    <rtept lat="24.624647" lon="120.773134"/>
    <rtept lat="24.624273" lon="120.772664"/>
    <rtept lat="24.623979" lon="120.772241"/>
    <rtept lat="24.62381" lon="120.771984"/>
    <rtept lat="24.622675" lon="120.770074"/>
    <rtept lat="24.622262" lon="120.769432"/>
    <rtept lat="24.621359" lon="120.768338"/>
    <rtept lat="24.620911" lon="120.767871"/>
    <rtept lat="24.620398" lon="120.767409"/>
    <rtept lat="24.620268" lon="120.767288"/>
    <rtept lat="24.619754" lon="120.766886"/>
    <rtept lat="24.618209" lon="120.765744"/>
    <rtept lat="24.612369" lon="120.761493"/>
    <rtept lat="24.612136" lon="120.761272"/>
    <rtept lat="24.611735" lon="120.760841"/>
    <rtept lat="24.611406" lon="120.760377"/>
    <rtept lat="24.611193" lon="120.759989"/>
    <rtept lat="24.610962" lon="120.759409"/>
    <rtept lat="24.610872" lon="120.759031"/>
    <rtept lat="24.610779" lon="120.758468"/>
    <rtept lat="24.610745" lon="120.757768"/>
    <rtept lat="24.610761" lon="120.757237"/>
    <rtept lat="24.610874" lon="120.75652"/>
    <rtept lat="24.610947" lon="120.756142"/>
    <rtept lat="24.610983" lon="120.755655"/>
    <rtept lat="24.610989" lon="120.755237"/>
    <rtept lat="24.610965" lon="120.754902"/>
    <rtept lat="24.610899" lon="120.754515"/>
    <rtept lat="24.610792" lon="120.754022"/>
    <rtept lat="24.610614" lon="120.753488"/>
    <rtept lat="24.610286" lon="120.752875"/>
    <rtept lat="24.607182" lon="120.748934"/>
    <rtept lat="24.606866" lon="120.74853"/>
    <rtept lat="24.604723" lon="120.745856"/>
    <rtept lat="24.604092" lon="120.745023"/>
    <rtept lat="24.603305" lon="120.744021"/>
    <rtept lat="24.602886" lon="120.743592"/>
    <rtept lat="24.602476" lon="120.743252"/>
    <rtept lat="24.602187" lon="120.743094"/>
    <rtept lat="24.602514" lon="120.742638"/>
    <rtept lat="24.602673" lon="120.742458"/>
    <rtept lat="24.602804" lon="120.742316"/>
    <rtept lat="24.603224" lon="120.741873"/>
    <rtept lat="24.603548" lon="120.74154"/>
    <rtept lat="24.60402" lon="120.741066"/>
    <rtept lat="24.604237" lon="120.740856"/>
    <rtept lat="24.604646" lon="120.740499"/>
    <rtept lat="24.604823" lon="120.740257"/>
    <rtept lat="24.604848" lon="120.740226"/>
    <rtept lat="24.605041" lon="120.739847"/>
    <rtept lat="24.605103" lon="120.739796"/>
    <rtept lat="24.605191" lon="120.739789"/>
    <rtept lat="24.605255" lon="120.73966"/>
    <rtept lat="24.605277" lon="120.73951"/>
    <rtept lat="24.605277" lon="120.739424"/>
    <rtept lat="24.605255" lon="120.739317"/>
    <rtept lat="24.605148" lon="120.739188"/>
    <rtept lat="24.604826" lon="120.738909"/>
    <rtept lat="24.604697" lon="120.738866"/>
    <rtept lat="24.604461" lon="120.738823"/>
    <rtept lat="24.60417" lon="120.738619"/>
    <rtept lat="24.603777" lon="120.738356"/>
    <rtept lat="24.603422" lon="120.738067"/>
    <rtept lat="24.603365" lon="120.737966"/>
    <rtept lat="24.603331" lon="120.737354"/>
    <rtept lat="24.603296" lon="120.737264"/>
    <rtept lat="24.603217" lon="120.737143"/>
    <rtept lat="24.602917" lon="120.736839"/>
    <rtept lat="24.602614" lon="120.736584"/>
    <rtept lat="24.601672" lon="120.735919"/>
    <rtept lat="24.601238" lon="120.735685"/>
    <rtept lat="24.600645" lon="120.735166"/>
    <rtept lat="24.600376" lon="120.734952"/>
    <rtept lat="24.599613" lon="120.734463"/>
    <rtept lat="24.599479" lon="120.734398"/>
    <rtept lat="24.59929" lon="120.734253"/>
    <rtept lat="24.599196" lon="120.734124"/>
    <rtept lat="24.599075" lon="120.73391"/>
    <rtept lat="24.598959" lon="120.733657"/>
    <rtept lat="24.598914" lon="120.733517"/>
    <rtept lat="24.598881" lon="120.733263"/>
    <rtept lat="24.598847" lon="120.733166"/>
    <rtept lat="24.598595" lon="120.732747"/>
    <rtept lat="24.598564" lon="120.732656"/>
    <rtept lat="24.598551" lon="120.732564"/>
    <rtept lat="24.598554" lon="120.732426"/>
    <rtept lat="24.598576" lon="120.732311"/>
    <rtept lat="24.598673" lon="120.732139"/>
    <rtept lat="24.598728" lon="120.731997"/>
    <rtept lat="24.598725" lon="120.731929"/>
    <rtept lat="24.598695" lon="120.731841"/>
    <rtept lat="24.598587" lon="120.731705"/>
    <rtept lat="24.598459" lon="120.731505"/>
    <rtept lat="24.598414" lon="120.731377"/>
    <rtept lat="24.598551" lon="120.731408"/>
    <rtept lat="24.598674" lon="120.731488"/>
    <rtept lat="24.598985" lon="120.731646"/>
    <rtept lat="24.599151" lon="120.731771"/>
    <rtept lat="24.599246" lon="120.731815"/>
    <rtept lat="24.599357" lon="120.73181"/>
    <rtept lat="24.599656" lon="120.731778"/>
    <rtept lat="24.599894" lon="120.731748"/>
    <rtept lat="24.600083" lon="120.731717"/>
    <rtept lat="24.600352" lon="120.731661"/>
    <rtept lat="24.600446" lon="120.731637"/>
    <rtept lat="24.600764" lon="120.731557"/>
    <rtept lat="24.601176" lon="120.731418"/>
    <rtept lat="24.601376" lon="120.731275"/>
    <rtept lat="24.60152" lon="120.731138"/>
    <rtept lat="24.601596" lon="120.73109"/>
    <rtept lat="24.601775" lon="120.731137"/>
    <rtept lat="24.601961" lon="120.73113"/>
    <rtept lat="24.601985" lon="120.731137"/>
    <rtept lat="24.601961" lon="120.73113"/>
    <rtept lat="24.601775" lon="120.731137"/>
    <rtept lat="24.601596" lon="120.73109"/>
    <rtept lat="24.60152" lon="120.731138"/>
    <rtept lat="24.601376" lon="120.731275"/>
    <rtept lat="24.601176" lon="120.731418"/>
    <rtept lat="24.600764" lon="120.731557"/>
    <rtept lat="24.600446" lon="120.731637"/>
    <rtept lat="24.600352" lon="120.731661"/>
    <rtept lat="24.600083" lon="120.731717"/>
    <rtept lat="24.599894" lon="120.731748"/>
    <rtept lat="24.599656" lon="120.731778"/>
    <rtept lat="24.599357" lon="120.73181"/>
    <rtept lat="24.599246" lon="120.731815"/>
    <rtept lat="24.599151" lon="120.731771"/>
    <rtept lat="24.598985" lon="120.731646"/>
    <rtept lat="24.598674" lon="120.731488"/>
    <rtept lat="24.598551" lon="120.731408"/>
    <rtept lat="24.598414" lon="120.731377"/>
    <rtept lat="24.59799" lon="120.731242"/>
    <rtept lat="24.597801" lon="120.731178"/>
    <rtept lat="24.597668" lon="120.731112"/>
    <rtept lat="24.597559" lon="120.731025"/>
    <rtept lat="24.597453" lon="120.730857"/>
    <rtept lat="24.597387" lon="120.730691"/>
    <rtept lat="24.597349" lon="120.730493"/>
    <rtept lat="24.597297" lon="120.730393"/>
    <rtept lat="24.597249" lon="120.730326"/>
    <rtept lat="24.59719" lon="120.730291"/>
    <rtept lat="24.596986" lon="120.730219"/>
    <rtept lat="24.596768" lon="120.730163"/>
    <rtept lat="24.596531" lon="120.730054"/>
    <rtept lat="24.59642" lon="120.729974"/>
    <rtept lat="24.59628" lon="120.729908"/>
    <rtept lat="24.59617" lon="120.729876"/>
    <rtept lat="24.596089" lon="120.729916"/>
    <rtept lat="24.595873" lon="120.730107"/>
    <rtept lat="24.595802" lon="120.730171"/>
    <rtept lat="24.595716" lon="120.7302"/>
    <rtept lat="24.595449" lon="120.730218"/>
    <rtept lat="24.59528" lon="120.730313"/>
    <rtept lat="24.595217" lon="120.730334"/>
    <rtept lat="24.59508" lon="120.730348"/>
    <rtept lat="24.594897" lon="120.730353"/>
    <rtept lat="24.594707" lon="120.730277"/>
    <rtept lat="24.594433" lon="120.730161"/>
    <rtept lat="24.594232" lon="120.730006"/>
    <rtept lat="24.593769" lon="120.729599"/>
    <rtept lat="24.593496" lon="120.729382"/>
    <rtept lat="24.593153" lon="120.729146"/>
    <rtept lat="24.592617" lon="120.728738"/>
    <rtept lat="24.592402" lon="120.728674"/>
    <rtept lat="24.592102" lon="120.728653"/>
    <rtept lat="24.591844" lon="120.728703"/>
    <rtept lat="24.591308" lon="120.728867"/>
    <rtept lat="24.591127" lon="120.728902"/>
    <rtept lat="24.590306" lon="120.729168"/>
    <rtept lat="24.590009" lon="120.729327"/>
    <rtept lat="24.589733" lon="120.729566"/>
    <rtept lat="24.589024" lon="120.730395"/>
    <rtept lat="24.588944" lon="120.730417"/>
    <rtept lat="24.588854" lon="120.730422"/>
    <rtept lat="24.588644" lon="120.73038"/>
    <rtept lat="24.588317" lon="120.730219"/>
    <rtept lat="24.588099" lon="120.73013"/>
    <rtept lat="24.587956" lon="120.730106"/>
    <rtept lat="24.587594" lon="120.730029"/>
    <rtept lat="24.587655" lon="120.730478"/>
    <rtept lat="24.587558" lon="120.730491"/>
    <rtept lat="24.587393" lon="120.730572"/>
    <rtept lat="24.58652" lon="120.729707"/>
    <rtept lat="24.58597" lon="120.728955"/>
    <rtept lat="24.585732" lon="120.728567"/>
    <rtept lat="24.585699" lon="120.728512"/>
    <rtept lat="24.585213" lon="120.727514"/>
    <rtept lat="24.584593" lon="120.726171"/>
    <rtept lat="24.583917" lon="120.724835"/>
    <rtept lat="24.583414" lon="120.723979"/>
    <rtept lat="24.582971" lon="120.723386"/>
    <rtept lat="24.581823" lon="120.721916"/>
    <rtept lat="24.581314" lon="120.721409"/>
    <rtept lat="24.580717" lon="120.720973"/>
    <rtept lat="24.580199" lon="120.720641"/>
    <rtept lat="24.579211" lon="120.720238"/>
    <rtept lat="24.578841" lon="120.72014"/>
    <rtept lat="24.578276" lon="120.720065"/>
    <rtept lat="24.577557" lon="120.720046"/>
    <rtept lat="24.576411" lon="120.720094"/>
    <rtept lat="24.576128" lon="120.720079"/>
    <rtept lat="24.575498" lon="120.720006"/>
    <rtept lat="24.575207" lon="120.719949"/>
    <rtept lat="24.574979" lon="120.719877"/>
    <rtept lat="24.574676" lon="120.719782"/>
    <rtept lat="24.574406" lon="120.719677"/>
    <rtept lat="24.574239" lon="120.719583"/>
    <rtept lat="24.573986" lon="120.719452"/>
    <rtept lat="24.573841" lon="120.719364"/>
    <rtept lat="24.573283" lon="120.718928"/>
    <rtept lat="24.572958" lon="120.718612"/>
    <rtept lat="24.572771" lon="120.718416"/>
    <rtept lat="24.572509" lon="120.718102"/>
    <rtept lat="24.571942" lon="120.717337"/>
    <rtept lat="24.571567" lon="120.716715"/>
    <rtept lat="24.571042" lon="120.715592"/>
    <rtept lat="24.570674" lon="120.71493"/>
    <rtept lat="24.570291" lon="120.714417"/>
    <rtept lat="24.570093" lon="120.713863"/>
    <rtept lat="24.570064" lon="120.713779"/>
    <rtept lat="24.57001" lon="120.713628"/>
    <rtept lat="24.569752" lon="120.712795"/>
    <rtept lat="24.56963" lon="120.71249"/>
    <rtept lat="24.569528" lon="120.71228"/>
    <rtept lat="24.56934" lon="120.712076"/>
    <rtept lat="24.569241" lon="120.711967"/>
    <rtept lat="24.569186" lon="120.711918"/>
    <rtept lat="24.568981" lon="120.711732"/>
    <rtept lat="24.568862" lon="120.711672"/>
    <rtept lat="24.568558" lon="120.711573"/>
    <rtept lat="24.568306" lon="120.711536"/>
    <rtept lat="24.567655" lon="120.711524"/>
    <rtept lat="24.567111" lon="120.711342"/>
    <rtept lat="24.566181" lon="120.710948"/>
    <rtept lat="24.565321" lon="120.710584"/>
    <rtept lat="24.564904" lon="120.710425"/>
    <rtept lat="24.564654" lon="120.710328"/>
    <rtept lat="24.564352" lon="120.710162"/>
    <rtept lat="24.563988" lon="120.70985"/>
    <rtept lat="24.563031" lon="120.708968"/>
    <rtept lat="24.562712" lon="120.708679"/>
    <rtept lat="24.562289" lon="120.708423"/>
    <rtept lat="24.560345" lon="120.707211"/>
    <rtept lat="24.558795" lon="120.706122"/>
    <rtept lat="24.557592" lon="120.705296"/>
    <rtept lat="24.557349" lon="120.705111"/>
    <rtept lat="24.556347" lon="120.704371"/>
    <rtept lat="24.556463" lon="120.704236"/>
    <rtept lat="24.556467" lon="120.704136"/>
    <rtept lat="24.556103" lon="120.703797"/>
    <rtept lat="24.556091" lon="120.703767"/>
    <rtept lat="24.556156" lon="120.703569"/>
    <rtept lat="24.556004" lon="120.703474"/>
    <rtept lat="24.556156" lon="120.703569"/>
    <rtept lat="24.556091" lon="120.703767"/>
    <rtept lat="24.556103" lon="120.703797"/>
    <rtept lat="24.556467" lon="120.704136"/>
    <rtept lat="24.556463" lon="120.704236"/>
    <rtept lat="24.556347" lon="120.704371"/>
    <rtept lat="24.554613" lon="120.70291"/>
    <rtept lat="24.553138" lon="120.701918"/>
    <rtept lat="24.552567" lon="120.701492"/>
    <rtept lat="24.55202" lon="120.701012"/>
    <rtept lat="24.551483" lon="120.700485"/>
    <rtept lat="24.550901" lon="120.699917"/>
    <rtept lat="24.550543" lon="120.699626"/>
    <rtept lat="24.550298" lon="120.699471"/>
    <rtept lat="24.550203" lon="120.699409"/>
    <rtept lat="24.5496" lon="120.699091"/>
    <rtept lat="24.54921" lon="120.698957"/>
    <rtept lat="24.548937" lon="120.698872"/>
    <rtept lat="24.5481" lon="120.698593"/>
    <rtept lat="24.546843" lon="120.698203"/>
    <rtept lat="24.545828" lon="120.697885"/>
    <rtept lat="24.545293" lon="120.697715"/>
    <rtept lat="24.544884" lon="120.697606"/>
    <rtept lat="24.544217" lon="120.697427"/>
    <rtept lat="24.544069" lon="120.697366"/>
    <rtept lat="24.543602" lon="120.697171"/>
    <rtept lat="24.543332" lon="120.697086"/>
    <rtept lat="24.543018" lon="120.69699"/>
    <rtept lat="24.542721" lon="120.69689"/>
    <rtept lat="24.54214" lon="120.696702"/>
    <rtept lat="24.539671" lon="120.695924"/>
    <rtept lat="24.539346" lon="120.695782"/>
    <rtept lat="24.539289" lon="120.695759"/>
    <rtept lat="24.538928" lon="120.695612"/>
    <rtept lat="24.538" lon="120.69523"/>
    <rtept lat="24.536948" lon="120.694872"/>
    <rtept lat="24.536699" lon="120.694765"/>
    <rtept lat="24.536465" lon="120.694682"/>
    <rtept lat="24.536196" lon="120.694618"/>
    <rtept lat="24.535073" lon="120.694354"/>
    <rtept lat="24.533388" lon="120.693957"/>
    <rtept lat="24.531668" lon="120.693654"/>
    <rtept lat="24.530223" lon="120.693378"/>
    <rtept lat="24.529664" lon="120.693291"/>
    <rtept lat="24.528752" lon="120.693148"/>
    <rtept lat="24.527564" lon="120.692854"/>
    <rtept lat="24.527331" lon="120.692816"/>
    <rtept lat="24.526592" lon="120.692695"/>
    <rtept lat="24.525668" lon="120.692592"/>
    <rtept lat="24.523727" lon="120.692374"/>
    <rtept lat="24.523107" lon="120.692304"/>
    <rtept lat="24.520691" lon="120.692045"/>
    <rtept lat="24.517006" lon="120.691648"/>
    <rtept lat="24.516583" lon="120.691595"/>
    <rtept lat="24.515541" lon="120.69133"/>
    <rtept lat="24.513987" lon="120.690928"/>
    <rtept lat="24.512967" lon="120.690649"/>
    <rtept lat="24.510107" lon="120.689913"/>
    <rtept lat="24.509854" lon="120.689842"/>
    <rtept lat="24.509543" lon="120.689755"/>
    <rtept lat="24.508678" lon="120.689532"/>
    <rtept lat="24.506643" lon="120.689011"/>
    <rtept lat="24.50646" lon="120.688871"/>
    <rtept lat="24.505349" lon="120.688302"/>
    <rtept lat="24.504748" lon="120.688035"/>
    <rtept lat="24.504173" lon="120.687795"/>
    <rtept lat="24.503789" lon="120.687621"/>
    <rtept lat="24.503505" lon="120.687456"/>
    <rtept lat="24.501755" lon="120.686745"/>
    <rtept lat="24.50124" lon="120.686495"/>
    <rtept lat="24.499307" lon="120.685342"/>
    <rtept lat="24.496927" lon="120.683502"/>
    <rtept lat="24.49648" lon="120.683145"/>
    <rtept lat="24.495189" lon="120.682113"/>
    <rtept lat="24.49442" lon="120.681482"/>
    <rtept lat="24.494188" lon="120.681252"/>
    <rtept lat="24.493227" lon="120.680206"/>
    <rtept lat="24.493053" lon="120.680077"/>
    <rtept lat="24.492858" lon="120.67998"/>
    <rtept lat="24.492084" lon="120.679661"/>
    <rtept lat="24.491856" lon="120.67951"/>
    <rtept lat="24.491412" lon="120.679155"/>
    <rtept lat="24.491163" lon="120.678943"/>
    <rtept lat="24.491048" lon="120.678871"/>
    <rtept lat="24.489749" lon="120.678421"/>
    <rtept lat="24.489298" lon="120.67826"/>
    <rtept lat="24.489127" lon="120.67822"/>
    <rtept lat="24.488905" lon="120.678163"/>
    <rtept lat="24.4884" lon="120.67821"/>
    <rtept lat="24.487434" lon="120.678355"/>
    <rtept lat="24.487175" lon="120.678393"/>
    <rtept lat="24.48696" lon="120.678396"/>
    <rtept lat="24.486796" lon="120.678369"/>
    <rtept lat="24.486427" lon="120.678157"/>
    <rtept lat="24.485969" lon="120.677604"/>
    <rtept lat="24.485312" lon="120.676624"/>
    <rtept lat="24.485" lon="120.676258"/>
    <rtept lat="24.484733" lon="120.676036"/>
    <rtept lat="24.484458" lon="120.675849"/>
    <rtept lat="24.484141" lon="120.675716"/>
    <rtept lat="24.483833" lon="120.675643"/>
    <rtept lat="24.48361" lon="120.675623"/>
    <rtept lat="24.48182" lon="120.675631"/>
    <rtept lat="24.480712" lon="120.675656"/>
    <rtept lat="24.480216" lon="120.675655"/>
    <rtept lat="24.479628" lon="120.675497"/>
    <rtept lat="24.479299" lon="120.675358"/>
    <rtept lat="24.479096" lon="120.675159"/>
    <rtept lat="24.47873" lon="120.674837"/>
    <rtept lat="24.478339" lon="120.674483"/>
    <rtept lat="24.478034" lon="120.674276"/>
    <rtept lat="24.477087" lon="120.673775"/>
    <rtept lat="24.47626" lon="120.673335"/>
    <rtept lat="24.47548" lon="120.672861"/>
    <rtept lat="24.475177" lon="120.67264"/>
    <rtept lat="24.474909" lon="120.672455"/>
    <rtept lat="24.474383" lon="120.672041"/>
    <rtept lat="24.474053" lon="120.671708"/>
    <rtept lat="24.473362" lon="120.670766"/>
    <rtept lat="24.472722" lon="120.669834"/>
    <rtept lat="24.471926" lon="120.668694"/>
    <rtept lat="24.471733" lon="120.668428"/>
    <rtept lat="24.471272" lon="120.667779"/>
    <rtept lat="24.470745" lon="120.667102"/>
    <rtept lat="24.470393" lon="120.666745"/>
    <rtept lat="24.470035" lon="120.666426"/>
    <rtept lat="24.469657" lon="120.666163"/>
    <rtept lat="24.468702" lon="120.66574"/>
    <rtept lat="24.468145" lon="120.665475"/>
    <rtept lat="24.467859" lon="120.665314"/>
    <rtept lat="24.466919" lon="120.664713"/>
    <rtept lat="24.466426" lon="120.664445"/>
    <rtept lat="24.466061" lon="120.664264"/>
    <rtept lat="24.465671" lon="120.664079"/>
    <rtept lat="24.465168" lon="120.663904"/>
    <rtept lat="24.46466" lon="120.663733"/>
    <rtept lat="24.464047" lon="120.663619"/>
    <rtept lat="24.463766" lon="120.663556"/>
    <rtept lat="24.462119" lon="120.66325"/>
    <rtept lat="24.461375" lon="120.663121"/>
    <rtept lat="24.46063" lon="120.662993"/>
    <rtept lat="24.459262" lon="120.662732"/>
    <rtept lat="24.45903" lon="120.662653"/>
    <rtept lat="24.4588" lon="120.662537"/>
    <rtept lat="24.458471" lon="120.662314"/>
    <rtept lat="24.458025" lon="120.661952"/>
    <rtept lat="24.457642" lon="120.661672"/>
    <rtept lat="24.457571" lon="120.66161"/>
    <rtept lat="24.457391" lon="120.661456"/>
    <rtept lat="24.457212" lon="120.66127"/>
    <rtept lat="24.456818" lon="120.660795"/>
    <rtept lat="24.456523" lon="120.660463"/>
    <rtept lat="24.45633" lon="120.660304"/>
    <rtept lat="24.454923" lon="120.659339"/>
    <rtept lat="24.454384" lon="120.658992"/>
    <rtept lat="24.453952" lon="120.658588"/>
    <rtept lat="24.452599" lon="120.657926"/>
    <rtept lat="24.452085" lon="120.657701"/>
    <rtept lat="24.45146" lon="120.657374"/>
    <rtept lat="24.45118" lon="120.657218"/>
    <rtept lat="24.451016" lon="120.657087"/>
    <rtept lat="24.450845" lon="120.656921"/>
    <rtept lat="24.450763" lon="120.656963"/>
    <rtept lat="24.450673" lon="120.65692"/>
    <rtept lat="24.449919" lon="120.656323"/>
    <rtept lat="24.449577" lon="120.656058"/>
    <rtept lat="24.449287" lon="120.655905"/>
    <rtept lat="24.449089" lon="120.655805"/>
    <rtept lat="24.448429" lon="120.655474"/>
    <rtept lat="24.44782" lon="120.6551"/>
    <rtept lat="24.447657" lon="120.654993"/>
    <rtept lat="24.447231" lon="120.654691"/>
    <rtept lat="24.446986" lon="120.654434"/>
    <rtept lat="24.446848" lon="120.654188"/>
    <rtept lat="24.446675" lon="120.653867"/>
    <rtept lat="24.446393" lon="120.653315"/>
    <rtept lat="24.446234" lon="120.653135"/>
    <rtept lat="24.446209" lon="120.653072"/>
    <rtept lat="24.445965" lon="120.65298"/>
    <rtept lat="24.445238" lon="120.65264"/>
    <rtept lat="24.444364" lon="120.652232"/>
    <rtept lat="24.444101" lon="120.652116"/>
    <rtept lat="24.443421" lon="120.651819"/>
    <rtept lat="24.443337" lon="120.651781"/>
    <rtept lat="24.443271" lon="120.651752"/>
    <rtept lat="24.442298" lon="120.651299"/>
    <rtept lat="24.441358" lon="120.650857"/>
    <rtept lat="24.441232" lon="120.650783"/>
    <rtept lat="24.440463" lon="120.650451"/>
    <rtept lat="24.439428" lon="120.649979"/>
    <rtept lat="24.438702" lon="120.649628"/>
    <rtept lat="24.438318" lon="120.649422"/>
    <rtept lat="24.438132" lon="120.649373"/>
    
  </rte>
  
</gpx>
