<?xml version="1.0" ?>
<gpx xmlns="https://raw.githubusercontent.com/GIScience/openrouteservice-schema/main/gpx/v2/ors-gpx.xsd" version="1.1" creator="openrouteservice">
  <metadata>
    <name>openrouteservice directions</name>
    <desc>This is a directions instructions file as GPX, generated from openrouteservice</desc>
    <author>
      <name>openrouteservice</name>
      <email id="support" domain="openrouteservice.heigit.org"/>
      <link href="https://openrouteservice.org/">
        <text>https://openrouteservice.org/</text>
        <type>text/html</type>
      </link>
    </author>
    <copyright author="openrouteservice.org | OpenStreetMap contributors">
      <year>2026</year>
      <license>LGPL 3.0</license>
    </copyright>
    <time>2026-05-19T17:57:27.311Z</time>
    <bounds maxlat="24.312271" maxlon="120.558566" minlat="24.056317" minlon="120.43098"/>
    <extensions>
      <system-message/>
    </extensions>
  </metadata>
  <rte>
    <rtept lat="24.312271" lon="120.548814">
      <name/>
      <desc>Head southeast</desc>
      <extensions>
        <distance>125.8</distance>
        <duration>75.5</duration>
        <type>11</type>
        <step>0</step>
      </extensions>
    </rtept>
    <rtept lat="24.312147" lon="120.548955">
      <name/>
      <desc>Head southeast</desc>
      <extensions>
        <distance>125.8</distance>
        <duration>75.5</duration>
        <type>11</type>
        <step>0</step>
      </extensions>
    </rtept>
    <rtept lat="24.312101" lon="120.54903">
      <name/>
      <desc>Head southeast</desc>
      <extensions>
        <distance>125.8</distance>
        <duration>75.5</duration>
        <type>11</type>
        <step>0</step>
      </extensions>
    </rtept>
    <rtept lat="24.312087" lon="120.549084">
      <name/>
      <desc>Head southeast</desc>
      <extensions>
        <distance>125.8</distance>
        <duration>75.5</duration>
        <type>11</type>
        <step>0</step>
      </extensions>
    </rtept>
    <rtept lat="24.312085" lon="120.549201">
      <name/>
      <desc>Head southeast</desc>
      <extensions>
        <distance>125.8</distance>
        <duration>75.5</duration>
        <type>11</type>
        <step>0</step>
      </extensions>
    </rtept>
    <rtept lat="24.312032" lon="120.549407">
      <name/>
      <desc>Head southeast</desc>
      <extensions>
        <distance>125.8</distance>
        <duration>75.5</duration>
        <type>11</type>
        <step>0</step>
      </extensions>
    </rtept>
    <rtept lat="24.311961" lon="120.549596">
      <name/>
      <desc>Head southeast</desc>
      <extensions>
        <distance>125.8</distance>
        <duration>75.5</duration>
        <type>11</type>
        <step>0</step>
      </extensions>
    </rtept>
    <rtept lat="24.311918" lon="120.549888">
      <name/>
      <desc>Head southeast</desc>
      <extensions>
        <distance>125.8</distance>
        <duration>75.5</duration>
        <type>11</type>
        <step>0</step>
      </extensions>
    </rtept>
    <rtept lat="24.31191" lon="120.549956">
      <name/>
      <desc>Turn left</desc>
      <extensions>
        <distance>70.9</distance>
        <duration>14.2</duration>
        <type>0</type>
        <step>1</step>
      </extensions>
    </rtept>
    <rtept lat="24.312018" lon="120.549966">
      <name/>
      <desc>Turn left</desc>
      <extensions>
        <distance>70.9</distance>
        <duration>14.2</duration>
        <type>0</type>
        <step>1</step>
      </extensions>
    </rtept>
    <rtept lat="24.312044" lon="120.54999">
      <name/>
      <desc>Turn left</desc>
      <extensions>
        <distance>70.9</distance>
        <duration>14.2</duration>
        <type>0</type>
        <step>1</step>
      </extensions>
    </rtept>
    <rtept lat="24.312058" lon="120.550043">
      <name/>
      <desc>Turn left</desc>
      <extensions>
        <distance>70.9</distance>
        <duration>14.2</duration>
        <type>0</type>
        <step>1</step>
      </extensions>
    </rtept>
    <rtept lat="24.312031" lon="120.550139">
      <name/>
      <desc>Turn left</desc>
      <extensions>
        <distance>70.9</distance>
        <duration>14.2</duration>
        <type>0</type>
        <step>1</step>
      </extensions>
    </rtept>
    <rtept lat="24.311996" lon="120.550268">
      <name/>
      <desc>Turn left</desc>
      <extensions>
        <distance>70.9</distance>
        <duration>14.2</duration>
        <type>0</type>
        <step>1</step>
      </extensions>
    </rtept>
    <rtept lat="24.311933" lon="120.550511">
      <name/>
      <desc>Turn left</desc>
      <extensions>
        <distance>33.1</distance>
        <duration>6.6</duration>
        <type>0</type>
        <step>2</step>
      </extensions>
    </rtept>
    <rtept lat="24.312005" lon="120.550538">
      <name/>
      <desc>Turn left</desc>
      <extensions>
        <distance>33.1</distance>
        <duration>6.6</duration>
        <type>0</type>
        <step>2</step>
      </extensions>
    </rtept>
    <rtept lat="24.311928" lon="120.550766">
      <name>美堤街</name>
      <desc>Turn left onto 美堤街</desc>
      <extensions>
        <distance>20.0</distance>
        <duration>4.0</duration>
        <type>0</type>
        <step>3</step>
      </extensions>
    </rtept>
    <rtept lat="24.312047" lon="120.550826">
      <name>美堤街</name>
      <desc>Turn left onto 美堤街</desc>
      <extensions>
        <distance>20.0</distance>
        <duration>4.0</duration>
        <type>0</type>
        <step>3</step>
      </extensions>
    </rtept>
    <rtept lat="24.312092" lon="120.550849">
      <name>高美路, 中50</name>
      <desc>Turn right onto 高美路, 中50</desc>
      <extensions>
        <distance>865.6</distance>
        <duration>173.1</duration>
        <type>1</type>
        <step>4</step>
      </extensions>
    </rtept>
    <rtept lat="24.311909" lon="120.551261">
      <name>高美路, 中50</name>
      <desc>Turn right onto 高美路, 中50</desc>
      <extensions>
        <distance>865.6</distance>
        <duration>173.1</duration>
        <type>1</type>
        <step>4</step>
      </extensions>
    </rtept>
    <rtept lat="24.311409" lon="120.551972">
      <name>高美路, 中50</name>
      <desc>Turn right onto 高美路, 中50</desc>
      <extensions>
        <distance>865.6</distance>
        <duration>173.1</duration>
        <type>1</type>
        <step>4</step>
      </extensions>
    </rtept>
    <rtept lat="24.311254" lon="120.552225">
      <name>高美路, 中50</name>
      <desc>Turn right onto 高美路, 中50</desc>
      <extensions>
        <distance>865.6</distance>
        <duration>173.1</duration>
        <type>1</type>
        <step>4</step>
      </extensions>
    </rtept>
    <rtept lat="24.311192" lon="120.552353">
      <name>高美路, 中50</name>
      <desc>Turn right onto 高美路, 中50</desc>
      <extensions>
        <distance>865.6</distance>
        <duration>173.1</duration>
        <type>1</type>
        <step>4</step>
      </extensions>
    </rtept>
    <rtept lat="24.311184" lon="120.552416">
      <name>高美路, 中50</name>
      <desc>Turn right onto 高美路, 中50</desc>
      <extensions>
        <distance>865.6</distance>
        <duration>173.1</duration>
        <type>1</type>
        <step>4</step>
      </extensions>
    </rtept>
    <rtept lat="24.311123" lon="120.552788">
      <name>高美路, 中50</name>
      <desc>Turn right onto 高美路, 中50</desc>
      <extensions>
        <distance>865.6</distance>
        <duration>173.1</duration>
        <type>1</type>
        <step>4</step>
      </extensions>
    </rtept>
    <rtept lat="24.310992" lon="120.553194">
      <name>高美路, 中50</name>
      <desc>Turn right onto 高美路, 中50</desc>
      <extensions>
        <distance>865.6</distance>
        <duration>173.1</duration>
        <type>1</type>
        <step>4</step>
      </extensions>
    </rtept>
    <rtept lat="24.310924" lon="120.553631">
      <name>高美路, 中50</name>
      <desc>Turn right onto 高美路, 中50</desc>
      <extensions>
        <distance>865.6</distance>
        <duration>173.1</duration>
        <type>1</type>
        <step>4</step>
      </extensions>
    </rtept>
    <rtept lat="24.310899" lon="120.553787">
      <name>高美路, 中50</name>
      <desc>Turn right onto 高美路, 中50</desc>
      <extensions>
        <distance>865.6</distance>
        <duration>173.1</duration>
        <type>1</type>
        <step>4</step>
      </extensions>
    </rtept>
    <rtept lat="24.310921" lon="120.55401">
      <name>高美路, 中50</name>
      <desc>Turn right onto 高美路, 中50</desc>
      <extensions>
        <distance>865.6</distance>
        <duration>173.1</duration>
        <type>1</type>
        <step>4</step>
      </extensions>
    </rtept>
    <rtept lat="24.310955" lon="120.554164">
      <name>高美路, 中50</name>
      <desc>Turn right onto 高美路, 中50</desc>
      <extensions>
        <distance>865.6</distance>
        <duration>173.1</duration>
        <type>1</type>
        <step>4</step>
      </extensions>
    </rtept>
    <rtept lat="24.311043" lon="120.554324">
      <name>高美路, 中50</name>
      <desc>Turn right onto 高美路, 中50</desc>
      <extensions>
        <distance>865.6</distance>
        <duration>173.1</duration>
        <type>1</type>
        <step>4</step>
      </extensions>
    </rtept>
    <rtept lat="24.311153" lon="120.55456">
      <name>高美路, 中50</name>
      <desc>Turn right onto 高美路, 中50</desc>
      <extensions>
        <distance>865.6</distance>
        <duration>173.1</duration>
        <type>1</type>
        <step>4</step>
      </extensions>
    </rtept>
    <rtept lat="24.311173" lon="120.554696">
      <name>高美路, 中50</name>
      <desc>Turn right onto 高美路, 中50</desc>
      <extensions>
        <distance>865.6</distance>
        <duration>173.1</duration>
        <type>1</type>
        <step>4</step>
      </extensions>
    </rtept>
    <rtept lat="24.311152" lon="120.55507">
      <name>高美路, 中50</name>
      <desc>Turn right onto 高美路, 中50</desc>
      <extensions>
        <distance>865.6</distance>
        <duration>173.1</duration>
        <type>1</type>
        <step>4</step>
      </extensions>
    </rtept>
    <rtept lat="24.311118" lon="120.555217">
      <name>高美路, 中50</name>
      <desc>Turn right onto 高美路, 中50</desc>
      <extensions>
        <distance>865.6</distance>
        <duration>173.1</duration>
        <type>1</type>
        <step>4</step>
      </extensions>
    </rtept>
    <rtept lat="24.310971" lon="120.555774">
      <name>高美路, 中50</name>
      <desc>Turn right onto 高美路, 中50</desc>
      <extensions>
        <distance>865.6</distance>
        <duration>173.1</duration>
        <type>1</type>
        <step>4</step>
      </extensions>
    </rtept>
    <rtept lat="24.310882" lon="120.556308">
      <name>高美路, 中50</name>
      <desc>Turn right onto 高美路, 中50</desc>
      <extensions>
        <distance>865.6</distance>
        <duration>173.1</duration>
        <type>1</type>
        <step>4</step>
      </extensions>
    </rtept>
    <rtept lat="24.310887" lon="120.556464">
      <name>高美路, 中50</name>
      <desc>Turn right onto 高美路, 中50</desc>
      <extensions>
        <distance>865.6</distance>
        <duration>173.1</duration>
        <type>1</type>
        <step>4</step>
      </extensions>
    </rtept>
    <rtept lat="24.310919" lon="120.556865">
      <name>高美路, 中50</name>
      <desc>Turn right onto 高美路, 中50</desc>
      <extensions>
        <distance>865.6</distance>
        <duration>173.1</duration>
        <type>1</type>
        <step>4</step>
      </extensions>
    </rtept>
    <rtept lat="24.31093" lon="120.557073">
      <name>高美路, 中50</name>
      <desc>Turn right onto 高美路, 中50</desc>
      <extensions>
        <distance>865.6</distance>
        <duration>173.1</duration>
        <type>1</type>
        <step>4</step>
      </extensions>
    </rtept>
    <rtept lat="24.31086" lon="120.557282">
      <name>高美路, 中50</name>
      <desc>Turn right onto 高美路, 中50</desc>
      <extensions>
        <distance>865.6</distance>
        <duration>173.1</duration>
        <type>1</type>
        <step>4</step>
      </extensions>
    </rtept>
    <rtept lat="24.310597" lon="120.557589">
      <name>高美路, 中50</name>
      <desc>Turn right onto 高美路, 中50</desc>
      <extensions>
        <distance>865.6</distance>
        <duration>173.1</duration>
        <type>1</type>
        <step>4</step>
      </extensions>
    </rtept>
    <rtept lat="24.310459" lon="120.557918">
      <name>高美路, 中50</name>
      <desc>Turn right onto 高美路, 中50</desc>
      <extensions>
        <distance>865.6</distance>
        <duration>173.1</duration>
        <type>1</type>
        <step>4</step>
      </extensions>
    </rtept>
    <rtept lat="24.309933" lon="120.558566">
      <name>港埠路五段</name>
      <desc>Turn right onto 港埠路五段</desc>
      <extensions>
        <distance>958.3</distance>
        <duration>191.7</duration>
        <type>1</type>
        <step>5</step>
      </extensions>
    </rtept>
    <rtept lat="24.30871" lon="120.557914">
      <name>港埠路五段</name>
      <desc>Turn right onto 港埠路五段</desc>
      <extensions>
        <distance>958.3</distance>
        <duration>191.7</duration>
        <type>1</type>
        <step>5</step>
      </extensions>
    </rtept>
    <rtept lat="24.305792" lon="120.556412">
      <name>港埠路五段</name>
      <desc>Turn right onto 港埠路五段</desc>
      <extensions>
        <distance>958.3</distance>
        <duration>191.7</duration>
        <type>1</type>
        <step>5</step>
      </extensions>
    </rtept>
    <rtept lat="24.302786" lon="120.554813">
      <name>港埠路五段</name>
      <desc>Turn right onto 港埠路五段</desc>
      <extensions>
        <distance>958.3</distance>
        <duration>191.7</duration>
        <type>1</type>
        <step>5</step>
      </extensions>
    </rtept>
    <rtept lat="24.302139" lon="120.554533">
      <name>港埠路五段</name>
      <desc>Keep right onto 港埠路五段</desc>
      <extensions>
        <distance>957.9</distance>
        <duration>191.6</duration>
        <type>13</type>
        <step>6</step>
      </extensions>
    </rtept>
    <rtept lat="24.302015" lon="120.554502">
      <name>港埠路五段</name>
      <desc>Keep right onto 港埠路五段</desc>
      <extensions>
        <distance>957.9</distance>
        <duration>191.6</duration>
        <type>13</type>
        <step>6</step>
      </extensions>
    </rtept>
    <rtept lat="24.301887" lon="120.554438">
      <name>港埠路五段</name>
      <desc>Keep right onto 港埠路五段</desc>
      <extensions>
        <distance>957.9</distance>
        <duration>191.6</duration>
        <type>13</type>
        <step>6</step>
      </extensions>
    </rtept>
    <rtept lat="24.300964" lon="120.554073">
      <name>港埠路五段</name>
      <desc>Keep right onto 港埠路五段</desc>
      <extensions>
        <distance>957.9</distance>
        <duration>191.6</duration>
        <type>13</type>
        <step>6</step>
      </extensions>
    </rtept>
    <rtept lat="24.299548" lon="120.553579">
      <name>港埠路五段</name>
      <desc>Keep right onto 港埠路五段</desc>
      <extensions>
        <distance>957.9</distance>
        <duration>191.6</duration>
        <type>13</type>
        <step>6</step>
      </extensions>
    </rtept>
    <rtept lat="24.297166" lon="120.552893">
      <name>港埠路五段</name>
      <desc>Keep right onto 港埠路五段</desc>
      <extensions>
        <distance>957.9</distance>
        <duration>191.6</duration>
        <type>13</type>
        <step>6</step>
      </extensions>
    </rtept>
    <rtept lat="24.296844" lon="120.55285">
      <name>港埠路五段</name>
      <desc>Keep right onto 港埠路五段</desc>
      <extensions>
        <distance>957.9</distance>
        <duration>191.6</duration>
        <type>13</type>
        <step>6</step>
      </extensions>
    </rtept>
    <rtept lat="24.296509" lon="120.552757">
      <name>港埠路五段</name>
      <desc>Keep right onto 港埠路五段</desc>
      <extensions>
        <distance>957.9</distance>
        <duration>191.6</duration>
        <type>13</type>
        <step>6</step>
      </extensions>
    </rtept>
    <rtept lat="24.296477" lon="120.552748">
      <name>港埠路五段</name>
      <desc>Keep right onto 港埠路五段</desc>
      <extensions>
        <distance>957.9</distance>
        <duration>191.6</duration>
        <type>13</type>
        <step>6</step>
      </extensions>
    </rtept>
    <rtept lat="24.296351" lon="120.552721">
      <name>港埠路五段</name>
      <desc>Keep right onto 港埠路五段</desc>
      <extensions>
        <distance>957.9</distance>
        <duration>191.6</duration>
        <type>13</type>
        <step>6</step>
      </extensions>
    </rtept>
    <rtept lat="24.296229" lon="120.552692">
      <name>港埠路五段</name>
      <desc>Keep right onto 港埠路五段</desc>
      <extensions>
        <distance>957.9</distance>
        <duration>191.6</duration>
        <type>13</type>
        <step>6</step>
      </extensions>
    </rtept>
    <rtept lat="24.296097" lon="120.552652">
      <name>港埠路五段</name>
      <desc>Keep right onto 港埠路五段</desc>
      <extensions>
        <distance>957.9</distance>
        <duration>191.6</duration>
        <type>13</type>
        <step>6</step>
      </extensions>
    </rtept>
    <rtept lat="24.295416" lon="120.552464">
      <name>港埠路五段</name>
      <desc>Keep right onto 港埠路五段</desc>
      <extensions>
        <distance>957.9</distance>
        <duration>191.6</duration>
        <type>13</type>
        <step>6</step>
      </extensions>
    </rtept>
    <rtept lat="24.295298" lon="120.552423">
      <name>港埠路五段</name>
      <desc>Keep right onto 港埠路五段</desc>
      <extensions>
        <distance>957.9</distance>
        <duration>191.6</duration>
        <type>13</type>
        <step>6</step>
      </extensions>
    </rtept>
    <rtept lat="24.29448" lon="120.5522">
      <name>港埠路五段</name>
      <desc>Keep right onto 港埠路五段</desc>
      <extensions>
        <distance>957.9</distance>
        <duration>191.6</duration>
        <type>13</type>
        <step>6</step>
      </extensions>
    </rtept>
    <rtept lat="24.294124" lon="120.552102">
      <name>港埠路五段</name>
      <desc>Keep right onto 港埠路五段</desc>
      <extensions>
        <distance>957.9</distance>
        <duration>191.6</duration>
        <type>13</type>
        <step>6</step>
      </extensions>
    </rtept>
    <rtept lat="24.293936" lon="120.552041">
      <name>港埠路五段</name>
      <desc>Keep right onto 港埠路五段</desc>
      <extensions>
        <distance>957.9</distance>
        <duration>191.6</duration>
        <type>13</type>
        <step>6</step>
      </extensions>
    </rtept>
    <rtept lat="24.293849" lon="120.552008">
      <name>臨港路六段, 17</name>
      <desc>Turn right onto 臨港路六段, 17</desc>
      <extensions>
        <distance>5545.9</distance>
        <duration>1109.2</duration>
        <type>1</type>
        <step>7</step>
      </extensions>
    </rtept>
    <rtept lat="24.293456" lon="120.550579">
      <name>臨港路六段, 17</name>
      <desc>Turn right onto 臨港路六段, 17</desc>
      <extensions>
        <distance>5545.9</distance>
        <duration>1109.2</duration>
        <type>1</type>
        <step>7</step>
      </extensions>
    </rtept>
    <rtept lat="24.292988" lon="120.548845">
      <name>臨港路六段, 17</name>
      <desc>Turn right onto 臨港路六段, 17</desc>
      <extensions>
        <distance>5545.9</distance>
        <duration>1109.2</duration>
        <type>1</type>
        <step>7</step>
      </extensions>
    </rtept>
    <rtept lat="24.291934" lon="120.544937">
      <name>臨港路六段, 17</name>
      <desc>Turn right onto 臨港路六段, 17</desc>
      <extensions>
        <distance>5545.9</distance>
        <duration>1109.2</duration>
        <type>1</type>
        <step>7</step>
      </extensions>
    </rtept>
    <rtept lat="24.291437" lon="120.54309">
      <name>臨港路六段, 17</name>
      <desc>Turn right onto 臨港路六段, 17</desc>
      <extensions>
        <distance>5545.9</distance>
        <duration>1109.2</duration>
        <type>1</type>
        <step>7</step>
      </extensions>
    </rtept>
    <rtept lat="24.291244" lon="120.542568">
      <name>臨港路六段, 17</name>
      <desc>Turn right onto 臨港路六段, 17</desc>
      <extensions>
        <distance>5545.9</distance>
        <duration>1109.2</duration>
        <type>1</type>
        <step>7</step>
      </extensions>
    </rtept>
    <rtept lat="24.291126" lon="120.542311">
      <name>臨港路六段, 17</name>
      <desc>Turn right onto 臨港路六段, 17</desc>
      <extensions>
        <distance>5545.9</distance>
        <duration>1109.2</duration>
        <type>1</type>
        <step>7</step>
      </extensions>
    </rtept>
    <rtept lat="24.290986" lon="120.542048">
      <name>臨港路六段, 17</name>
      <desc>Turn right onto 臨港路六段, 17</desc>
      <extensions>
        <distance>5545.9</distance>
        <duration>1109.2</duration>
        <type>1</type>
        <step>7</step>
      </extensions>
    </rtept>
    <rtept lat="24.290778" lon="120.541717">
      <name>臨港路六段, 17</name>
      <desc>Turn right onto 臨港路六段, 17</desc>
      <extensions>
        <distance>5545.9</distance>
        <duration>1109.2</duration>
        <type>1</type>
        <step>7</step>
      </extensions>
    </rtept>
    <rtept lat="24.290509" lon="120.541363">
      <name>臨港路六段, 17</name>
      <desc>Turn right onto 臨港路六段, 17</desc>
      <extensions>
        <distance>5545.9</distance>
        <duration>1109.2</duration>
        <type>1</type>
        <step>7</step>
      </extensions>
    </rtept>
    <rtept lat="24.290222" lon="120.541039">
      <name>臨港路六段, 17</name>
      <desc>Turn right onto 臨港路六段, 17</desc>
      <extensions>
        <distance>5545.9</distance>
        <duration>1109.2</duration>
        <type>1</type>
        <step>7</step>
      </extensions>
    </rtept>
    <rtept lat="24.289856" lon="120.540662">
      <name>臨港路六段, 17</name>
      <desc>Turn right onto 臨港路六段, 17</desc>
      <extensions>
        <distance>5545.9</distance>
        <duration>1109.2</duration>
        <type>1</type>
        <step>7</step>
      </extensions>
    </rtept>
    <rtept lat="24.289767" lon="120.54059">
      <name>臨港路六段, 17</name>
      <desc>Turn right onto 臨港路六段, 17</desc>
      <extensions>
        <distance>5545.9</distance>
        <duration>1109.2</duration>
        <type>1</type>
        <step>7</step>
      </extensions>
    </rtept>
    <rtept lat="24.289659" lon="120.54049">
      <name>臨港路六段, 17</name>
      <desc>Turn right onto 臨港路六段, 17</desc>
      <extensions>
        <distance>5545.9</distance>
        <duration>1109.2</duration>
        <type>1</type>
        <step>7</step>
      </extensions>
    </rtept>
    <rtept lat="24.289321" lon="120.540178">
      <name>臨港路六段, 17</name>
      <desc>Turn right onto 臨港路六段, 17</desc>
      <extensions>
        <distance>5545.9</distance>
        <duration>1109.2</duration>
        <type>1</type>
        <step>7</step>
      </extensions>
    </rtept>
    <rtept lat="24.289212" lon="120.540064">
      <name>臨港路六段, 17</name>
      <desc>Turn right onto 臨港路六段, 17</desc>
      <extensions>
        <distance>5545.9</distance>
        <duration>1109.2</duration>
        <type>1</type>
        <step>7</step>
      </extensions>
    </rtept>
    <rtept lat="24.288885" lon="120.539801">
      <name>臨港路六段, 17</name>
      <desc>Turn right onto 臨港路六段, 17</desc>
      <extensions>
        <distance>5545.9</distance>
        <duration>1109.2</duration>
        <type>1</type>
        <step>7</step>
      </extensions>
    </rtept>
    <rtept lat="24.288206" lon="120.539305">
      <name>臨港路六段, 17</name>
      <desc>Turn right onto 臨港路六段, 17</desc>
      <extensions>
        <distance>5545.9</distance>
        <duration>1109.2</duration>
        <type>1</type>
        <step>7</step>
      </extensions>
    </rtept>
    <rtept lat="24.28775" lon="120.539019">
      <name>臨港路六段, 17</name>
      <desc>Turn right onto 臨港路六段, 17</desc>
      <extensions>
        <distance>5545.9</distance>
        <duration>1109.2</duration>
        <type>1</type>
        <step>7</step>
      </extensions>
    </rtept>
    <rtept lat="24.287052" lon="120.538692">
      <name>臨港路六段, 17</name>
      <desc>Turn right onto 臨港路六段, 17</desc>
      <extensions>
        <distance>5545.9</distance>
        <duration>1109.2</duration>
        <type>1</type>
        <step>7</step>
      </extensions>
    </rtept>
    <rtept lat="24.285994" lon="120.538231">
      <name>臨港路六段, 17</name>
      <desc>Turn right onto 臨港路六段, 17</desc>
      <extensions>
        <distance>5545.9</distance>
        <duration>1109.2</duration>
        <type>1</type>
        <step>7</step>
      </extensions>
    </rtept>
    <rtept lat="24.283159" lon="120.537012">
      <name>臨港路六段, 17</name>
      <desc>Turn right onto 臨港路六段, 17</desc>
      <extensions>
        <distance>5545.9</distance>
        <duration>1109.2</duration>
        <type>1</type>
        <step>7</step>
      </extensions>
    </rtept>
    <rtept lat="24.281511" lon="120.53631">
      <name>臨港路六段, 17</name>
      <desc>Turn right onto 臨港路六段, 17</desc>
      <extensions>
        <distance>5545.9</distance>
        <duration>1109.2</duration>
        <type>1</type>
        <step>7</step>
      </extensions>
    </rtept>
    <rtept lat="24.281351" lon="120.536241">
      <name>臨港路六段, 17</name>
      <desc>Turn right onto 臨港路六段, 17</desc>
      <extensions>
        <distance>5545.9</distance>
        <duration>1109.2</duration>
        <type>1</type>
        <step>7</step>
      </extensions>
    </rtept>
    <rtept lat="24.279163" lon="120.535332">
      <name>臨港路六段, 17</name>
      <desc>Turn right onto 臨港路六段, 17</desc>
      <extensions>
        <distance>5545.9</distance>
        <duration>1109.2</duration>
        <type>1</type>
        <step>7</step>
      </extensions>
    </rtept>
    <rtept lat="24.279012" lon="120.535268">
      <name>臨港路六段, 17</name>
      <desc>Turn right onto 臨港路六段, 17</desc>
      <extensions>
        <distance>5545.9</distance>
        <duration>1109.2</duration>
        <type>1</type>
        <step>7</step>
      </extensions>
    </rtept>
    <rtept lat="24.278769" lon="120.535162">
      <name>臨港路六段, 17</name>
      <desc>Turn right onto 臨港路六段, 17</desc>
      <extensions>
        <distance>5545.9</distance>
        <duration>1109.2</duration>
        <type>1</type>
        <step>7</step>
      </extensions>
    </rtept>
    <rtept lat="24.276215" lon="120.534052">
      <name>臨港路六段, 17</name>
      <desc>Turn right onto 臨港路六段, 17</desc>
      <extensions>
        <distance>5545.9</distance>
        <duration>1109.2</duration>
        <type>1</type>
        <step>7</step>
      </extensions>
    </rtept>
    <rtept lat="24.27398" lon="120.533104">
      <name>臨港路六段, 17</name>
      <desc>Turn right onto 臨港路六段, 17</desc>
      <extensions>
        <distance>5545.9</distance>
        <duration>1109.2</duration>
        <type>1</type>
        <step>7</step>
      </extensions>
    </rtept>
    <rtept lat="24.272927" lon="120.532651">
      <name>臨港路六段, 17</name>
      <desc>Turn right onto 臨港路六段, 17</desc>
      <extensions>
        <distance>5545.9</distance>
        <duration>1109.2</duration>
        <type>1</type>
        <step>7</step>
      </extensions>
    </rtept>
    <rtept lat="24.272535" lon="120.532484">
      <name>臨港路六段, 17</name>
      <desc>Turn right onto 臨港路六段, 17</desc>
      <extensions>
        <distance>5545.9</distance>
        <duration>1109.2</duration>
        <type>1</type>
        <step>7</step>
      </extensions>
    </rtept>
    <rtept lat="24.272457" lon="120.532451">
      <name>臨港路六段, 17</name>
      <desc>Turn right onto 臨港路六段, 17</desc>
      <extensions>
        <distance>5545.9</distance>
        <duration>1109.2</duration>
        <type>1</type>
        <step>7</step>
      </extensions>
    </rtept>
    <rtept lat="24.272385" lon="120.53242">
      <name>臨港路六段, 17</name>
      <desc>Turn right onto 臨港路六段, 17</desc>
      <extensions>
        <distance>5545.9</distance>
        <duration>1109.2</duration>
        <type>1</type>
        <step>7</step>
      </extensions>
    </rtept>
    <rtept lat="24.272314" lon="120.53239">
      <name>臨港路六段, 17</name>
      <desc>Turn right onto 臨港路六段, 17</desc>
      <extensions>
        <distance>5545.9</distance>
        <duration>1109.2</duration>
        <type>1</type>
        <step>7</step>
      </extensions>
    </rtept>
    <rtept lat="24.272197" lon="120.53234">
      <name>臨港路六段, 17</name>
      <desc>Turn right onto 臨港路六段, 17</desc>
      <extensions>
        <distance>5545.9</distance>
        <duration>1109.2</duration>
        <type>1</type>
        <step>7</step>
      </extensions>
    </rtept>
    <rtept lat="24.270968" lon="120.531816">
      <name>臨港路六段, 17</name>
      <desc>Turn right onto 臨港路六段, 17</desc>
      <extensions>
        <distance>5545.9</distance>
        <duration>1109.2</duration>
        <type>1</type>
        <step>7</step>
      </extensions>
    </rtept>
    <rtept lat="24.269099" lon="120.53102">
      <name>臨港路六段, 17</name>
      <desc>Turn right onto 臨港路六段, 17</desc>
      <extensions>
        <distance>5545.9</distance>
        <duration>1109.2</duration>
        <type>1</type>
        <step>7</step>
      </extensions>
    </rtept>
    <rtept lat="24.269026" lon="120.530988">
      <name>臨港路六段, 17</name>
      <desc>Turn right onto 臨港路六段, 17</desc>
      <extensions>
        <distance>5545.9</distance>
        <duration>1109.2</duration>
        <type>1</type>
        <step>7</step>
      </extensions>
    </rtept>
    <rtept lat="24.268913" lon="120.53094">
      <name>臨港路六段, 17</name>
      <desc>Turn right onto 臨港路六段, 17</desc>
      <extensions>
        <distance>5545.9</distance>
        <duration>1109.2</duration>
        <type>1</type>
        <step>7</step>
      </extensions>
    </rtept>
    <rtept lat="24.268837" lon="120.530908">
      <name>臨港路六段, 17</name>
      <desc>Turn right onto 臨港路六段, 17</desc>
      <extensions>
        <distance>5545.9</distance>
        <duration>1109.2</duration>
        <type>1</type>
        <step>7</step>
      </extensions>
    </rtept>
    <rtept lat="24.265521" lon="120.529495">
      <name>臨港路六段, 17</name>
      <desc>Turn right onto 臨港路六段, 17</desc>
      <extensions>
        <distance>5545.9</distance>
        <duration>1109.2</duration>
        <type>1</type>
        <step>7</step>
      </extensions>
    </rtept>
    <rtept lat="24.265433" lon="120.529457">
      <name>臨港路六段, 17</name>
      <desc>Turn right onto 臨港路六段, 17</desc>
      <extensions>
        <distance>5545.9</distance>
        <duration>1109.2</duration>
        <type>1</type>
        <step>7</step>
      </extensions>
    </rtept>
    <rtept lat="24.265315" lon="120.529407">
      <name>臨港路六段, 17</name>
      <desc>Turn right onto 臨港路六段, 17</desc>
      <extensions>
        <distance>5545.9</distance>
        <duration>1109.2</duration>
        <type>1</type>
        <step>7</step>
      </extensions>
    </rtept>
    <rtept lat="24.265224" lon="120.529368">
      <name>臨港路六段, 17</name>
      <desc>Turn right onto 臨港路六段, 17</desc>
      <extensions>
        <distance>5545.9</distance>
        <duration>1109.2</duration>
        <type>1</type>
        <step>7</step>
      </extensions>
    </rtept>
    <rtept lat="24.262115" lon="120.528043">
      <name>臨港路六段, 17</name>
      <desc>Turn right onto 臨港路六段, 17</desc>
      <extensions>
        <distance>5545.9</distance>
        <duration>1109.2</duration>
        <type>1</type>
        <step>7</step>
      </extensions>
    </rtept>
    <rtept lat="24.261995" lon="120.527992">
      <name>臨港路六段, 17</name>
      <desc>Turn right onto 臨港路六段, 17</desc>
      <extensions>
        <distance>5545.9</distance>
        <duration>1109.2</duration>
        <type>1</type>
        <step>7</step>
      </extensions>
    </rtept>
    <rtept lat="24.26186" lon="120.527934">
      <name>臨港路六段, 17</name>
      <desc>Turn right onto 臨港路六段, 17</desc>
      <extensions>
        <distance>5545.9</distance>
        <duration>1109.2</duration>
        <type>1</type>
        <step>7</step>
      </extensions>
    </rtept>
    <rtept lat="24.261039" lon="120.527585">
      <name>臨港路六段, 17</name>
      <desc>Turn right onto 臨港路六段, 17</desc>
      <extensions>
        <distance>5545.9</distance>
        <duration>1109.2</duration>
        <type>1</type>
        <step>7</step>
      </extensions>
    </rtept>
    <rtept lat="24.259383" lon="120.526879">
      <name>臨港路六段, 17</name>
      <desc>Turn right onto 臨港路六段, 17</desc>
      <extensions>
        <distance>5545.9</distance>
        <duration>1109.2</duration>
        <type>1</type>
        <step>7</step>
      </extensions>
    </rtept>
    <rtept lat="24.258094" lon="120.526329">
      <name>臨港路六段, 17</name>
      <desc>Turn right onto 臨港路六段, 17</desc>
      <extensions>
        <distance>5545.9</distance>
        <duration>1109.2</duration>
        <type>1</type>
        <step>7</step>
      </extensions>
    </rtept>
    <rtept lat="24.256417" lon="120.525597">
      <name>臨港路六段, 17</name>
      <desc>Turn right onto 臨港路六段, 17</desc>
      <extensions>
        <distance>5545.9</distance>
        <duration>1109.2</duration>
        <type>1</type>
        <step>7</step>
      </extensions>
    </rtept>
    <rtept lat="24.254321" lon="120.524704">
      <name>臨港路六段, 17</name>
      <desc>Turn right onto 臨港路六段, 17</desc>
      <extensions>
        <distance>5545.9</distance>
        <duration>1109.2</duration>
        <type>1</type>
        <step>7</step>
      </extensions>
    </rtept>
    <rtept lat="24.254167" lon="120.524636">
      <name>臺灣大道十段</name>
      <desc>Turn left onto 臺灣大道十段</desc>
      <extensions>
        <distance>11.1</distance>
        <duration>2.2</duration>
        <type>0</type>
        <step>8</step>
      </extensions>
    </rtept>
    <rtept lat="24.254129" lon="120.524738">
      <name>臨港路三段, 17</name>
      <desc>Turn right onto 臨港路三段, 17</desc>
      <extensions>
        <distance>7038.5</distance>
        <duration>1407.7</duration>
        <type>1</type>
        <step>9</step>
      </extensions>
    </rtept>
    <rtept lat="24.249311" lon="120.522613">
      <name>臨港路三段, 17</name>
      <desc>Turn right onto 臨港路三段, 17</desc>
      <extensions>
        <distance>7038.5</distance>
        <duration>1407.7</duration>
        <type>1</type>
        <step>9</step>
      </extensions>
    </rtept>
    <rtept lat="24.249228" lon="120.522577">
      <name>臨港路三段, 17</name>
      <desc>Turn right onto 臨港路三段, 17</desc>
      <extensions>
        <distance>7038.5</distance>
        <duration>1407.7</duration>
        <type>1</type>
        <step>9</step>
      </extensions>
    </rtept>
    <rtept lat="24.248516" lon="120.522263">
      <name>臨港路三段, 17</name>
      <desc>Turn right onto 臨港路三段, 17</desc>
      <extensions>
        <distance>7038.5</distance>
        <duration>1407.7</duration>
        <type>1</type>
        <step>9</step>
      </extensions>
    </rtept>
    <rtept lat="24.245531" lon="120.520946">
      <name>臨港路三段, 17</name>
      <desc>Turn right onto 臨港路三段, 17</desc>
      <extensions>
        <distance>7038.5</distance>
        <duration>1407.7</duration>
        <type>1</type>
        <step>9</step>
      </extensions>
    </rtept>
    <rtept lat="24.24512" lon="120.520765">
      <name>臨港路三段, 17</name>
      <desc>Turn right onto 臨港路三段, 17</desc>
      <extensions>
        <distance>7038.5</distance>
        <duration>1407.7</duration>
        <type>1</type>
        <step>9</step>
      </extensions>
    </rtept>
    <rtept lat="24.244615" lon="120.520543">
      <name>臨港路三段, 17</name>
      <desc>Turn right onto 臨港路三段, 17</desc>
      <extensions>
        <distance>7038.5</distance>
        <duration>1407.7</duration>
        <type>1</type>
        <step>9</step>
      </extensions>
    </rtept>
    <rtept lat="24.244472" lon="120.52047">
      <name>臨港路三段, 17</name>
      <desc>Turn right onto 臨港路三段, 17</desc>
      <extensions>
        <distance>7038.5</distance>
        <duration>1407.7</duration>
        <type>1</type>
        <step>9</step>
      </extensions>
    </rtept>
    <rtept lat="24.240601" lon="120.518799">
      <name>臨港路三段, 17</name>
      <desc>Turn right onto 臨港路三段, 17</desc>
      <extensions>
        <distance>7038.5</distance>
        <duration>1407.7</duration>
        <type>1</type>
        <step>9</step>
      </extensions>
    </rtept>
    <rtept lat="24.238873" lon="120.518049">
      <name>臨港路三段, 17</name>
      <desc>Turn right onto 臨港路三段, 17</desc>
      <extensions>
        <distance>7038.5</distance>
        <duration>1407.7</duration>
        <type>1</type>
        <step>9</step>
      </extensions>
    </rtept>
    <rtept lat="24.23497" lon="120.516293">
      <name>臨港路三段, 17</name>
      <desc>Turn right onto 臨港路三段, 17</desc>
      <extensions>
        <distance>7038.5</distance>
        <duration>1407.7</duration>
        <type>1</type>
        <step>9</step>
      </extensions>
    </rtept>
    <rtept lat="24.234725" lon="120.516217">
      <name>臨港路三段, 17</name>
      <desc>Turn right onto 臨港路三段, 17</desc>
      <extensions>
        <distance>7038.5</distance>
        <duration>1407.7</duration>
        <type>1</type>
        <step>9</step>
      </extensions>
    </rtept>
    <rtept lat="24.23354" lon="120.515692">
      <name>臨港路三段, 17</name>
      <desc>Turn right onto 臨港路三段, 17</desc>
      <extensions>
        <distance>7038.5</distance>
        <duration>1407.7</duration>
        <type>1</type>
        <step>9</step>
      </extensions>
    </rtept>
    <rtept lat="24.23202" lon="120.515045">
      <name>臨港路三段, 17</name>
      <desc>Turn right onto 臨港路三段, 17</desc>
      <extensions>
        <distance>7038.5</distance>
        <duration>1407.7</duration>
        <type>1</type>
        <step>9</step>
      </extensions>
    </rtept>
    <rtept lat="24.230706" lon="120.514504">
      <name>臨港路三段, 17</name>
      <desc>Turn right onto 臨港路三段, 17</desc>
      <extensions>
        <distance>7038.5</distance>
        <duration>1407.7</duration>
        <type>1</type>
        <step>9</step>
      </extensions>
    </rtept>
    <rtept lat="24.230519" lon="120.514396">
      <name>臨港路三段, 17</name>
      <desc>Turn right onto 臨港路三段, 17</desc>
      <extensions>
        <distance>7038.5</distance>
        <duration>1407.7</duration>
        <type>1</type>
        <step>9</step>
      </extensions>
    </rtept>
    <rtept lat="24.230186" lon="120.51425">
      <name>臨港路三段, 17</name>
      <desc>Turn right onto 臨港路三段, 17</desc>
      <extensions>
        <distance>7038.5</distance>
        <duration>1407.7</duration>
        <type>1</type>
        <step>9</step>
      </extensions>
    </rtept>
    <rtept lat="24.230088" lon="120.514172">
      <name>臨港路三段, 17</name>
      <desc>Turn right onto 臨港路三段, 17</desc>
      <extensions>
        <distance>7038.5</distance>
        <duration>1407.7</duration>
        <type>1</type>
        <step>9</step>
      </extensions>
    </rtept>
    <rtept lat="24.229901" lon="120.514122">
      <name>臨港路三段, 17</name>
      <desc>Turn right onto 臨港路三段, 17</desc>
      <extensions>
        <distance>7038.5</distance>
        <duration>1407.7</duration>
        <type>1</type>
        <step>9</step>
      </extensions>
    </rtept>
    <rtept lat="24.229812" lon="120.514089">
      <name>臨港路三段, 17</name>
      <desc>Turn right onto 臨港路三段, 17</desc>
      <extensions>
        <distance>7038.5</distance>
        <duration>1407.7</duration>
        <type>1</type>
        <step>9</step>
      </extensions>
    </rtept>
    <rtept lat="24.229519" lon="120.513967">
      <name>臨港路三段, 17</name>
      <desc>Turn right onto 臨港路三段, 17</desc>
      <extensions>
        <distance>7038.5</distance>
        <duration>1407.7</duration>
        <type>1</type>
        <step>9</step>
      </extensions>
    </rtept>
    <rtept lat="24.229474" lon="120.513949">
      <name>臨港路三段, 17</name>
      <desc>Turn right onto 臨港路三段, 17</desc>
      <extensions>
        <distance>7038.5</distance>
        <duration>1407.7</duration>
        <type>1</type>
        <step>9</step>
      </extensions>
    </rtept>
    <rtept lat="24.229367" lon="120.513946">
      <name>臨港路三段, 17</name>
      <desc>Turn right onto 臨港路三段, 17</desc>
      <extensions>
        <distance>7038.5</distance>
        <duration>1407.7</duration>
        <type>1</type>
        <step>9</step>
      </extensions>
    </rtept>
    <rtept lat="24.228382" lon="120.513521">
      <name>臨港路三段, 17</name>
      <desc>Turn right onto 臨港路三段, 17</desc>
      <extensions>
        <distance>7038.5</distance>
        <duration>1407.7</duration>
        <type>1</type>
        <step>9</step>
      </extensions>
    </rtept>
    <rtept lat="24.2279" lon="120.513309">
      <name>臨港路三段, 17</name>
      <desc>Turn right onto 臨港路三段, 17</desc>
      <extensions>
        <distance>7038.5</distance>
        <duration>1407.7</duration>
        <type>1</type>
        <step>9</step>
      </extensions>
    </rtept>
    <rtept lat="24.227799" lon="120.513243">
      <name>臨港路三段, 17</name>
      <desc>Turn right onto 臨港路三段, 17</desc>
      <extensions>
        <distance>7038.5</distance>
        <duration>1407.7</duration>
        <type>1</type>
        <step>9</step>
      </extensions>
    </rtept>
    <rtept lat="24.227564" lon="120.513115">
      <name>臨港路三段, 17</name>
      <desc>Turn right onto 臨港路三段, 17</desc>
      <extensions>
        <distance>7038.5</distance>
        <duration>1407.7</duration>
        <type>1</type>
        <step>9</step>
      </extensions>
    </rtept>
    <rtept lat="24.22737" lon="120.513033">
      <name>臨港路三段, 17</name>
      <desc>Turn right onto 臨港路三段, 17</desc>
      <extensions>
        <distance>7038.5</distance>
        <duration>1407.7</duration>
        <type>1</type>
        <step>9</step>
      </extensions>
    </rtept>
    <rtept lat="24.227201" lon="120.512955">
      <name>臨港路三段, 17</name>
      <desc>Turn right onto 臨港路三段, 17</desc>
      <extensions>
        <distance>7038.5</distance>
        <duration>1407.7</duration>
        <type>1</type>
        <step>9</step>
      </extensions>
    </rtept>
    <rtept lat="24.226727" lon="120.51276">
      <name>臨港路三段, 17</name>
      <desc>Turn right onto 臨港路三段, 17</desc>
      <extensions>
        <distance>7038.5</distance>
        <duration>1407.7</duration>
        <type>1</type>
        <step>9</step>
      </extensions>
    </rtept>
    <rtept lat="24.226249" lon="120.512591">
      <name>臨港路三段, 17</name>
      <desc>Turn right onto 臨港路三段, 17</desc>
      <extensions>
        <distance>7038.5</distance>
        <duration>1407.7</duration>
        <type>1</type>
        <step>9</step>
      </extensions>
    </rtept>
    <rtept lat="24.226228" lon="120.512581">
      <name>臨港路三段, 17</name>
      <desc>Turn right onto 臨港路三段, 17</desc>
      <extensions>
        <distance>7038.5</distance>
        <duration>1407.7</duration>
        <type>1</type>
        <step>9</step>
      </extensions>
    </rtept>
    <rtept lat="24.22592" lon="120.512447">
      <name>臨港路三段, 17</name>
      <desc>Turn right onto 臨港路三段, 17</desc>
      <extensions>
        <distance>7038.5</distance>
        <duration>1407.7</duration>
        <type>1</type>
        <step>9</step>
      </extensions>
    </rtept>
    <rtept lat="24.225487" lon="120.512287">
      <name>臨港路三段, 17</name>
      <desc>Turn right onto 臨港路三段, 17</desc>
      <extensions>
        <distance>7038.5</distance>
        <duration>1407.7</duration>
        <type>1</type>
        <step>9</step>
      </extensions>
    </rtept>
    <rtept lat="24.224855" lon="120.512013">
      <name>臨港路三段, 17</name>
      <desc>Turn right onto 臨港路三段, 17</desc>
      <extensions>
        <distance>7038.5</distance>
        <duration>1407.7</duration>
        <type>1</type>
        <step>9</step>
      </extensions>
    </rtept>
    <rtept lat="24.223207" lon="120.511279">
      <name>臨港路三段, 17</name>
      <desc>Turn right onto 臨港路三段, 17</desc>
      <extensions>
        <distance>7038.5</distance>
        <duration>1407.7</duration>
        <type>1</type>
        <step>9</step>
      </extensions>
    </rtept>
    <rtept lat="24.223164" lon="120.51126">
      <name>臨港路三段, 17</name>
      <desc>Turn right onto 臨港路三段, 17</desc>
      <extensions>
        <distance>7038.5</distance>
        <duration>1407.7</duration>
        <type>1</type>
        <step>9</step>
      </extensions>
    </rtept>
    <rtept lat="24.221729" lon="120.510669">
      <name>臨港路三段, 17</name>
      <desc>Turn right onto 臨港路三段, 17</desc>
      <extensions>
        <distance>7038.5</distance>
        <duration>1407.7</duration>
        <type>1</type>
        <step>9</step>
      </extensions>
    </rtept>
    <rtept lat="24.2198" lon="120.509835">
      <name>臨港路三段, 17</name>
      <desc>Turn right onto 臨港路三段, 17</desc>
      <extensions>
        <distance>7038.5</distance>
        <duration>1407.7</duration>
        <type>1</type>
        <step>9</step>
      </extensions>
    </rtept>
    <rtept lat="24.218902" lon="120.509452">
      <name>臨港路三段, 17</name>
      <desc>Turn right onto 臨港路三段, 17</desc>
      <extensions>
        <distance>7038.5</distance>
        <duration>1407.7</duration>
        <type>1</type>
        <step>9</step>
      </extensions>
    </rtept>
    <rtept lat="24.218504" lon="120.509267">
      <name>臨港路三段, 17</name>
      <desc>Turn right onto 臨港路三段, 17</desc>
      <extensions>
        <distance>7038.5</distance>
        <duration>1407.7</duration>
        <type>1</type>
        <step>9</step>
      </extensions>
    </rtept>
    <rtept lat="24.218041" lon="120.509073">
      <name>臨港路三段, 17</name>
      <desc>Turn right onto 臨港路三段, 17</desc>
      <extensions>
        <distance>7038.5</distance>
        <duration>1407.7</duration>
        <type>1</type>
        <step>9</step>
      </extensions>
    </rtept>
    <rtept lat="24.217961" lon="120.509047">
      <name>臨港路三段, 17</name>
      <desc>Turn right onto 臨港路三段, 17</desc>
      <extensions>
        <distance>7038.5</distance>
        <duration>1407.7</duration>
        <type>1</type>
        <step>9</step>
      </extensions>
    </rtept>
    <rtept lat="24.215737" lon="120.508122">
      <name>臨港路三段, 17</name>
      <desc>Turn right onto 臨港路三段, 17</desc>
      <extensions>
        <distance>7038.5</distance>
        <duration>1407.7</duration>
        <type>1</type>
        <step>9</step>
      </extensions>
    </rtept>
    <rtept lat="24.214872" lon="120.507764">
      <name>臨港路三段, 17</name>
      <desc>Turn right onto 臨港路三段, 17</desc>
      <extensions>
        <distance>7038.5</distance>
        <duration>1407.7</duration>
        <type>1</type>
        <step>9</step>
      </extensions>
    </rtept>
    <rtept lat="24.214061" lon="120.507429">
      <name>臨港路三段, 17</name>
      <desc>Turn right onto 臨港路三段, 17</desc>
      <extensions>
        <distance>7038.5</distance>
        <duration>1407.7</duration>
        <type>1</type>
        <step>9</step>
      </extensions>
    </rtept>
    <rtept lat="24.213806" lon="120.507324">
      <name>臨港路三段, 17</name>
      <desc>Turn right onto 臨港路三段, 17</desc>
      <extensions>
        <distance>7038.5</distance>
        <duration>1407.7</duration>
        <type>1</type>
        <step>9</step>
      </extensions>
    </rtept>
    <rtept lat="24.212909" lon="120.506954">
      <name>臨港路三段, 17</name>
      <desc>Turn right onto 臨港路三段, 17</desc>
      <extensions>
        <distance>7038.5</distance>
        <duration>1407.7</duration>
        <type>1</type>
        <step>9</step>
      </extensions>
    </rtept>
    <rtept lat="24.211393" lon="120.506298">
      <name>臨港路三段, 17</name>
      <desc>Turn right onto 臨港路三段, 17</desc>
      <extensions>
        <distance>7038.5</distance>
        <duration>1407.7</duration>
        <type>1</type>
        <step>9</step>
      </extensions>
    </rtept>
    <rtept lat="24.210163" lon="120.505721">
      <name>臨港路三段, 17</name>
      <desc>Turn right onto 臨港路三段, 17</desc>
      <extensions>
        <distance>7038.5</distance>
        <duration>1407.7</duration>
        <type>1</type>
        <step>9</step>
      </extensions>
    </rtept>
    <rtept lat="24.20978" lon="120.505541">
      <name>臨港路三段, 17</name>
      <desc>Turn right onto 臨港路三段, 17</desc>
      <extensions>
        <distance>7038.5</distance>
        <duration>1407.7</duration>
        <type>1</type>
        <step>9</step>
      </extensions>
    </rtept>
    <rtept lat="24.209458" lon="120.505372">
      <name>臨港路三段, 17</name>
      <desc>Turn right onto 臨港路三段, 17</desc>
      <extensions>
        <distance>7038.5</distance>
        <duration>1407.7</duration>
        <type>1</type>
        <step>9</step>
      </extensions>
    </rtept>
    <rtept lat="24.209059" lon="120.505222">
      <name>臨港路三段, 17</name>
      <desc>Turn right onto 臨港路三段, 17</desc>
      <extensions>
        <distance>7038.5</distance>
        <duration>1407.7</duration>
        <type>1</type>
        <step>9</step>
      </extensions>
    </rtept>
    <rtept lat="24.20862" lon="120.505062">
      <name>臨港路三段, 17</name>
      <desc>Turn right onto 臨港路三段, 17</desc>
      <extensions>
        <distance>7038.5</distance>
        <duration>1407.7</duration>
        <type>1</type>
        <step>9</step>
      </extensions>
    </rtept>
    <rtept lat="24.208069" lon="120.504895">
      <name>臨港路三段, 17</name>
      <desc>Turn right onto 臨港路三段, 17</desc>
      <extensions>
        <distance>7038.5</distance>
        <duration>1407.7</duration>
        <type>1</type>
        <step>9</step>
      </extensions>
    </rtept>
    <rtept lat="24.207891" lon="120.50485">
      <name>臨港路三段, 17</name>
      <desc>Turn right onto 臨港路三段, 17</desc>
      <extensions>
        <distance>7038.5</distance>
        <duration>1407.7</duration>
        <type>1</type>
        <step>9</step>
      </extensions>
    </rtept>
    <rtept lat="24.207358" lon="120.504782">
      <name>臨港路三段, 17</name>
      <desc>Turn right onto 臨港路三段, 17</desc>
      <extensions>
        <distance>7038.5</distance>
        <duration>1407.7</duration>
        <type>1</type>
        <step>9</step>
      </extensions>
    </rtept>
    <rtept lat="24.207133" lon="120.504752">
      <name>臨港路三段, 17</name>
      <desc>Turn right onto 臨港路三段, 17</desc>
      <extensions>
        <distance>7038.5</distance>
        <duration>1407.7</duration>
        <type>1</type>
        <step>9</step>
      </extensions>
    </rtept>
    <rtept lat="24.205978" lon="120.504758">
      <name>臨港路三段, 17</name>
      <desc>Turn right onto 臨港路三段, 17</desc>
      <extensions>
        <distance>7038.5</distance>
        <duration>1407.7</duration>
        <type>1</type>
        <step>9</step>
      </extensions>
    </rtept>
    <rtept lat="24.205231" lon="120.504845">
      <name>臨港路三段, 17</name>
      <desc>Turn right onto 臨港路三段, 17</desc>
      <extensions>
        <distance>7038.5</distance>
        <duration>1407.7</duration>
        <type>1</type>
        <step>9</step>
      </extensions>
    </rtept>
    <rtept lat="24.203987" lon="120.505312">
      <name>臨港路三段, 17</name>
      <desc>Turn right onto 臨港路三段, 17</desc>
      <extensions>
        <distance>7038.5</distance>
        <duration>1407.7</duration>
        <type>1</type>
        <step>9</step>
      </extensions>
    </rtept>
    <rtept lat="24.203263" lon="120.505714">
      <name>臨港路三段, 17</name>
      <desc>Turn right onto 臨港路三段, 17</desc>
      <extensions>
        <distance>7038.5</distance>
        <duration>1407.7</duration>
        <type>1</type>
        <step>9</step>
      </extensions>
    </rtept>
    <rtept lat="24.202858" lon="120.505988">
      <name>臨港路三段, 17</name>
      <desc>Turn right onto 臨港路三段, 17</desc>
      <extensions>
        <distance>7038.5</distance>
        <duration>1407.7</duration>
        <type>1</type>
        <step>9</step>
      </extensions>
    </rtept>
    <rtept lat="24.202535" lon="120.506243">
      <name>臨港路三段, 17</name>
      <desc>Turn right onto 臨港路三段, 17</desc>
      <extensions>
        <distance>7038.5</distance>
        <duration>1407.7</duration>
        <type>1</type>
        <step>9</step>
      </extensions>
    </rtept>
    <rtept lat="24.202216" lon="120.506544">
      <name>臨港路三段, 17</name>
      <desc>Turn right onto 臨港路三段, 17</desc>
      <extensions>
        <distance>7038.5</distance>
        <duration>1407.7</duration>
        <type>1</type>
        <step>9</step>
      </extensions>
    </rtept>
    <rtept lat="24.201808" lon="120.506973">
      <name>臨港路三段, 17</name>
      <desc>Turn right onto 臨港路三段, 17</desc>
      <extensions>
        <distance>7038.5</distance>
        <duration>1407.7</duration>
        <type>1</type>
        <step>9</step>
      </extensions>
    </rtept>
    <rtept lat="24.2015" lon="120.507322">
      <name>臨港路三段, 17</name>
      <desc>Turn right onto 臨港路三段, 17</desc>
      <extensions>
        <distance>7038.5</distance>
        <duration>1407.7</duration>
        <type>1</type>
        <step>9</step>
      </extensions>
    </rtept>
    <rtept lat="24.2011" lon="120.507896">
      <name>臨港路三段, 17</name>
      <desc>Turn right onto 臨港路三段, 17</desc>
      <extensions>
        <distance>7038.5</distance>
        <duration>1407.7</duration>
        <type>1</type>
        <step>9</step>
      </extensions>
    </rtept>
    <rtept lat="24.200671" lon="120.508604">
      <name>臨港路三段, 17</name>
      <desc>Turn right onto 臨港路三段, 17</desc>
      <extensions>
        <distance>7038.5</distance>
        <duration>1407.7</duration>
        <type>1</type>
        <step>9</step>
      </extensions>
    </rtept>
    <rtept lat="24.200349" lon="120.509174">
      <name>臨港路三段, 17</name>
      <desc>Turn right onto 臨港路三段, 17</desc>
      <extensions>
        <distance>7038.5</distance>
        <duration>1407.7</duration>
        <type>1</type>
        <step>9</step>
      </extensions>
    </rtept>
    <rtept lat="24.199834" lon="120.510106">
      <name>臨港路三段, 17</name>
      <desc>Turn right onto 臨港路三段, 17</desc>
      <extensions>
        <distance>7038.5</distance>
        <duration>1407.7</duration>
        <type>1</type>
        <step>9</step>
      </extensions>
    </rtept>
    <rtept lat="24.199431" lon="120.511018">
      <name>臨港路三段, 17</name>
      <desc>Turn right onto 臨港路三段, 17</desc>
      <extensions>
        <distance>7038.5</distance>
        <duration>1407.7</duration>
        <type>1</type>
        <step>9</step>
      </extensions>
    </rtept>
    <rtept lat="24.199149" lon="120.511725">
      <name>臨港路三段, 17</name>
      <desc>Turn right onto 臨港路三段, 17</desc>
      <extensions>
        <distance>7038.5</distance>
        <duration>1407.7</duration>
        <type>1</type>
        <step>9</step>
      </extensions>
    </rtept>
    <rtept lat="24.198752" lon="120.512909">
      <name>臨港路三段, 17</name>
      <desc>Turn right onto 臨港路三段, 17</desc>
      <extensions>
        <distance>7038.5</distance>
        <duration>1407.7</duration>
        <type>1</type>
        <step>9</step>
      </extensions>
    </rtept>
    <rtept lat="24.198539" lon="120.513557">
      <name>臨港路三段, 17</name>
      <desc>Turn right onto 臨港路三段, 17</desc>
      <extensions>
        <distance>7038.5</distance>
        <duration>1407.7</duration>
        <type>1</type>
        <step>9</step>
      </extensions>
    </rtept>
    <rtept lat="24.19852" lon="120.513614">
      <name/>
      <desc>Turn right</desc>
      <extensions>
        <distance>6347.8</distance>
        <duration>1269.6</duration>
        <type>1</type>
        <step>10</step>
      </extensions>
    </rtept>
    <rtept lat="24.198195" lon="120.513736">
      <name/>
      <desc>Turn right</desc>
      <extensions>
        <distance>6347.8</distance>
        <duration>1269.6</duration>
        <type>1</type>
        <step>10</step>
      </extensions>
    </rtept>
    <rtept lat="24.197779" lon="120.51372">
      <name/>
      <desc>Turn right</desc>
      <extensions>
        <distance>6347.8</distance>
        <duration>1269.6</duration>
        <type>1</type>
        <step>10</step>
      </extensions>
    </rtept>
    <rtept lat="24.19576" lon="120.512216">
      <name/>
      <desc>Turn right</desc>
      <extensions>
        <distance>6347.8</distance>
        <duration>1269.6</duration>
        <type>1</type>
        <step>10</step>
      </extensions>
    </rtept>
    <rtept lat="24.195091" lon="120.511782">
      <name/>
      <desc>Turn right</desc>
      <extensions>
        <distance>6347.8</distance>
        <duration>1269.6</duration>
        <type>1</type>
        <step>10</step>
      </extensions>
    </rtept>
    <rtept lat="24.194407" lon="120.511303">
      <name/>
      <desc>Turn right</desc>
      <extensions>
        <distance>6347.8</distance>
        <duration>1269.6</duration>
        <type>1</type>
        <step>10</step>
      </extensions>
    </rtept>
    <rtept lat="24.19425" lon="120.511168">
      <name/>
      <desc>Turn right</desc>
      <extensions>
        <distance>6347.8</distance>
        <duration>1269.6</duration>
        <type>1</type>
        <step>10</step>
      </extensions>
    </rtept>
    <rtept lat="24.18104" lon="120.501914">
      <name/>
      <desc>Turn right</desc>
      <extensions>
        <distance>6347.8</distance>
        <duration>1269.6</duration>
        <type>1</type>
        <step>10</step>
      </extensions>
    </rtept>
    <rtept lat="24.178128" lon="120.4999">
      <name/>
      <desc>Turn right</desc>
      <extensions>
        <distance>6347.8</distance>
        <duration>1269.6</duration>
        <type>1</type>
        <step>10</step>
      </extensions>
    </rtept>
    <rtept lat="24.177662" lon="120.499536">
      <name/>
      <desc>Turn right</desc>
      <extensions>
        <distance>6347.8</distance>
        <duration>1269.6</duration>
        <type>1</type>
        <step>10</step>
      </extensions>
    </rtept>
    <rtept lat="24.17753" lon="120.49943">
      <name/>
      <desc>Turn right</desc>
      <extensions>
        <distance>6347.8</distance>
        <duration>1269.6</duration>
        <type>1</type>
        <step>10</step>
      </extensions>
    </rtept>
    <rtept lat="24.176705" lon="120.498694">
      <name/>
      <desc>Turn right</desc>
      <extensions>
        <distance>6347.8</distance>
        <duration>1269.6</duration>
        <type>1</type>
        <step>10</step>
      </extensions>
    </rtept>
    <rtept lat="24.172939" lon="120.495114">
      <name/>
      <desc>Turn right</desc>
      <extensions>
        <distance>6347.8</distance>
        <duration>1269.6</duration>
        <type>1</type>
        <step>10</step>
      </extensions>
    </rtept>
    <rtept lat="24.168134" lon="120.490501">
      <name/>
      <desc>Turn right</desc>
      <extensions>
        <distance>6347.8</distance>
        <duration>1269.6</duration>
        <type>1</type>
        <step>10</step>
      </extensions>
    </rtept>
    <rtept lat="24.167036" lon="120.489469">
      <name/>
      <desc>Turn right</desc>
      <extensions>
        <distance>6347.8</distance>
        <duration>1269.6</duration>
        <type>1</type>
        <step>10</step>
      </extensions>
    </rtept>
    <rtept lat="24.166233" lon="120.488743">
      <name/>
      <desc>Turn right</desc>
      <extensions>
        <distance>6347.8</distance>
        <duration>1269.6</duration>
        <type>1</type>
        <step>10</step>
      </extensions>
    </rtept>
    <rtept lat="24.166078" lon="120.48861">
      <name/>
      <desc>Turn right</desc>
      <extensions>
        <distance>6347.8</distance>
        <duration>1269.6</duration>
        <type>1</type>
        <step>10</step>
      </extensions>
    </rtept>
    <rtept lat="24.166054" lon="120.488594">
      <name/>
      <desc>Turn right</desc>
      <extensions>
        <distance>6347.8</distance>
        <duration>1269.6</duration>
        <type>1</type>
        <step>10</step>
      </extensions>
    </rtept>
    <rtept lat="24.165882" lon="120.488462">
      <name/>
      <desc>Turn right</desc>
      <extensions>
        <distance>6347.8</distance>
        <duration>1269.6</duration>
        <type>1</type>
        <step>10</step>
      </extensions>
    </rtept>
    <rtept lat="24.165308" lon="120.488113">
      <name/>
      <desc>Turn right</desc>
      <extensions>
        <distance>6347.8</distance>
        <duration>1269.6</duration>
        <type>1</type>
        <step>10</step>
      </extensions>
    </rtept>
    <rtept lat="24.16484" lon="120.487935">
      <name/>
      <desc>Turn right</desc>
      <extensions>
        <distance>6347.8</distance>
        <duration>1269.6</duration>
        <type>1</type>
        <step>10</step>
      </extensions>
    </rtept>
    <rtept lat="24.164504" lon="120.487833">
      <name/>
      <desc>Turn right</desc>
      <extensions>
        <distance>6347.8</distance>
        <duration>1269.6</duration>
        <type>1</type>
        <step>10</step>
      </extensions>
    </rtept>
    <rtept lat="24.163142" lon="120.487496">
      <name/>
      <desc>Turn right</desc>
      <extensions>
        <distance>6347.8</distance>
        <duration>1269.6</duration>
        <type>1</type>
        <step>10</step>
      </extensions>
    </rtept>
    <rtept lat="24.162837" lon="120.487425">
      <name/>
      <desc>Turn right</desc>
      <extensions>
        <distance>6347.8</distance>
        <duration>1269.6</duration>
        <type>1</type>
        <step>10</step>
      </extensions>
    </rtept>
    <rtept lat="24.162694" lon="120.487388">
      <name/>
      <desc>Turn right</desc>
      <extensions>
        <distance>6347.8</distance>
        <duration>1269.6</duration>
        <type>1</type>
        <step>10</step>
      </extensions>
    </rtept>
    <rtept lat="24.162347" lon="120.487296">
      <name/>
      <desc>Turn right</desc>
      <extensions>
        <distance>6347.8</distance>
        <duration>1269.6</duration>
        <type>1</type>
        <step>10</step>
      </extensions>
    </rtept>
    <rtept lat="24.161735" lon="120.487136">
      <name/>
      <desc>Turn right</desc>
      <extensions>
        <distance>6347.8</distance>
        <duration>1269.6</duration>
        <type>1</type>
        <step>10</step>
      </extensions>
    </rtept>
    <rtept lat="24.161358" lon="120.487037">
      <name/>
      <desc>Turn right</desc>
      <extensions>
        <distance>6347.8</distance>
        <duration>1269.6</duration>
        <type>1</type>
        <step>10</step>
      </extensions>
    </rtept>
    <rtept lat="24.16121" lon="120.486998">
      <name/>
      <desc>Turn right</desc>
      <extensions>
        <distance>6347.8</distance>
        <duration>1269.6</duration>
        <type>1</type>
        <step>10</step>
      </extensions>
    </rtept>
    <rtept lat="24.16103" lon="120.486952">
      <name/>
      <desc>Turn right</desc>
      <extensions>
        <distance>6347.8</distance>
        <duration>1269.6</duration>
        <type>1</type>
        <step>10</step>
      </extensions>
    </rtept>
    <rtept lat="24.160357" lon="120.48606">
      <name/>
      <desc>Turn right</desc>
      <extensions>
        <distance>6347.8</distance>
        <duration>1269.6</duration>
        <type>1</type>
        <step>10</step>
      </extensions>
    </rtept>
    <rtept lat="24.158812" lon="120.483951">
      <name/>
      <desc>Turn right</desc>
      <extensions>
        <distance>6347.8</distance>
        <duration>1269.6</duration>
        <type>1</type>
        <step>10</step>
      </extensions>
    </rtept>
    <rtept lat="24.158775" lon="120.483901">
      <name/>
      <desc>Turn right</desc>
      <extensions>
        <distance>6347.8</distance>
        <duration>1269.6</duration>
        <type>1</type>
        <step>10</step>
      </extensions>
    </rtept>
    <rtept lat="24.158618" lon="120.483685">
      <name/>
      <desc>Turn right</desc>
      <extensions>
        <distance>6347.8</distance>
        <duration>1269.6</duration>
        <type>1</type>
        <step>10</step>
      </extensions>
    </rtept>
    <rtept lat="24.158123" lon="120.482997">
      <name/>
      <desc>Turn right</desc>
      <extensions>
        <distance>6347.8</distance>
        <duration>1269.6</duration>
        <type>1</type>
        <step>10</step>
      </extensions>
    </rtept>
    <rtept lat="24.157433" lon="120.482049">
      <name/>
      <desc>Turn right</desc>
      <extensions>
        <distance>6347.8</distance>
        <duration>1269.6</duration>
        <type>1</type>
        <step>10</step>
      </extensions>
    </rtept>
    <rtept lat="24.157266" lon="120.481848">
      <name/>
      <desc>Turn right</desc>
      <extensions>
        <distance>6347.8</distance>
        <duration>1269.6</duration>
        <type>1</type>
        <step>10</step>
      </extensions>
    </rtept>
    <rtept lat="24.157018" lon="120.481548">
      <name/>
      <desc>Turn right</desc>
      <extensions>
        <distance>6347.8</distance>
        <duration>1269.6</duration>
        <type>1</type>
        <step>10</step>
      </extensions>
    </rtept>
    <rtept lat="24.156702" lon="120.481218">
      <name/>
      <desc>Turn right</desc>
      <extensions>
        <distance>6347.8</distance>
        <duration>1269.6</duration>
        <type>1</type>
        <step>10</step>
      </extensions>
    </rtept>
    <rtept lat="24.156014" lon="120.48042">
      <name/>
      <desc>Turn right</desc>
      <extensions>
        <distance>6347.8</distance>
        <duration>1269.6</duration>
        <type>1</type>
        <step>10</step>
      </extensions>
    </rtept>
    <rtept lat="24.15576" lon="120.480068">
      <name/>
      <desc>Turn right</desc>
      <extensions>
        <distance>6347.8</distance>
        <duration>1269.6</duration>
        <type>1</type>
        <step>10</step>
      </extensions>
    </rtept>
    <rtept lat="24.155013" lon="120.479024">
      <name/>
      <desc>Turn right</desc>
      <extensions>
        <distance>6347.8</distance>
        <duration>1269.6</duration>
        <type>1</type>
        <step>10</step>
      </extensions>
    </rtept>
    <rtept lat="24.153528" lon="120.476956">
      <name>建國路, 17</name>
      <desc>Continue straight onto 建國路, 17</desc>
      <extensions>
        <distance>10672.1</distance>
        <duration>2134.4</duration>
        <type>6</type>
        <step>11</step>
      </extensions>
    </rtept>
    <rtept lat="24.153395" lon="120.476771">
      <name>建國路, 17</name>
      <desc>Continue straight onto 建國路, 17</desc>
      <extensions>
        <distance>10672.1</distance>
        <duration>2134.4</duration>
        <type>6</type>
        <step>11</step>
      </extensions>
    </rtept>
    <rtept lat="24.153136" lon="120.476403">
      <name>建國路, 17</name>
      <desc>Continue straight onto 建國路, 17</desc>
      <extensions>
        <distance>10672.1</distance>
        <duration>2134.4</duration>
        <type>6</type>
        <step>11</step>
      </extensions>
    </rtept>
    <rtept lat="24.152846" lon="120.476091">
      <name>建國路, 17</name>
      <desc>Continue straight onto 建國路, 17</desc>
      <extensions>
        <distance>10672.1</distance>
        <duration>2134.4</duration>
        <type>6</type>
        <step>11</step>
      </extensions>
    </rtept>
    <rtept lat="24.150308" lon="120.47305">
      <name>建國路, 17</name>
      <desc>Continue straight onto 建國路, 17</desc>
      <extensions>
        <distance>10672.1</distance>
        <duration>2134.4</duration>
        <type>6</type>
        <step>11</step>
      </extensions>
    </rtept>
    <rtept lat="24.149476" lon="120.472056">
      <name>建國路, 17</name>
      <desc>Continue straight onto 建國路, 17</desc>
      <extensions>
        <distance>10672.1</distance>
        <duration>2134.4</duration>
        <type>6</type>
        <step>11</step>
      </extensions>
    </rtept>
    <rtept lat="24.148494" lon="120.470919">
      <name>建國路, 17</name>
      <desc>Continue straight onto 建國路, 17</desc>
      <extensions>
        <distance>10672.1</distance>
        <duration>2134.4</duration>
        <type>6</type>
        <step>11</step>
      </extensions>
    </rtept>
    <rtept lat="24.148459" lon="120.470878">
      <name>建國路, 17</name>
      <desc>Continue straight onto 建國路, 17</desc>
      <extensions>
        <distance>10672.1</distance>
        <duration>2134.4</duration>
        <type>6</type>
        <step>11</step>
      </extensions>
    </rtept>
    <rtept lat="24.148285" lon="120.470676">
      <name>建國路, 17</name>
      <desc>Continue straight onto 建國路, 17</desc>
      <extensions>
        <distance>10672.1</distance>
        <duration>2134.4</duration>
        <type>6</type>
        <step>11</step>
      </extensions>
    </rtept>
    <rtept lat="24.147714" lon="120.470078">
      <name>建國路, 17</name>
      <desc>Continue straight onto 建國路, 17</desc>
      <extensions>
        <distance>10672.1</distance>
        <duration>2134.4</duration>
        <type>6</type>
        <step>11</step>
      </extensions>
    </rtept>
    <rtept lat="24.147612" lon="120.469979">
      <name>建國路, 17</name>
      <desc>Continue straight onto 建國路, 17</desc>
      <extensions>
        <distance>10672.1</distance>
        <duration>2134.4</duration>
        <type>6</type>
        <step>11</step>
      </extensions>
    </rtept>
    <rtept lat="24.147429" lon="120.46982">
      <name>建國路, 17</name>
      <desc>Continue straight onto 建國路, 17</desc>
      <extensions>
        <distance>10672.1</distance>
        <duration>2134.4</duration>
        <type>6</type>
        <step>11</step>
      </extensions>
    </rtept>
    <rtept lat="24.147182" lon="120.469653">
      <name>建國路, 17</name>
      <desc>Continue straight onto 建國路, 17</desc>
      <extensions>
        <distance>10672.1</distance>
        <duration>2134.4</duration>
        <type>6</type>
        <step>11</step>
      </extensions>
    </rtept>
    <rtept lat="24.146373" lon="120.46913">
      <name>建國路, 17</name>
      <desc>Continue straight onto 建國路, 17</desc>
      <extensions>
        <distance>10672.1</distance>
        <duration>2134.4</duration>
        <type>6</type>
        <step>11</step>
      </extensions>
    </rtept>
    <rtept lat="24.145607" lon="120.468662">
      <name>建國路, 17</name>
      <desc>Continue straight onto 建國路, 17</desc>
      <extensions>
        <distance>10672.1</distance>
        <duration>2134.4</duration>
        <type>6</type>
        <step>11</step>
      </extensions>
    </rtept>
    <rtept lat="24.144299" lon="120.46791">
      <name>建國路, 17</name>
      <desc>Continue straight onto 建國路, 17</desc>
      <extensions>
        <distance>10672.1</distance>
        <duration>2134.4</duration>
        <type>6</type>
        <step>11</step>
      </extensions>
    </rtept>
    <rtept lat="24.143756" lon="120.467525">
      <name>建國路, 17</name>
      <desc>Continue straight onto 建國路, 17</desc>
      <extensions>
        <distance>10672.1</distance>
        <duration>2134.4</duration>
        <type>6</type>
        <step>11</step>
      </extensions>
    </rtept>
    <rtept lat="24.143439" lon="120.467369">
      <name>建國路, 17</name>
      <desc>Continue straight onto 建國路, 17</desc>
      <extensions>
        <distance>10672.1</distance>
        <duration>2134.4</duration>
        <type>6</type>
        <step>11</step>
      </extensions>
    </rtept>
    <rtept lat="24.143161" lon="120.467281">
      <name>建國路, 17</name>
      <desc>Continue straight onto 建國路, 17</desc>
      <extensions>
        <distance>10672.1</distance>
        <duration>2134.4</duration>
        <type>6</type>
        <step>11</step>
      </extensions>
    </rtept>
    <rtept lat="24.142984" lon="120.467227">
      <name>建國路, 17</name>
      <desc>Continue straight onto 建國路, 17</desc>
      <extensions>
        <distance>10672.1</distance>
        <duration>2134.4</duration>
        <type>6</type>
        <step>11</step>
      </extensions>
    </rtept>
    <rtept lat="24.142429" lon="120.467084">
      <name>建國路, 17</name>
      <desc>Continue straight onto 建國路, 17</desc>
      <extensions>
        <distance>10672.1</distance>
        <duration>2134.4</duration>
        <type>6</type>
        <step>11</step>
      </extensions>
    </rtept>
    <rtept lat="24.141811" lon="120.466917">
      <name>建國路, 17</name>
      <desc>Continue straight onto 建國路, 17</desc>
      <extensions>
        <distance>10672.1</distance>
        <duration>2134.4</duration>
        <type>6</type>
        <step>11</step>
      </extensions>
    </rtept>
    <rtept lat="24.141262" lon="120.466785">
      <name>建國路, 17</name>
      <desc>Continue straight onto 建國路, 17</desc>
      <extensions>
        <distance>10672.1</distance>
        <duration>2134.4</duration>
        <type>6</type>
        <step>11</step>
      </extensions>
    </rtept>
    <rtept lat="24.14071" lon="120.466687">
      <name>建國路, 17</name>
      <desc>Continue straight onto 建國路, 17</desc>
      <extensions>
        <distance>10672.1</distance>
        <duration>2134.4</duration>
        <type>6</type>
        <step>11</step>
      </extensions>
    </rtept>
    <rtept lat="24.139552" lon="120.46657">
      <name>建國路, 17</name>
      <desc>Continue straight onto 建國路, 17</desc>
      <extensions>
        <distance>10672.1</distance>
        <duration>2134.4</duration>
        <type>6</type>
        <step>11</step>
      </extensions>
    </rtept>
    <rtept lat="24.138981" lon="120.466456">
      <name>建國路, 17</name>
      <desc>Continue straight onto 建國路, 17</desc>
      <extensions>
        <distance>10672.1</distance>
        <duration>2134.4</duration>
        <type>6</type>
        <step>11</step>
      </extensions>
    </rtept>
    <rtept lat="24.138393" lon="120.466287">
      <name>建國路, 17</name>
      <desc>Continue straight onto 建國路, 17</desc>
      <extensions>
        <distance>10672.1</distance>
        <duration>2134.4</duration>
        <type>6</type>
        <step>11</step>
      </extensions>
    </rtept>
    <rtept lat="24.13828" lon="120.466233">
      <name>建國路, 17</name>
      <desc>Continue straight onto 建國路, 17</desc>
      <extensions>
        <distance>10672.1</distance>
        <duration>2134.4</duration>
        <type>6</type>
        <step>11</step>
      </extensions>
    </rtept>
    <rtept lat="24.137464" lon="120.465842">
      <name>建國路, 17</name>
      <desc>Continue straight onto 建國路, 17</desc>
      <extensions>
        <distance>10672.1</distance>
        <duration>2134.4</duration>
        <type>6</type>
        <step>11</step>
      </extensions>
    </rtept>
    <rtept lat="24.136674" lon="120.465517">
      <name>建國路, 17</name>
      <desc>Continue straight onto 建國路, 17</desc>
      <extensions>
        <distance>10672.1</distance>
        <duration>2134.4</duration>
        <type>6</type>
        <step>11</step>
      </extensions>
    </rtept>
    <rtept lat="24.1359" lon="120.465142">
      <name>建國路, 17</name>
      <desc>Continue straight onto 建國路, 17</desc>
      <extensions>
        <distance>10672.1</distance>
        <duration>2134.4</duration>
        <type>6</type>
        <step>11</step>
      </extensions>
    </rtept>
    <rtept lat="24.135129" lon="120.46481">
      <name>建國路, 17</name>
      <desc>Continue straight onto 建國路, 17</desc>
      <extensions>
        <distance>10672.1</distance>
        <duration>2134.4</duration>
        <type>6</type>
        <step>11</step>
      </extensions>
    </rtept>
    <rtept lat="24.135049" lon="120.464776">
      <name>建國路, 17</name>
      <desc>Continue straight onto 建國路, 17</desc>
      <extensions>
        <distance>10672.1</distance>
        <duration>2134.4</duration>
        <type>6</type>
        <step>11</step>
      </extensions>
    </rtept>
    <rtept lat="24.134989" lon="120.464749">
      <name>建國路, 17</name>
      <desc>Continue straight onto 建國路, 17</desc>
      <extensions>
        <distance>10672.1</distance>
        <duration>2134.4</duration>
        <type>6</type>
        <step>11</step>
      </extensions>
    </rtept>
    <rtept lat="24.133865" lon="120.464249">
      <name>建國路, 17</name>
      <desc>Continue straight onto 建國路, 17</desc>
      <extensions>
        <distance>10672.1</distance>
        <duration>2134.4</duration>
        <type>6</type>
        <step>11</step>
      </extensions>
    </rtept>
    <rtept lat="24.133601" lon="120.464132">
      <name>建國路, 17</name>
      <desc>Continue straight onto 建國路, 17</desc>
      <extensions>
        <distance>10672.1</distance>
        <duration>2134.4</duration>
        <type>6</type>
        <step>11</step>
      </extensions>
    </rtept>
    <rtept lat="24.13352" lon="120.464076">
      <name>建國路, 17</name>
      <desc>Continue straight onto 建國路, 17</desc>
      <extensions>
        <distance>10672.1</distance>
        <duration>2134.4</duration>
        <type>6</type>
        <step>11</step>
      </extensions>
    </rtept>
    <rtept lat="24.133278" lon="120.46397">
      <name>建國路, 17</name>
      <desc>Continue straight onto 建國路, 17</desc>
      <extensions>
        <distance>10672.1</distance>
        <duration>2134.4</duration>
        <type>6</type>
        <step>11</step>
      </extensions>
    </rtept>
    <rtept lat="24.131533" lon="120.463201">
      <name>建國路, 17</name>
      <desc>Continue straight onto 建國路, 17</desc>
      <extensions>
        <distance>10672.1</distance>
        <duration>2134.4</duration>
        <type>6</type>
        <step>11</step>
      </extensions>
    </rtept>
    <rtept lat="24.131492" lon="120.463179">
      <name>建國路, 17</name>
      <desc>Continue straight onto 建國路, 17</desc>
      <extensions>
        <distance>10672.1</distance>
        <duration>2134.4</duration>
        <type>6</type>
        <step>11</step>
      </extensions>
    </rtept>
    <rtept lat="24.130786" lon="120.46284">
      <name>建國路, 17</name>
      <desc>Continue straight onto 建國路, 17</desc>
      <extensions>
        <distance>10672.1</distance>
        <duration>2134.4</duration>
        <type>6</type>
        <step>11</step>
      </extensions>
    </rtept>
    <rtept lat="24.130681" lon="120.46278">
      <name>建國路, 17</name>
      <desc>Continue straight onto 建國路, 17</desc>
      <extensions>
        <distance>10672.1</distance>
        <duration>2134.4</duration>
        <type>6</type>
        <step>11</step>
      </extensions>
    </rtept>
    <rtept lat="24.13039" lon="120.462574">
      <name>建國路, 17</name>
      <desc>Continue straight onto 建國路, 17</desc>
      <extensions>
        <distance>10672.1</distance>
        <duration>2134.4</duration>
        <type>6</type>
        <step>11</step>
      </extensions>
    </rtept>
    <rtept lat="24.130141" lon="120.462354">
      <name>建國路, 17</name>
      <desc>Continue straight onto 建國路, 17</desc>
      <extensions>
        <distance>10672.1</distance>
        <duration>2134.4</duration>
        <type>6</type>
        <step>11</step>
      </extensions>
    </rtept>
    <rtept lat="24.129533" lon="120.461626">
      <name>建國路, 17</name>
      <desc>Continue straight onto 建國路, 17</desc>
      <extensions>
        <distance>10672.1</distance>
        <duration>2134.4</duration>
        <type>6</type>
        <step>11</step>
      </extensions>
    </rtept>
    <rtept lat="24.129088" lon="120.461048">
      <name>建國路, 17</name>
      <desc>Continue straight onto 建國路, 17</desc>
      <extensions>
        <distance>10672.1</distance>
        <duration>2134.4</duration>
        <type>6</type>
        <step>11</step>
      </extensions>
    </rtept>
    <rtept lat="24.129033" lon="120.460984">
      <name>建國路, 17</name>
      <desc>Continue straight onto 建國路, 17</desc>
      <extensions>
        <distance>10672.1</distance>
        <duration>2134.4</duration>
        <type>6</type>
        <step>11</step>
      </extensions>
    </rtept>
    <rtept lat="24.128995" lon="120.460932">
      <name>建國路, 17</name>
      <desc>Continue straight onto 建國路, 17</desc>
      <extensions>
        <distance>10672.1</distance>
        <duration>2134.4</duration>
        <type>6</type>
        <step>11</step>
      </extensions>
    </rtept>
    <rtept lat="24.128685" lon="120.46061">
      <name>建國路, 17</name>
      <desc>Continue straight onto 建國路, 17</desc>
      <extensions>
        <distance>10672.1</distance>
        <duration>2134.4</duration>
        <type>6</type>
        <step>11</step>
      </extensions>
    </rtept>
    <rtept lat="24.128556" lon="120.460517">
      <name>建國路, 17</name>
      <desc>Continue straight onto 建國路, 17</desc>
      <extensions>
        <distance>10672.1</distance>
        <duration>2134.4</duration>
        <type>6</type>
        <step>11</step>
      </extensions>
    </rtept>
    <rtept lat="24.128178" lon="120.46028">
      <name>建國路, 17</name>
      <desc>Continue straight onto 建國路, 17</desc>
      <extensions>
        <distance>10672.1</distance>
        <duration>2134.4</duration>
        <type>6</type>
        <step>11</step>
      </extensions>
    </rtept>
    <rtept lat="24.128047" lon="120.460202">
      <name>建國路, 17</name>
      <desc>Continue straight onto 建國路, 17</desc>
      <extensions>
        <distance>10672.1</distance>
        <duration>2134.4</duration>
        <type>6</type>
        <step>11</step>
      </extensions>
    </rtept>
    <rtept lat="24.127953" lon="120.460154">
      <name>建國路, 17</name>
      <desc>Continue straight onto 建國路, 17</desc>
      <extensions>
        <distance>10672.1</distance>
        <duration>2134.4</duration>
        <type>6</type>
        <step>11</step>
      </extensions>
    </rtept>
    <rtept lat="24.127846" lon="120.460106">
      <name>建國路, 17</name>
      <desc>Continue straight onto 建國路, 17</desc>
      <extensions>
        <distance>10672.1</distance>
        <duration>2134.4</duration>
        <type>6</type>
        <step>11</step>
      </extensions>
    </rtept>
    <rtept lat="24.127113" lon="120.459752">
      <name>建國路, 17</name>
      <desc>Continue straight onto 建國路, 17</desc>
      <extensions>
        <distance>10672.1</distance>
        <duration>2134.4</duration>
        <type>6</type>
        <step>11</step>
      </extensions>
    </rtept>
    <rtept lat="24.126418" lon="120.459451">
      <name>建國路, 17</name>
      <desc>Continue straight onto 建國路, 17</desc>
      <extensions>
        <distance>10672.1</distance>
        <duration>2134.4</duration>
        <type>6</type>
        <step>11</step>
      </extensions>
    </rtept>
    <rtept lat="24.125541" lon="120.45919">
      <name>建國路, 17</name>
      <desc>Continue straight onto 建國路, 17</desc>
      <extensions>
        <distance>10672.1</distance>
        <duration>2134.4</duration>
        <type>6</type>
        <step>11</step>
      </extensions>
    </rtept>
    <rtept lat="24.124552" lon="120.458881">
      <name>建國路, 17</name>
      <desc>Continue straight onto 建國路, 17</desc>
      <extensions>
        <distance>10672.1</distance>
        <duration>2134.4</duration>
        <type>6</type>
        <step>11</step>
      </extensions>
    </rtept>
    <rtept lat="24.124512" lon="120.458869">
      <name>建國路, 17</name>
      <desc>Continue straight onto 建國路, 17</desc>
      <extensions>
        <distance>10672.1</distance>
        <duration>2134.4</duration>
        <type>6</type>
        <step>11</step>
      </extensions>
    </rtept>
    <rtept lat="24.123942" lon="120.45865">
      <name>建國路, 17</name>
      <desc>Continue straight onto 建國路, 17</desc>
      <extensions>
        <distance>10672.1</distance>
        <duration>2134.4</duration>
        <type>6</type>
        <step>11</step>
      </extensions>
    </rtept>
    <rtept lat="24.122897" lon="120.458246">
      <name>建國路, 17</name>
      <desc>Continue straight onto 建國路, 17</desc>
      <extensions>
        <distance>10672.1</distance>
        <duration>2134.4</duration>
        <type>6</type>
        <step>11</step>
      </extensions>
    </rtept>
    <rtept lat="24.122323" lon="120.458025">
      <name>建國路, 17</name>
      <desc>Continue straight onto 建國路, 17</desc>
      <extensions>
        <distance>10672.1</distance>
        <duration>2134.4</duration>
        <type>6</type>
        <step>11</step>
      </extensions>
    </rtept>
    <rtept lat="24.121444" lon="120.457674">
      <name>建國路, 17</name>
      <desc>Continue straight onto 建國路, 17</desc>
      <extensions>
        <distance>10672.1</distance>
        <duration>2134.4</duration>
        <type>6</type>
        <step>11</step>
      </extensions>
    </rtept>
    <rtept lat="24.121147" lon="120.457574">
      <name>建國路, 17</name>
      <desc>Continue straight onto 建國路, 17</desc>
      <extensions>
        <distance>10672.1</distance>
        <duration>2134.4</duration>
        <type>6</type>
        <step>11</step>
      </extensions>
    </rtept>
    <rtept lat="24.121017" lon="120.457533">
      <name>建國路, 17</name>
      <desc>Continue straight onto 建國路, 17</desc>
      <extensions>
        <distance>10672.1</distance>
        <duration>2134.4</duration>
        <type>6</type>
        <step>11</step>
      </extensions>
    </rtept>
    <rtept lat="24.11961" lon="120.457051">
      <name>建國路, 17</name>
      <desc>Continue straight onto 建國路, 17</desc>
      <extensions>
        <distance>10672.1</distance>
        <duration>2134.4</duration>
        <type>6</type>
        <step>11</step>
      </extensions>
    </rtept>
    <rtept lat="24.119581" lon="120.457041">
      <name>建國路, 17</name>
      <desc>Continue straight onto 建國路, 17</desc>
      <extensions>
        <distance>10672.1</distance>
        <duration>2134.4</duration>
        <type>6</type>
        <step>11</step>
      </extensions>
    </rtept>
    <rtept lat="24.11929" lon="120.45694">
      <name>建國路, 17</name>
      <desc>Continue straight onto 建國路, 17</desc>
      <extensions>
        <distance>10672.1</distance>
        <duration>2134.4</duration>
        <type>6</type>
        <step>11</step>
      </extensions>
    </rtept>
    <rtept lat="24.119266" lon="120.456931">
      <name>建國路, 17</name>
      <desc>Continue straight onto 建國路, 17</desc>
      <extensions>
        <distance>10672.1</distance>
        <duration>2134.4</duration>
        <type>6</type>
        <step>11</step>
      </extensions>
    </rtept>
    <rtept lat="24.118573" lon="120.456698">
      <name>建國路, 17</name>
      <desc>Continue straight onto 建國路, 17</desc>
      <extensions>
        <distance>10672.1</distance>
        <duration>2134.4</duration>
        <type>6</type>
        <step>11</step>
      </extensions>
    </rtept>
    <rtept lat="24.117722" lon="120.456438">
      <name>建國路, 17</name>
      <desc>Continue straight onto 建國路, 17</desc>
      <extensions>
        <distance>10672.1</distance>
        <duration>2134.4</duration>
        <type>6</type>
        <step>11</step>
      </extensions>
    </rtept>
    <rtept lat="24.116367" lon="120.45612">
      <name>建國路, 17</name>
      <desc>Continue straight onto 建國路, 17</desc>
      <extensions>
        <distance>10672.1</distance>
        <duration>2134.4</duration>
        <type>6</type>
        <step>11</step>
      </extensions>
    </rtept>
    <rtept lat="24.115745" lon="120.456016">
      <name>建國路, 17</name>
      <desc>Continue straight onto 建國路, 17</desc>
      <extensions>
        <distance>10672.1</distance>
        <duration>2134.4</duration>
        <type>6</type>
        <step>11</step>
      </extensions>
    </rtept>
    <rtept lat="24.115556" lon="120.456001">
      <name>建國路, 17</name>
      <desc>Continue straight onto 建國路, 17</desc>
      <extensions>
        <distance>10672.1</distance>
        <duration>2134.4</duration>
        <type>6</type>
        <step>11</step>
      </extensions>
    </rtept>
    <rtept lat="24.114829" lon="120.455991">
      <name>建國路, 17</name>
      <desc>Continue straight onto 建國路, 17</desc>
      <extensions>
        <distance>10672.1</distance>
        <duration>2134.4</duration>
        <type>6</type>
        <step>11</step>
      </extensions>
    </rtept>
    <rtept lat="24.113237" lon="120.455964">
      <name>建國路, 17</name>
      <desc>Continue straight onto 建國路, 17</desc>
      <extensions>
        <distance>10672.1</distance>
        <duration>2134.4</duration>
        <type>6</type>
        <step>11</step>
      </extensions>
    </rtept>
    <rtept lat="24.112833" lon="120.456026">
      <name>建國路, 17</name>
      <desc>Continue straight onto 建國路, 17</desc>
      <extensions>
        <distance>10672.1</distance>
        <duration>2134.4</duration>
        <type>6</type>
        <step>11</step>
      </extensions>
    </rtept>
    <rtept lat="24.112511" lon="120.456117">
      <name>建國路, 17</name>
      <desc>Continue straight onto 建國路, 17</desc>
      <extensions>
        <distance>10672.1</distance>
        <duration>2134.4</duration>
        <type>6</type>
        <step>11</step>
      </extensions>
    </rtept>
    <rtept lat="24.111568" lon="120.456455">
      <name>建國路, 17</name>
      <desc>Continue straight onto 建國路, 17</desc>
      <extensions>
        <distance>10672.1</distance>
        <duration>2134.4</duration>
        <type>6</type>
        <step>11</step>
      </extensions>
    </rtept>
    <rtept lat="24.111282" lon="120.456575">
      <name>建國路, 17</name>
      <desc>Continue straight onto 建國路, 17</desc>
      <extensions>
        <distance>10672.1</distance>
        <duration>2134.4</duration>
        <type>6</type>
        <step>11</step>
      </extensions>
    </rtept>
    <rtept lat="24.110788" lon="120.456786">
      <name>建國路, 17</name>
      <desc>Continue straight onto 建國路, 17</desc>
      <extensions>
        <distance>10672.1</distance>
        <duration>2134.4</duration>
        <type>6</type>
        <step>11</step>
      </extensions>
    </rtept>
    <rtept lat="24.110521" lon="120.45689">
      <name>建國路, 17</name>
      <desc>Continue straight onto 建國路, 17</desc>
      <extensions>
        <distance>10672.1</distance>
        <duration>2134.4</duration>
        <type>6</type>
        <step>11</step>
      </extensions>
    </rtept>
    <rtept lat="24.110259" lon="120.456973">
      <name>建國路, 17</name>
      <desc>Continue straight onto 建國路, 17</desc>
      <extensions>
        <distance>10672.1</distance>
        <duration>2134.4</duration>
        <type>6</type>
        <step>11</step>
      </extensions>
    </rtept>
    <rtept lat="24.110001" lon="120.457026">
      <name>建國路, 17</name>
      <desc>Continue straight onto 建國路, 17</desc>
      <extensions>
        <distance>10672.1</distance>
        <duration>2134.4</duration>
        <type>6</type>
        <step>11</step>
      </extensions>
    </rtept>
    <rtept lat="24.109631" lon="120.457041">
      <name>建國路, 17</name>
      <desc>Continue straight onto 建國路, 17</desc>
      <extensions>
        <distance>10672.1</distance>
        <duration>2134.4</duration>
        <type>6</type>
        <step>11</step>
      </extensions>
    </rtept>
    <rtept lat="24.108681" lon="120.456896">
      <name>建國路, 17</name>
      <desc>Continue straight onto 建國路, 17</desc>
      <extensions>
        <distance>10672.1</distance>
        <duration>2134.4</duration>
        <type>6</type>
        <step>11</step>
      </extensions>
    </rtept>
    <rtept lat="24.107542" lon="120.456709">
      <name>建國路, 17</name>
      <desc>Continue straight onto 建國路, 17</desc>
      <extensions>
        <distance>10672.1</distance>
        <duration>2134.4</duration>
        <type>6</type>
        <step>11</step>
      </extensions>
    </rtept>
    <rtept lat="24.106744" lon="120.456531">
      <name>建國路, 17</name>
      <desc>Continue straight onto 建國路, 17</desc>
      <extensions>
        <distance>10672.1</distance>
        <duration>2134.4</duration>
        <type>6</type>
        <step>11</step>
      </extensions>
    </rtept>
    <rtept lat="24.106358" lon="120.456369">
      <name>建國路, 17</name>
      <desc>Continue straight onto 建國路, 17</desc>
      <extensions>
        <distance>10672.1</distance>
        <duration>2134.4</duration>
        <type>6</type>
        <step>11</step>
      </extensions>
    </rtept>
    <rtept lat="24.104351" lon="120.45531">
      <name>建國路, 17</name>
      <desc>Continue straight onto 建國路, 17</desc>
      <extensions>
        <distance>10672.1</distance>
        <duration>2134.4</duration>
        <type>6</type>
        <step>11</step>
      </extensions>
    </rtept>
    <rtept lat="24.104192" lon="120.455232">
      <name>建國路, 17</name>
      <desc>Continue straight onto 建國路, 17</desc>
      <extensions>
        <distance>10672.1</distance>
        <duration>2134.4</duration>
        <type>6</type>
        <step>11</step>
      </extensions>
    </rtept>
    <rtept lat="24.103635" lon="120.454904">
      <name>建國路, 17</name>
      <desc>Continue straight onto 建國路, 17</desc>
      <extensions>
        <distance>10672.1</distance>
        <duration>2134.4</duration>
        <type>6</type>
        <step>11</step>
      </extensions>
    </rtept>
    <rtept lat="24.103423" lon="120.454739">
      <name>建國路, 17</name>
      <desc>Continue straight onto 建國路, 17</desc>
      <extensions>
        <distance>10672.1</distance>
        <duration>2134.4</duration>
        <type>6</type>
        <step>11</step>
      </extensions>
    </rtept>
    <rtept lat="24.102903" lon="120.454193">
      <name>建國路, 17</name>
      <desc>Continue straight onto 建國路, 17</desc>
      <extensions>
        <distance>10672.1</distance>
        <duration>2134.4</duration>
        <type>6</type>
        <step>11</step>
      </extensions>
    </rtept>
    <rtept lat="24.102544" lon="120.45378">
      <name>建國路, 17</name>
      <desc>Continue straight onto 建國路, 17</desc>
      <extensions>
        <distance>10672.1</distance>
        <duration>2134.4</duration>
        <type>6</type>
        <step>11</step>
      </extensions>
    </rtept>
    <rtept lat="24.102296" lon="120.453496">
      <name>建國路, 17</name>
      <desc>Continue straight onto 建國路, 17</desc>
      <extensions>
        <distance>10672.1</distance>
        <duration>2134.4</duration>
        <type>6</type>
        <step>11</step>
      </extensions>
    </rtept>
    <rtept lat="24.102143" lon="120.453334">
      <name>建國路, 17</name>
      <desc>Continue straight onto 建國路, 17</desc>
      <extensions>
        <distance>10672.1</distance>
        <duration>2134.4</duration>
        <type>6</type>
        <step>11</step>
      </extensions>
    </rtept>
    <rtept lat="24.099588" lon="120.451086">
      <name>建國路, 17</name>
      <desc>Continue straight onto 建國路, 17</desc>
      <extensions>
        <distance>10672.1</distance>
        <duration>2134.4</duration>
        <type>6</type>
        <step>11</step>
      </extensions>
    </rtept>
    <rtept lat="24.099137" lon="120.450708">
      <name>建國路, 17</name>
      <desc>Continue straight onto 建國路, 17</desc>
      <extensions>
        <distance>10672.1</distance>
        <duration>2134.4</duration>
        <type>6</type>
        <step>11</step>
      </extensions>
    </rtept>
    <rtept lat="24.098991" lon="120.450605">
      <name>建國路, 17</name>
      <desc>Continue straight onto 建國路, 17</desc>
      <extensions>
        <distance>10672.1</distance>
        <duration>2134.4</duration>
        <type>6</type>
        <step>11</step>
      </extensions>
    </rtept>
    <rtept lat="24.098785" lon="120.450485">
      <name>建國路, 17</name>
      <desc>Continue straight onto 建國路, 17</desc>
      <extensions>
        <distance>10672.1</distance>
        <duration>2134.4</duration>
        <type>6</type>
        <step>11</step>
      </extensions>
    </rtept>
    <rtept lat="24.098138" lon="120.450188">
      <name>建國路, 17</name>
      <desc>Continue straight onto 建國路, 17</desc>
      <extensions>
        <distance>10672.1</distance>
        <duration>2134.4</duration>
        <type>6</type>
        <step>11</step>
      </extensions>
    </rtept>
    <rtept lat="24.097719" lon="120.44999">
      <name>建國路, 17</name>
      <desc>Continue straight onto 建國路, 17</desc>
      <extensions>
        <distance>10672.1</distance>
        <duration>2134.4</duration>
        <type>6</type>
        <step>11</step>
      </extensions>
    </rtept>
    <rtept lat="24.097322" lon="120.449803">
      <name>建國路, 17</name>
      <desc>Continue straight onto 建國路, 17</desc>
      <extensions>
        <distance>10672.1</distance>
        <duration>2134.4</duration>
        <type>6</type>
        <step>11</step>
      </extensions>
    </rtept>
    <rtept lat="24.097086" lon="120.449715">
      <name>建國路, 17</name>
      <desc>Continue straight onto 建國路, 17</desc>
      <extensions>
        <distance>10672.1</distance>
        <duration>2134.4</duration>
        <type>6</type>
        <step>11</step>
      </extensions>
    </rtept>
    <rtept lat="24.096738" lon="120.449584">
      <name>建國路, 17</name>
      <desc>Continue straight onto 建國路, 17</desc>
      <extensions>
        <distance>10672.1</distance>
        <duration>2134.4</duration>
        <type>6</type>
        <step>11</step>
      </extensions>
    </rtept>
    <rtept lat="24.095463" lon="120.449106">
      <name>建國路, 17</name>
      <desc>Continue straight onto 建國路, 17</desc>
      <extensions>
        <distance>10672.1</distance>
        <duration>2134.4</duration>
        <type>6</type>
        <step>11</step>
      </extensions>
    </rtept>
    <rtept lat="24.094634" lon="120.448818">
      <name>建國路, 17</name>
      <desc>Continue straight onto 建國路, 17</desc>
      <extensions>
        <distance>10672.1</distance>
        <duration>2134.4</duration>
        <type>6</type>
        <step>11</step>
      </extensions>
    </rtept>
    <rtept lat="24.09454" lon="120.448787">
      <name>建國路, 17</name>
      <desc>Continue straight onto 建國路, 17</desc>
      <extensions>
        <distance>10672.1</distance>
        <duration>2134.4</duration>
        <type>6</type>
        <step>11</step>
      </extensions>
    </rtept>
    <rtept lat="24.094167" lon="120.448703">
      <name>建國路, 17</name>
      <desc>Continue straight onto 建國路, 17</desc>
      <extensions>
        <distance>10672.1</distance>
        <duration>2134.4</duration>
        <type>6</type>
        <step>11</step>
      </extensions>
    </rtept>
    <rtept lat="24.094092" lon="120.448678">
      <name>建國路, 17</name>
      <desc>Continue straight onto 建國路, 17</desc>
      <extensions>
        <distance>10672.1</distance>
        <duration>2134.4</duration>
        <type>6</type>
        <step>11</step>
      </extensions>
    </rtept>
    <rtept lat="24.093253" lon="120.448474">
      <name>建國路, 17</name>
      <desc>Continue straight onto 建國路, 17</desc>
      <extensions>
        <distance>10672.1</distance>
        <duration>2134.4</duration>
        <type>6</type>
        <step>11</step>
      </extensions>
    </rtept>
    <rtept lat="24.093195" lon="120.448463">
      <name>建國路, 17</name>
      <desc>Continue straight onto 建國路, 17</desc>
      <extensions>
        <distance>10672.1</distance>
        <duration>2134.4</duration>
        <type>6</type>
        <step>11</step>
      </extensions>
    </rtept>
  </rte>
</gpx>