<?xml version="1.0" encoding="UTF-8" standalone="yes"?><gpx version="1.1" creator="openrouteservice" xmlns="https://raw.githubusercontent.com/GIScience/openrouteservice-schema/main/gpx/v2/ors-gpx.xsd"><metadata><name>openrouteservice directions</name><desc>This is a directions instructions file as GPX, generated from openrouteservice</desc><author><name>openrouteservice</name><email id="support" domain="openrouteservice.heigit.org"/><link href="https://openrouteservice.org/"><text>https://openrouteservice.org/</text><type>text/html</type></link></author><copyright author="openrouteservice.org | OpenStreetMap contributors"><year>2026</year><license>LGPL 3.0</license></copyright><time>2026-05-20T08:34:37.954Z</time><bounds maxlat="25.156334" maxlon="121.403121" minlat="25.119539" minlon="121.317325"/></metadata><rte><rtept lat="25.152927" lon="121.401746"/><rtept lat="25.153097" lon="121.401573"/><rtept lat="25.154335" lon="121.403121"/><rtept lat="25.154399" lon="121.403047"/><rtept lat="25.154535" lon="121.402891"/><rtept lat="25.155883" lon="121.401358"/><rtept lat="25.156334" lon="121.400854"/><rtept lat="25.156043" lon="121.400516"/><rtept lat="25.155507" lon="121.400132"/><rtept lat="25.155473" lon="121.400128"/><rtept lat="25.155367" lon="121.400176"/><rtept lat="25.155305" lon="121.400252"/><rtept lat="25.155105" lon="121.400026"/><rtept lat="25.155063" lon="121.399833"/><rtept lat="25.154566" lon="121.399339"/><rtept lat="25.153969" lon="121.398939"/><rtept lat="25.153844" lon="121.398822"/><rtept lat="25.153466" lon="121.39823"/><rtept lat="25.152361" lon="121.396828"/><rtept lat="25.151068" lon="121.395248"/><rtept lat="25.150345" lon="121.3942"/><rtept lat="25.150421" lon="121.394002"/><rtept lat="25.150393" lon="121.39382"/><rtept lat="25.150193" lon="121.393381"/><rtept lat="25.14956" lon="121.392585"/><rtept lat="25.149544" lon="121.392599"/><rtept lat="25.14933" lon="121.392411"/><rtept lat="25.149297" lon="121.392406"/><rtept lat="25.148027" lon="121.390859"/><rtept lat="25.147398" lon="121.390414"/><rtept lat="25.147173" lon="121.390085"/><rtept lat="25.14682" lon="121.389516"/><rtept lat="25.146713" lon="121.389229"/><rtept lat="25.146636" lon="121.389021"/><rtept lat="25.146324" lon="121.38839"/><rtept lat="25.145257" lon="121.386529"/><rtept lat="25.143785" lon="121.382017"/><rtept lat="25.14362" lon="121.381461"/><rtept lat="25.142842" lon="121.381773"/><rtept lat="25.14265" lon="121.381832"/><rtept lat="25.142498" lon="121.381869"/><rtept lat="25.142421" lon="121.38183"/><rtept lat="25.142376" lon="121.381777"/><rtept lat="25.142213" lon="121.381379"/><rtept lat="25.142187" lon="121.381252"/><rtept lat="25.142183" lon="121.381088"/><rtept lat="25.142171" lon="121.38105"/><rtept lat="25.142162" lon="121.381024"/><rtept lat="25.142033" lon="121.380876"/><rtept lat="25.141817" lon="121.38086"/><rtept lat="25.141546" lon="121.380985"/><rtept lat="25.141471" lon="121.38104"/><rtept lat="25.141317" lon="121.381323"/><rtept lat="25.140932" lon="121.381461"/><rtept lat="25.140709" lon="121.38159"/><rtept lat="25.140417" lon="121.381655"/><rtept lat="25.14022" lon="121.381232"/><rtept lat="25.139469" lon="121.379994"/><rtept lat="25.139394" lon="121.37976"/><rtept lat="25.138864" lon="121.376891"/><rtept lat="25.138778" lon="121.37648"/><rtept lat="25.138734" lon="121.376094"/><rtept lat="25.138722" lon="121.375856"/><rtept lat="25.138744" lon="121.375688"/><rtept lat="25.138809" lon="121.375536"/><rtept lat="25.138995" lon="121.375303"/><rtept lat="25.138843" lon="121.374973"/><rtept lat="25.138581" lon="121.374334"/><rtept lat="25.138407" lon="121.373872"/><rtept lat="25.138059" lon="121.372829"/><rtept lat="25.13774" lon="121.371889"/><rtept lat="25.1373" lon="121.370913"/><rtept lat="25.136654" lon="121.369646"/><rtept lat="25.136181" lon="121.368626"/><rtept lat="25.136119" lon="121.368456"/><rtept lat="25.135813" lon="121.367545"/><rtept lat="25.135601" lon="121.366649"/><rtept lat="25.135573" lon="121.366476"/><rtept lat="25.135462" lon="121.3658"/><rtept lat="25.135216" lon="121.364567"/><rtept lat="25.135156" lon="121.364279"/><rtept lat="25.134926" lon="121.363425"/><rtept lat="25.134643" lon="121.362693"/><rtept lat="25.134265" lon="121.361674"/><rtept lat="25.133868" lon="121.360798"/><rtept lat="25.1326" lon="121.357815"/><rtept lat="25.132034" lon="121.356469"/><rtept lat="25.130924" lon="121.353755"/><rtept lat="25.129638" lon="121.350763"/><rtept lat="25.128898" lon="121.348574"/><rtept lat="25.128805" lon="121.348302"/><rtept lat="25.128558" lon="121.34766"/><rtept lat="25.128393" lon="121.347273"/><rtept lat="25.127988" lon="121.346448"/><rtept lat="25.127064" lon="121.344658"/><rtept lat="25.126759" lon="121.34398"/><rtept lat="25.126466" lon="121.343189"/><rtept lat="25.126372" lon="121.342943"/><rtept lat="25.126275" lon="121.342652"/><rtept lat="25.126161" lon="121.342193"/><rtept lat="25.126117" lon="121.342016"/><rtept lat="25.125789" lon="121.340776"/><rtept lat="25.125776" lon="121.340725"/><rtept lat="25.125644" lon="121.34022"/><rtept lat="25.125419" lon="121.339546"/><rtept lat="25.125259" lon="121.339201"/><rtept lat="25.124931" lon="121.338476"/><rtept lat="25.124578" lon="121.337776"/><rtept lat="25.124138" lon="121.337066"/><rtept lat="25.123662" lon="121.336206"/><rtept lat="25.123162" lon="121.33522"/><rtept lat="25.122944" lon="121.33437"/><rtept lat="25.122793" lon="121.333634"/><rtept lat="25.122634" lon="121.332924"/><rtept lat="25.122419" lon="121.331776"/><rtept lat="25.121974" lon="121.329128"/><rtept lat="25.121764" lon="121.327645"/><rtept lat="25.121655" lon="121.326587"/><rtept lat="25.121603" lon="121.32559"/><rtept lat="25.121536" lon="121.324335"/><rtept lat="25.121443" lon="121.321725"/><rtept lat="25.121358" lon="121.320139"/><rtept lat="25.121367" lon="121.318819"/><rtept lat="25.121423" lon="121.318825"/><rtept lat="25.121529" lon="121.318316"/><rtept lat="25.121659" lon="121.318089"/><rtept lat="25.121821" lon="121.317889"/><rtept lat="25.121876" lon="121.317619"/><rtept lat="25.121892" lon="121.317484"/><rtept lat="25.121896" lon="121.31741"/><rtept lat="25.121534" lon="121.317325"/><rtept lat="25.121259" lon="121.317357"/><rtept lat="25.120839" lon="121.317494"/><rtept lat="25.120708" lon="121.317454"/><rtept lat="25.120589" lon="121.317526"/><rtept lat="25.120395" lon="121.317609"/><rtept lat="25.120235" lon="121.317609"/><rtept lat="25.119994" lon="121.317526"/><rtept lat="25.119872" lon="121.317544"/><rtept lat="25.119743" lon="121.31767"/><rtept lat="25.1197" lon="121.317872"/><rtept lat="25.119539" lon="121.318018"/><rtept lat="25.119539" lon="121.318065"/><rtept lat="25.11957" lon="121.318158"/><rtept lat="25.119587" lon="121.318201"/><rtept lat="25.119672" lon="121.31843"/><rtept lat="25.119766" lon="121.318449"/><rtept lat="25.119797" lon="121.31861"/><rtept lat="25.119738" lon="121.31872"/><rtept lat="25.119771" lon="121.31883"/><rtept lat="25.119789" lon="121.318853"/></rte></gpx>