<?xml version="1.0" ?>
<gpx xmlns="https://raw.githubusercontent.com/GIScience/openrouteservice-schema/main/gpx/v2/ors-gpx.xsd" version="1.1" creator="openrouteservice">
  <metadata>
    <name>openrouteservice directions</name>
    <desc>This is a directions instructions file as GPX, generated from openrouteservice</desc>
    <author>
      <name>openrouteservice</name>
      <email id="support" domain="openrouteservice.heigit.org"/>
      <link href="https://openrouteservice.org/">
        <text>https://openrouteservice.org/</text>
        <type>text/html</type>
      </link>
    </author>
    <copyright author="openrouteservice.org | OpenStreetMap contributors">
      <year>2026</year>
      <license>LGPL 3.0</license>
    </copyright>
    <time>2026-05-20T07:28:44.274Z</time>
    <bounds maxlat="25.038109" maxlon="121.071452" minlat="24.987427" minlon="121.015282"/>
    
  </metadata>
  <rte>
    <rtept lat="25.030741" lon="121.06972">
      <name/>
      <desc>Head northwest</desc>
      
    </rtept>
    <rtept lat="25.030899" lon="121.069577">
      <name/>
      <desc>Head northwest</desc>
      
    </rtept>
    <rtept lat="25.031238" lon="121.069222">
      <name/>
      <desc>Head northwest</desc>
      
    </rtept>
    <rtept lat="25.031492" lon="121.06906">
      <name/>
      <desc>Head northwest</desc>
      
    </rtept>
    <rtept lat="25.031597" lon="121.069209">
      <name/>
      <desc>Head northwest</desc>
      
    </rtept>
    <rtept lat="25.031774" lon="121.069073">
      <name/>
      <desc>Head northwest</desc>
      
    </rtept>
    <rtept lat="25.031953" lon="121.06939">
      <name/>
      <desc>Head northwest</desc>
      
    </rtept>
    <rtept lat="25.032022" lon="121.069325">
      <name/>
      <desc>Head northwest</desc>
      
    </rtept>
    <rtept lat="25.032259" lon="121.069219">
      <name/>
      <desc>Head northwest</desc>
      
    </rtept>
    <rtept lat="25.032381" lon="121.069404">
      <name/>
      <desc>Head northwest</desc>
      
    </rtept>
    <rtept lat="25.032763" lon="121.069036">
      <name>桃科二路79巷</name>
      <desc>Turn right onto 桃科二路79巷</desc>
      
    </rtept>
    <rtept lat="25.033029" lon="121.069463">
      <name>桃科二路79巷</name>
      <desc>Turn right onto 桃科二路79巷</desc>
      
    </rtept>
    <rtept lat="25.033435" lon="121.070129">
      <name>桃科二路79巷</name>
      <desc>Turn right onto 桃科二路79巷</desc>
      
    </rtept>
    <rtept lat="25.033593" lon="121.070154">
      <name>桃科二路</name>
      <desc>Turn right onto 桃科二路</desc>
      
    </rtept>
    <rtept lat="25.033699" lon="121.070401">
      <name>桃科二路</name>
      <desc>Turn right onto 桃科二路</desc>
      
    </rtept>
    <rtept lat="25.034481" lon="121.071316">
      <name>桃科二路</name>
      <desc>Turn right onto 桃科二路</desc>
      
    </rtept>
    <rtept lat="25.034584" lon="121.071452">
      <name>桃科三路</name>
      <desc>Continue straight onto 桃科三路</desc>
      
    </rtept>
    <rtept lat="25.034666" lon="121.07138">
      <name>桃科三路</name>
      <desc>Continue straight onto 桃科三路</desc>
      
    </rtept>
    <rtept lat="25.034545" lon="121.07126">
      <name>桃科三路</name>
      <desc>Continue straight onto 桃科三路</desc>
      
    </rtept>
    <rtept lat="25.034352" lon="121.071006">
      <name>桃科三路</name>
      <desc>Continue straight onto 桃科三路</desc>
      
    </rtept>
    <rtept lat="25.033772" lon="121.070344">
      <name>桃科三路</name>
      <desc>Continue straight onto 桃科三路</desc>
      
    </rtept>
    <rtept lat="25.033683" lon="121.070208">
      <name>桃科三路</name>
      <desc>Continue straight onto 桃科三路</desc>
      
    </rtept>
    <rtept lat="25.033649" lon="121.070049">
      <name>桃科三路</name>
      <desc>Continue straight onto 桃科三路</desc>
      
    </rtept>
    <rtept lat="25.033642" lon="121.069859">
      <name>桃科三路</name>
      <desc>Continue straight onto 桃科三路</desc>
      
    </rtept>
    <rtept lat="25.03368" lon="121.069659">
      <name>桃科三路</name>
      <desc>Continue straight onto 桃科三路</desc>
      
    </rtept>
    <rtept lat="25.03381" lon="121.069475">
      <name>桃科三路</name>
      <desc>Continue straight onto 桃科三路</desc>
      
    </rtept>
    <rtept lat="25.034941" lon="121.068466">
      <name>桃科三路</name>
      <desc>Continue straight onto 桃科三路</desc>
      
    </rtept>
    <rtept lat="25.035002" lon="121.068368">
      <name>桃科三路</name>
      <desc>Continue straight onto 桃科三路</desc>
      
    </rtept>
    <rtept lat="25.036241" lon="121.067206">
      <name>桃科三路</name>
      <desc>Continue straight onto 桃科三路</desc>
      
    </rtept>
    <rtept lat="25.036691" lon="121.066889">
      <name>桃科三路</name>
      <desc>Continue straight onto 桃科三路</desc>
      
    </rtept>
    <rtept lat="25.036884" lon="121.066779">
      <name>桃科三路</name>
      <desc>Continue straight onto 桃科三路</desc>
      
    </rtept>
    <rtept lat="25.037758" lon="121.066395">
      <name>桃科三路</name>
      <desc>Continue straight onto 桃科三路</desc>
      
    </rtept>
    <rtept lat="25.038109" lon="121.06623">
      <name>大潭北路, 61</name>
      <desc>Turn left onto 大潭北路, 61</desc>
      
    </rtept>
    <rtept lat="25.038071" lon="121.06616">
      <name>大潭北路, 61</name>
      <desc>Turn left onto 大潭北路, 61</desc>
      
    </rtept>
    <rtept lat="25.037982" lon="121.065999">
      <name>大潭北路, 61</name>
      <desc>Turn left onto 大潭北路, 61</desc>
      
    </rtept>
    <rtept lat="25.037407" lon="121.06451">
      <name>大潭北路, 61</name>
      <desc>Turn left onto 大潭北路, 61</desc>
      
    </rtept>
    <rtept lat="25.036941" lon="121.063463">
      <name>大潭北路, 61</name>
      <desc>Turn left onto 大潭北路, 61</desc>
      
    </rtept>
    <rtept lat="25.036167" lon="121.06194">
      <name>大潭北路, 61</name>
      <desc>Turn left onto 大潭北路, 61</desc>
      
    </rtept>
    <rtept lat="25.035377" lon="121.060503">
      <name>大潭北路, 61</name>
      <desc>Turn left onto 大潭北路, 61</desc>
      
    </rtept>
    <rtept lat="25.03495" lon="121.059794">
      <name>大潭北路, 61</name>
      <desc>Turn left onto 大潭北路, 61</desc>
      
    </rtept>
    <rtept lat="25.03476" lon="121.059542">
      <name>大潭北路, 61</name>
      <desc>Turn left onto 大潭北路, 61</desc>
      
    </rtept>
    <rtept lat="25.034232" lon="121.058771">
      <name>大潭北路, 61</name>
      <desc>Turn left onto 大潭北路, 61</desc>
      
    </rtept>
    <rtept lat="25.033557" lon="121.057852">
      <name>大潭北路, 61</name>
      <desc>Turn left onto 大潭北路, 61</desc>
      
    </rtept>
    <rtept lat="25.032856" lon="121.056984">
      <name>大潭北路, 61</name>
      <desc>Turn left onto 大潭北路, 61</desc>
      
    </rtept>
    <rtept lat="25.032738" lon="121.056747">
      <name>大潭北路, 61</name>
      <desc>Turn left onto 大潭北路, 61</desc>
      
    </rtept>
    <rtept lat="25.032386" lon="121.056274">
      <name>大潭北路, 61</name>
      <desc>Turn left onto 大潭北路, 61</desc>
      
    </rtept>
    <rtept lat="25.031857" lon="121.055655">
      <name>大潭北路, 61</name>
      <desc>Turn left onto 大潭北路, 61</desc>
      
    </rtept>
    <rtept lat="25.031485" lon="121.055221">
      <name>大潭北路, 61</name>
      <desc>Turn left onto 大潭北路, 61</desc>
      
    </rtept>
    <rtept lat="25.031131" lon="121.054826">
      <name>大潭北路, 61</name>
      <desc>Turn left onto 大潭北路, 61</desc>
      
    </rtept>
    <rtept lat="25.030689" lon="121.054135">
      <name>大潭北路, 61</name>
      <desc>Turn left onto 大潭北路, 61</desc>
      
    </rtept>
    <rtept lat="25.03054" lon="121.053952">
      <name>大潭北路, 61</name>
      <desc>Turn left onto 大潭北路, 61</desc>
      
    </rtept>
    <rtept lat="25.030213" lon="121.053495">
      <name>大潭北路, 61</name>
      <desc>Turn left onto 大潭北路, 61</desc>
      
    </rtept>
    <rtept lat="25.029806" lon="121.052998">
      <name>大潭北路, 61</name>
      <desc>Turn left onto 大潭北路, 61</desc>
      
    </rtept>
    <rtept lat="25.029704" lon="121.05291">
      <name>大潭北路, 61</name>
      <desc>Turn left onto 大潭北路, 61</desc>
      
    </rtept>
    <rtept lat="25.029151" lon="121.052348">
      <name>大潭北路, 61</name>
      <desc>Turn left onto 大潭北路, 61</desc>
      
    </rtept>
    <rtept lat="25.02818" lon="121.05168">
      <name>大潭北路, 61</name>
      <desc>Turn left onto 大潭北路, 61</desc>
      
    </rtept>
    <rtept lat="25.027877" lon="121.051385">
      <name>大潭北路, 61</name>
      <desc>Turn left onto 大潭北路, 61</desc>
      
    </rtept>
    <rtept lat="25.026782" lon="121.050186">
      <name>大潭北路, 61</name>
      <desc>Turn left onto 大潭北路, 61</desc>
      
    </rtept>
    <rtept lat="25.026025" lon="121.049419">
      <name>大潭北路, 61</name>
      <desc>Turn left onto 大潭北路, 61</desc>
      
    </rtept>
    <rtept lat="25.02101" lon="121.044036">
      <name>大潭北路, 61</name>
      <desc>Turn left onto 大潭北路, 61</desc>
      
    </rtept>
    <rtept lat="25.019583" lon="121.04249">
      <name>大潭北路, 61</name>
      <desc>Turn left onto 大潭北路, 61</desc>
      
    </rtept>
    <rtept lat="25.014608" lon="121.037071">
      <name>大潭北路, 61</name>
      <desc>Turn left onto 大潭北路, 61</desc>
      
    </rtept>
    <rtept lat="25.013964" lon="121.036381">
      <name>大潭北路, 61</name>
      <desc>Turn left onto 大潭北路, 61</desc>
      
    </rtept>
    <rtept lat="25.013362" lon="121.03573">
      <name>大潭北路, 61</name>
      <desc>Turn left onto 大潭北路, 61</desc>
      
    </rtept>
    <rtept lat="25.012953" lon="121.035288">
      <name>大潭北路, 61</name>
      <desc>Turn left onto 大潭北路, 61</desc>
      
    </rtept>
    <rtept lat="25.011626" lon="121.033956">
      <name>大潭北路, 61</name>
      <desc>Turn left onto 大潭北路, 61</desc>
      
    </rtept>
    <rtept lat="25.010574" lon="121.032973">
      <name>大潭北路, 61</name>
      <desc>Turn left onto 大潭北路, 61</desc>
      
    </rtept>
    <rtept lat="25.009142" lon="121.031662">
      <name>大潭北路, 61</name>
      <desc>Turn left onto 大潭北路, 61</desc>
      
    </rtept>
    <rtept lat="25.008749" lon="121.031302">
      <name>大潭北路, 61</name>
      <desc>Turn left onto 大潭北路, 61</desc>
      
    </rtept>
    <rtept lat="25.008398" lon="121.031041">
      <name>大潭北路, 61</name>
      <desc>Turn left onto 大潭北路, 61</desc>
      
    </rtept>
    <rtept lat="25.007584" lon="121.030428">
      <name>大潭北路, 61</name>
      <desc>Turn left onto 大潭北路, 61</desc>
      
    </rtept>
    <rtept lat="25.005178" lon="121.028778">
      <name>大潭北路, 61</name>
      <desc>Turn left onto 大潭北路, 61</desc>
      
    </rtept>
    <rtept lat="25.004134" lon="121.028142">
      <name>大潭北路, 61</name>
      <desc>Turn left onto 大潭北路, 61</desc>
      
    </rtept>
    <rtept lat="25.003591" lon="121.027812">
      <name>大潭北路, 61</name>
      <desc>Turn left onto 大潭北路, 61</desc>
      
    </rtept>
    <rtept lat="25.002474" lon="121.027218">
      <name>大潭北路, 61</name>
      <desc>Turn left onto 大潭北路, 61</desc>
      
    </rtept>
    <rtept lat="25.000768" lon="121.026312">
      <name>大潭北路, 61</name>
      <desc>Turn left onto 大潭北路, 61</desc>
      
    </rtept>
    <rtept lat="24.999125" lon="121.025493">
      <name>大潭北路, 61</name>
      <desc>Turn left onto 大潭北路, 61</desc>
      
    </rtept>
    <rtept lat="24.998918" lon="121.02539">
      <name>大潭北路, 61</name>
      <desc>Turn left onto 大潭北路, 61</desc>
      
    </rtept>
    <rtept lat="24.998578" lon="121.025222">
      <name>大潭北路, 61</name>
      <desc>Turn left onto 大潭北路, 61</desc>
      
    </rtept>
    <rtept lat="24.997146" lon="121.024534">
      <name>大潭北路, 61</name>
      <desc>Turn left onto 大潭北路, 61</desc>
      
    </rtept>
    <rtept lat="24.995349" lon="121.02364">
      <name>大潭北路, 61</name>
      <desc>Turn left onto 大潭北路, 61</desc>
      
    </rtept>
    <rtept lat="24.993623" lon="121.022795">
      <name>大潭北路, 61</name>
      <desc>Turn left onto 大潭北路, 61</desc>
      
    </rtept>
    <rtept lat="24.991826" lon="121.021933">
      <name>大潭北路, 61</name>
      <desc>Turn left onto 大潭北路, 61</desc>
      
    </rtept>
    <rtept lat="24.991708" lon="121.021876">
      <name>大潭北路, 61</name>
      <desc>Turn left onto 大潭北路, 61</desc>
      
    </rtept>
    <rtept lat="24.989961" lon="121.021166">
      <name>大潭北路, 61</name>
      <desc>Turn left onto 大潭北路, 61</desc>
      
    </rtept>
    <rtept lat="24.988382" lon="121.02064">
      <name>大潭北路, 61</name>
      <desc>Turn left onto 大潭北路, 61</desc>
      
    </rtept>
    <rtept lat="24.988301" lon="121.020614">
      <name>大潭北路, 61</name>
      <desc>Turn left onto 大潭北路, 61</desc>
      
    </rtept>
    <rtept lat="24.987975" lon="121.020529">
      <name>中山西路三段, 114</name>
      <desc>Turn right onto 中山西路三段, 114</desc>
      
    </rtept>
    <rtept lat="24.988011" lon="121.020094">
      <name>中山西路三段, 114</name>
      <desc>Turn right onto 中山西路三段, 114</desc>
      
    </rtept>
    <rtept lat="24.988037" lon="121.01955">
      <name>中山西路三段, 114</name>
      <desc>Turn right onto 中山西路三段, 114</desc>
      
    </rtept>
    <rtept lat="24.988006" lon="121.01946">
      <name>中山西路三段, 114</name>
      <desc>Turn right onto 中山西路三段, 114</desc>
      
    </rtept>
    <rtept lat="24.988137" lon="121.018371">
      <name>中山西路三段, 114</name>
      <desc>Turn right onto 中山西路三段, 114</desc>
      
    </rtept>
    <rtept lat="24.988224" lon="121.018258">
      <name>桃園濱海自行車道</name>
      <desc>Turn left onto 桃園濱海自行車道</desc>
      
    </rtept>
    <rtept lat="24.988187" lon="121.018201">
      <name>桃園濱海自行車道</name>
      <desc>Turn left onto 桃園濱海自行車道</desc>
      
    </rtept>
    <rtept lat="24.987638" lon="121.017967">
      <name>桃園濱海自行車道</name>
      <desc>Turn left onto 桃園濱海自行車道</desc>
      
    </rtept>
    <rtept lat="24.987533" lon="121.017939">
      <name>桃園濱海自行車道</name>
      <desc>Turn left onto 桃園濱海自行車道</desc>
      
    </rtept>
    <rtept lat="24.987436" lon="121.017952">
      <name/>
      <desc>Turn right</desc>
      
    </rtept>
    <rtept lat="24.987427" lon="121.017809">
      <name/>
      <desc>Turn right</desc>
      
    </rtept>
    <rtept lat="24.987465" lon="121.017579">
      <name/>
      <desc>Turn right</desc>
      
    </rtept>
    <rtept lat="24.987664" lon="121.016864">
      <name/>
      <desc>Keep left</desc>
      
    </rtept>
    <rtept lat="24.987605" lon="121.016739">
      <name/>
      <desc>Keep left</desc>
      
    </rtept>
    <rtept lat="24.987677" lon="121.016512">
      <name/>
      <desc>Keep left</desc>
      
    </rtept>
    <rtept lat="24.988001" lon="121.015331">
      <name/>
      <desc>Keep left</desc>
      
    </rtept>
    <rtept lat="24.987866" lon="121.015282">
      <name/>
      <desc>Keep left</desc>
      
    </rtept>
    <rtept lat="24.987728" lon="121.015791">
      <name/>
      <desc>Arrive at your destination, on the right</desc>
      
    </rtept>
    
  </rte>
  
</gpx>
