<?xml version="1.0" encoding="UTF-8" standalone="yes"?><gpx version="1.1" creator="openrouteservice" xmlns="https://raw.githubusercontent.com/GIScience/openrouteservice-schema/main/gpx/v2/ors-gpx.xsd"><metadata><name>openrouteservice directions</name><desc>This is a directions instructions file as GPX, generated from openrouteservice</desc><author><name>openrouteservice</name><email id="support" domain="openrouteservice.heigit.org"/><link href="https://openrouteservice.org/"><text>https://openrouteservice.org/</text><type>text/html</type></link></author><copyright author="openrouteservice.org | OpenStreetMap contributors"><year>2026</year><license>LGPL 3.0</license></copyright><time>2026-05-20T08:34:43.131Z</time><bounds maxlat="24.987796" maxlon="121.017983" minlat="24.987169" minlon="121.014669"/></metadata><rte><rtept lat="24.987728" lon="121.015791"/><rtept lat="24.987543" lon="121.016479"/><rtept lat="24.987479" lon="121.016644"/><rtept lat="24.987402" lon="121.016725"/><rtept lat="24.987262" lon="121.01673"/><rtept lat="24.987295" lon="121.017621"/><rtept lat="24.987358" lon="121.017832"/><rtept lat="24.987436" lon="121.017952"/><rtept lat="24.987365" lon="121.017983"/><rtept lat="24.987254" lon="121.017731"/><rtept lat="24.987208" lon="121.017529"/><rtept lat="24.987169" lon="121.017452"/><rtept lat="24.987234" lon="121.017504"/><rtept lat="24.987214" lon="121.017262"/><rtept lat="24.987245" lon="121.016714"/><rtept lat="24.987386" lon="121.016206"/><rtept lat="24.987719" lon="121.015009"/><rtept lat="24.987796" lon="121.014669"/></rte></gpx>