<?xml version="1.0" encoding="UTF-8" standalone="yes"?><gpx version="1.1" creator="openrouteservice" xmlns="https://raw.githubusercontent.com/GIScience/openrouteservice-schema/main/gpx/v2/ors-gpx.xsd"><metadata><name>openrouteservice directions</name><desc>This is a directions instructions file as GPX, generated from openrouteservice</desc><author><name>openrouteservice</name><email id="support" domain="openrouteservice.heigit.org"/><link href="https://openrouteservice.org/"><text>https://openrouteservice.org/</text><type>text/html</type></link></author><copyright author="openrouteservice.org | OpenStreetMap contributors"><year>2026</year><license>LGPL 3.0</license></copyright><time>2026-05-20T08:34:46.609Z</time><bounds maxlat="24.848393" maxlon="120.930831" minlat="24.68638" minlon="120.864506"/></metadata><rte><rtept lat="24.848393" lon="120.930657"/><rtept lat="24.848097" lon="120.930714"/><rtept lat="24.848123" lon="120.930798"/><rtept lat="24.848006" lon="120.930831"/><rtept lat="24.847906" lon="120.930744"/><rtept lat="24.847715" lon="120.930613"/><rtept lat="24.847641" lon="120.93053"/><rtept lat="24.847605" lon="120.93041"/><rtept lat="24.847552" lon="120.929694"/><rtept lat="24.84755" lon="120.929668"/><rtept lat="24.847525" lon="120.929425"/><rtept lat="24.847488" lon="120.929063"/><rtept lat="24.847458" lon="120.928764"/><rtept lat="24.847417" lon="120.928768"/><rtept lat="24.846744" lon="120.928826"/><rtept lat="24.846519" lon="120.928845"/><rtept lat="24.845823" lon="120.928905"/><rtept lat="24.845694" lon="120.928916"/><rtept lat="24.845438" lon="120.928938"/><rtept lat="24.845088" lon="120.928797"/><rtept lat="24.845391" lon="120.928162"/><rtept lat="24.845533" lon="120.927898"/><rtept lat="24.845627" lon="120.927706"/><rtept lat="24.845708" lon="120.9275"/><rtept lat="24.845775" lon="120.927416"/><rtept lat="24.845971" lon="120.927034"/><rtept lat="24.846228" lon="120.92648"/><rtept lat="24.84625" lon="120.926428"/><rtept lat="24.846281" lon="120.926366"/><rtept lat="24.846445" lon="120.926035"/><rtept lat="24.846528" lon="120.925866"/><rtept lat="24.846462" lon="120.925798"/><rtept lat="24.846418" lon="120.925768"/><rtept lat="24.845732" lon="120.925304"/><rtept lat="24.845521" lon="120.925161"/><rtept lat="24.845416" lon="120.92509"/><rtept lat="24.845447" lon="120.925037"/><rtept lat="24.843988" lon="120.923963"/><rtept lat="24.843062" lon="120.923274"/><rtept lat="24.843002" lon="120.923229"/><rtept lat="24.842868" lon="120.923192"/><rtept lat="24.842653" lon="120.923118"/><rtept lat="24.842612" lon="120.922889"/><rtept lat="24.842928" lon="120.922329"/><rtept lat="24.841775" lon="120.921504"/><rtept lat="24.840011" lon="120.920185"/><rtept lat="24.83992" lon="120.920064"/><rtept lat="24.839571" lon="120.919795"/><rtept lat="24.839491" lon="120.919771"/><rtept lat="24.839015" lon="120.919807"/><rtept lat="24.838951" lon="120.919734"/><rtept lat="24.838367" lon="120.919066"/><rtept lat="24.838308" lon="120.918998"/><rtept lat="24.837469" lon="120.918341"/><rtept lat="24.837535" lon="120.918239"/><rtept lat="24.83759" lon="120.918156"/><rtept lat="24.837078" lon="120.91779"/><rtept lat="24.837103" lon="120.917724"/><rtept lat="24.83589" lon="120.916834"/><rtept lat="24.834698" lon="120.915944"/><rtept lat="24.834445" lon="120.915755"/><rtept lat="24.833563" lon="120.915133"/><rtept lat="24.832142" lon="120.914273"/><rtept lat="24.832029" lon="120.914236"/><rtept lat="24.831932" lon="120.91425"/><rtept lat="24.831835" lon="120.914296"/><rtept lat="24.831763" lon="120.914366"/><rtept lat="24.831614" lon="120.914598"/><rtept lat="24.831248" lon="120.914379"/><rtept lat="24.830797" lon="120.913999"/><rtept lat="24.830505" lon="120.9139"/><rtept lat="24.830389" lon="120.91382"/><rtept lat="24.82986" lon="120.913392"/><rtept lat="24.829403" lon="120.913082"/><rtept lat="24.828592" lon="120.912442"/><rtept lat="24.828233" lon="120.912399"/><rtept lat="24.827892" lon="120.912314"/><rtept lat="24.827668" lon="120.912235"/><rtept lat="24.827629" lon="120.912206"/><rtept lat="24.82754" lon="120.912185"/><rtept lat="24.826905" lon="120.911809"/><rtept lat="24.826079" lon="120.911316"/><rtept lat="24.825305" lon="120.910814"/><rtept lat="24.82355" lon="120.909687"/><rtept lat="24.823352" lon="120.909561"/><rtept lat="24.822752" lon="120.909276"/><rtept lat="24.822005" lon="120.908973"/><rtept lat="24.819599" lon="120.907999"/><rtept lat="24.819097" lon="120.907797"/><rtept lat="24.818591" lon="120.907593"/><rtept lat="24.818294" lon="120.907473"/><rtept lat="24.818078" lon="120.907407"/><rtept lat="24.817992" lon="120.907395"/><rtept lat="24.817075" lon="120.907267"/><rtept lat="24.815101" lon="120.907354"/><rtept lat="24.813795" lon="120.907462"/><rtept lat="24.813287" lon="120.907569"/><rtept lat="24.812782" lon="120.907754"/><rtept lat="24.812237" lon="120.908049"/><rtept lat="24.811263" lon="120.908628"/><rtept lat="24.810348" lon="120.909272"/><rtept lat="24.810258" lon="120.909307"/><rtept lat="24.81016" lon="120.909395"/><rtept lat="24.810069" lon="120.909536"/><rtept lat="24.809884" lon="120.910024"/><rtept lat="24.809799" lon="120.910361"/><rtept lat="24.809762" lon="120.910763"/><rtept lat="24.80978" lon="120.910954"/><rtept lat="24.809917" lon="120.911486"/><rtept lat="24.809965" lon="120.911662"/><rtept lat="24.810133" lon="120.912264"/><rtept lat="24.81079" lon="120.914347"/><rtept lat="24.810773" lon="120.914406"/><rtept lat="24.810944" lon="120.914936"/><rtept lat="24.81111" lon="120.915185"/><rtept lat="24.811361" lon="120.915387"/><rtept lat="24.811355" lon="120.915405"/><rtept lat="24.811204" lon="120.915955"/><rtept lat="24.811113" lon="120.915967"/><rtept lat="24.810859" lon="120.916147"/><rtept lat="24.810291" lon="120.918455"/><rtept lat="24.810107" lon="120.919127"/><rtept lat="24.810077" lon="120.919118"/><rtept lat="24.809385" lon="120.918908"/><rtept lat="24.809343" lon="120.918885"/><rtept lat="24.808624" lon="120.917979"/><rtept lat="24.808407" lon="120.917677"/><rtept lat="24.808233" lon="120.917575"/><rtept lat="24.808175" lon="120.91757"/><rtept lat="24.807862" lon="120.917554"/><rtept lat="24.807392" lon="120.917567"/><rtept lat="24.807017" lon="120.91764"/><rtept lat="24.806842" lon="120.917777"/><rtept lat="24.806716" lon="120.918046"/><rtept lat="24.805854" lon="120.917625"/><rtept lat="24.805747" lon="120.917572"/><rtept lat="24.803417" lon="120.917543"/><rtept lat="24.803075" lon="120.917338"/><rtept lat="24.802785" lon="120.917117"/><rtept lat="24.80263" lon="120.917093"/><rtept lat="24.802934" lon="120.917421"/><rtept lat="24.802912" lon="120.917524"/><rtept lat="24.802296" lon="120.917292"/><rtept lat="24.802088" lon="120.917232"/><rtept lat="24.801779" lon="120.917144"/><rtept lat="24.801518" lon="120.917088"/><rtept lat="24.801122" lon="120.917012"/><rtept lat="24.800609" lon="120.916954"/><rtept lat="24.799827" lon="120.916959"/><rtept lat="24.799524" lon="120.91699"/><rtept lat="24.799324" lon="120.917051"/><rtept lat="24.798462" lon="120.917408"/><rtept lat="24.798231" lon="120.917454"/><rtept lat="24.797986" lon="120.917479"/><rtept lat="24.79654" lon="120.917482"/><rtept lat="24.796308" lon="120.917432"/><rtept lat="24.796111" lon="120.917383"/><rtept lat="24.795667" lon="120.917257"/><rtept lat="24.795599" lon="120.917259"/><rtept lat="24.795589" lon="120.917149"/><rtept lat="24.795533" lon="120.917178"/><rtept lat="24.795277" lon="120.91725"/><rtept lat="24.795213" lon="120.917254"/><rtept lat="24.794957" lon="120.917162"/><rtept lat="24.794814" lon="120.91709"/><rtept lat="24.794824" lon="120.916713"/><rtept lat="24.794781" lon="120.916462"/><rtept lat="24.794885" lon="120.915478"/><rtept lat="24.794799" lon="120.915284"/><rtept lat="24.794678" lon="120.915193"/><rtept lat="24.794235" lon="120.915077"/><rtept lat="24.791644" lon="120.914541"/><rtept lat="24.789475" lon="120.914013"/><rtept lat="24.788365" lon="120.913649"/><rtept lat="24.787922" lon="120.913657"/><rtept lat="24.787251" lon="120.913539"/><rtept lat="24.786995" lon="120.913553"/><rtept lat="24.786691" lon="120.913607"/><rtept lat="24.786481" lon="120.913708"/><rtept lat="24.786377" lon="120.91385"/><rtept lat="24.786037" lon="120.915121"/><rtept lat="24.785971" lon="120.915188"/><rtept lat="24.785926" lon="120.915233"/><rtept lat="24.784772" lon="120.915172"/><rtept lat="24.784091" lon="120.915057"/><rtept lat="24.783777" lon="120.915055"/><rtept lat="24.783652" lon="120.915045"/><rtept lat="24.783511" lon="120.91503"/><rtept lat="24.783496" lon="120.915028"/><rtept lat="24.783367" lon="120.915014"/><rtept lat="24.781791" lon="120.914841"/><rtept lat="24.781669" lon="120.914828"/><rtept lat="24.78028" lon="120.914652"/><rtept lat="24.78019" lon="120.914641"/><rtept lat="24.779391" lon="120.914538"/><rtept lat="24.779284" lon="120.914525"/><rtept lat="24.778782" lon="120.91446"/><rtept lat="24.77876" lon="120.914611"/><rtept lat="24.777166" lon="120.914323"/><rtept lat="24.776469" lon="120.914224"/><rtept lat="24.775378" lon="120.914071"/><rtept lat="24.774808" lon="120.914023"/><rtept lat="24.772641" lon="120.913903"/><rtept lat="24.771865" lon="120.913828"/><rtept lat="24.770921" lon="120.913678"/><rtept lat="24.768784" lon="120.913228"/><rtept lat="24.767436" lon="120.912913"/><rtept lat="24.767091" lon="120.912803"/><rtept lat="24.766778" lon="120.912658"/><rtept lat="24.766434" lon="120.912453"/><rtept lat="24.76618" lon="120.912265"/><rtept lat="24.765921" lon="120.912034"/><rtept lat="24.765531" lon="120.911593"/><rtept lat="24.765218" lon="120.911179"/><rtept lat="24.764394" lon="120.910044"/><rtept lat="24.763784" lon="120.909225"/><rtept lat="24.763488" lon="120.908902"/><rtept lat="24.763173" lon="120.908637"/><rtept lat="24.76311" lon="120.908577"/><rtept lat="24.762984" lon="120.908488"/><rtept lat="24.762583" lon="120.908243"/><rtept lat="24.762115" lon="120.908008"/><rtept lat="24.760798" lon="120.907443"/><rtept lat="24.759174" lon="120.906597"/><rtept lat="24.758715" lon="120.906382"/><rtept lat="24.758416" lon="120.906266"/><rtept lat="24.757982" lon="120.906131"/><rtept lat="24.757572" lon="120.906034"/><rtept lat="24.757086" lon="120.905952"/><rtept lat="24.756623" lon="120.905922"/><rtept lat="24.755296" lon="120.905906"/><rtept lat="24.754361" lon="120.90581"/><rtept lat="24.754097" lon="120.905751"/><rtept lat="24.752711" lon="120.905295"/><rtept lat="24.750473" lon="120.904494"/><rtept lat="24.74923" lon="120.904075"/><rtept lat="24.748559" lon="120.903818"/><rtept lat="24.748243" lon="120.903659"/><rtept lat="24.74785" lon="120.903409"/><rtept lat="24.747503" lon="120.903147"/><rtept lat="24.747092" lon="120.902722"/><rtept lat="24.746941" lon="120.902539"/><rtept lat="24.74655" lon="120.90189"/><rtept lat="24.746365" lon="120.901532"/><rtept lat="24.746146" lon="120.901061"/><rtept lat="24.74557" lon="120.899879"/><rtept lat="24.745314" lon="120.899414"/><rtept lat="24.744906" lon="120.898763"/><rtept lat="24.744541" lon="120.898316"/><rtept lat="24.743793" lon="120.897345"/><rtept lat="24.743205" lon="120.896659"/><rtept lat="24.741983" lon="120.894996"/><rtept lat="24.740824" lon="120.893207"/><rtept lat="24.740355" lon="120.892341"/><rtept lat="24.739739" lon="120.891257"/><rtept lat="24.738601" lon="120.889191"/><rtept lat="24.73831" lon="120.888665"/><rtept lat="24.737015" lon="120.886318"/><rtept lat="24.736113" lon="120.884823"/><rtept lat="24.735518" lon="120.883905"/><rtept lat="24.733414" lon="120.880754"/><rtept lat="24.732855" lon="120.879881"/><rtept lat="24.73198" lon="120.878695"/><rtept lat="24.730768" lon="120.877075"/><rtept lat="24.73035" lon="120.87656"/><rtept lat="24.729936" lon="120.876018"/><rtept lat="24.728384" lon="120.874056"/><rtept lat="24.726922" lon="120.872122"/><rtept lat="24.726357" lon="120.871481"/><rtept lat="24.725861" lon="120.870972"/><rtept lat="24.724931" lon="120.870166"/><rtept lat="24.724146" lon="120.869612"/><rtept lat="24.723605" lon="120.869286"/><rtept lat="24.722707" lon="120.868834"/><rtept lat="24.722047" lon="120.868564"/><rtept lat="24.721287" lon="120.86832"/><rtept lat="24.72076" lon="120.86818"/><rtept lat="24.719593" lon="120.867965"/><rtept lat="24.717202" lon="120.867565"/><rtept lat="24.716405" lon="120.867426"/><rtept lat="24.715557" lon="120.867303"/><rtept lat="24.715273" lon="120.867266"/><rtept lat="24.714474" lon="120.867138"/><rtept lat="24.713157" lon="120.866949"/><rtept lat="24.712314" lon="120.866906"/><rtept lat="24.711775" lon="120.866934"/><rtept lat="24.710352" lon="120.867062"/><rtept lat="24.70876" lon="120.867214"/><rtept lat="24.70629" lon="120.867453"/><rtept lat="24.705712" lon="120.867481"/><rtept lat="24.705104" lon="120.867441"/><rtept lat="24.704658" lon="120.867371"/><rtept lat="24.704058" lon="120.8672"/><rtept lat="24.703392" lon="120.866964"/><rtept lat="24.703062" lon="120.866841"/><rtept lat="24.702324" lon="120.86657"/><rtept lat="24.702127" lon="120.866476"/><rtept lat="24.70198" lon="120.866386"/><rtept lat="24.701586" lon="120.865963"/><rtept lat="24.701394" lon="120.865805"/><rtept lat="24.701199" lon="120.865733"/><rtept lat="24.700997" lon="120.865702"/><rtept lat="24.700924" lon="120.865705"/><rtept lat="24.700499" lon="120.865755"/><rtept lat="24.700314" lon="120.865751"/><rtept lat="24.700149" lon="120.865715"/><rtept lat="24.699666" lon="120.865519"/><rtept lat="24.698823" lon="120.865208"/><rtept lat="24.698277" lon="120.864984"/><rtept lat="24.697449" lon="120.864506"/><rtept lat="24.697371" lon="120.864594"/><rtept lat="24.697285" lon="120.864757"/><rtept lat="24.696373" lon="120.866112"/><rtept lat="24.695966" lon="120.866753"/><rtept lat="24.695862" lon="120.866962"/><rtept lat="24.695729" lon="120.867232"/><rtept lat="24.695616" lon="120.867493"/><rtept lat="24.695484" lon="120.867784"/><rtept lat="24.695275" lon="120.868141"/><rtept lat="24.694846" lon="120.869041"/><rtept lat="24.69475" lon="120.869239"/><rtept lat="24.694531" lon="120.869707"/><rtept lat="24.69448" lon="120.869843"/><rtept lat="24.694437" lon="120.870034"/><rtept lat="24.694323" lon="120.870178"/><rtept lat="24.694165" lon="120.870355"/><rtept lat="24.693986" lon="120.870541"/><rtept lat="24.693778" lon="120.870757"/><rtept lat="24.693094" lon="120.871522"/><rtept lat="24.691763" lon="120.872953"/><rtept lat="24.691664" lon="120.873061"/><rtept lat="24.691597" lon="120.87314"/><rtept lat="24.691478" lon="120.873276"/><rtept lat="24.691125" lon="120.873678"/><rtept lat="24.690769" lon="120.87407"/><rtept lat="24.690425" lon="120.874419"/><rtept lat="24.689883" lon="120.875011"/><rtept lat="24.689712" lon="120.875192"/><rtept lat="24.689413" lon="120.875534"/><rtept lat="24.688823" lon="120.87614"/><rtept lat="24.688672" lon="120.876322"/><rtept lat="24.688513" lon="120.876489"/><rtept lat="24.687727" lon="120.877013"/><rtept lat="24.687687" lon="120.877731"/><rtept lat="24.686786" lon="120.877706"/><rtept lat="24.686755" lon="120.878448"/><rtept lat="24.686708" lon="120.879204"/><rtept lat="24.686666" lon="120.879945"/><rtept lat="24.686604" lon="120.87994"/><rtept lat="24.686381" lon="120.879925"/><rtept lat="24.68638" lon="120.880137"/><rtept lat="24.686403" lon="120.880171"/><rtept lat="24.686588" lon="120.880197"/><rtept lat="24.686581" lon="120.880276"/><rtept lat="24.686499" lon="120.88027"/><rtept lat="24.686485" lon="120.880556"/></rte></gpx>