<?xml version="1.0" encoding="UTF-8" standalone="yes"?><gpx version="1.1" creator="openrouteservice" xmlns="https://raw.githubusercontent.com/GIScience/openrouteservice-schema/main/gpx/v2/ors-gpx.xsd"><metadata><name>openrouteservice directions</name><desc>This is a directions instructions file as GPX, generated from openrouteservice</desc><author><name>openrouteservice</name><email id="support" domain="openrouteservice.heigit.org"/><link href="https://openrouteservice.org/"><text>https://openrouteservice.org/</text><type>text/html</type></link></author><copyright author="openrouteservice.org | OpenStreetMap contributors"><year>2026</year><license>LGPL 3.0</license></copyright><time>2026-05-20T08:34:39.720Z</time><bounds maxlat="25.123584" maxlon="121.318853" minlat="25.116118" minlon="121.244553"/></metadata><rte><rtept lat="25.119789" lon="121.318853"/><rtept lat="25.119771" lon="121.31883"/><rtept lat="25.119738" lon="121.31872"/><rtept lat="25.119797" lon="121.31861"/><rtept lat="25.119766" lon="121.318449"/><rtept lat="25.119672" lon="121.31843"/><rtept lat="25.119587" lon="121.318201"/><rtept lat="25.11957" lon="121.318158"/><rtept lat="25.119539" lon="121.318065"/><rtept lat="25.119539" lon="121.318018"/><rtept lat="25.1197" lon="121.317872"/><rtept lat="25.119743" lon="121.31767"/><rtept lat="25.119872" lon="121.317544"/><rtept lat="25.119994" lon="121.317526"/><rtept lat="25.120235" lon="121.317609"/><rtept lat="25.120395" lon="121.317609"/><rtept lat="25.120589" lon="121.317526"/><rtept lat="25.120708" lon="121.317454"/><rtept lat="25.120839" lon="121.317494"/><rtept lat="25.121259" lon="121.317357"/><rtept lat="25.121534" lon="121.317325"/><rtept lat="25.121896" lon="121.31741"/><rtept lat="25.121892" lon="121.317484"/><rtept lat="25.121876" lon="121.317619"/><rtept lat="25.121821" lon="121.317889"/><rtept lat="25.121659" lon="121.318089"/><rtept lat="25.121529" lon="121.318316"/><rtept lat="25.121423" lon="121.318825"/><rtept lat="25.121367" lon="121.318819"/><rtept lat="25.121385" lon="121.31869"/><rtept lat="25.121452" lon="121.31757"/><rtept lat="25.12148" lon="121.31716"/><rtept lat="25.121988" lon="121.311317"/><rtept lat="25.122018" lon="121.310217"/><rtept lat="25.122005" lon="121.30976"/><rtept lat="25.121971" lon="121.309315"/><rtept lat="25.121922" lon="121.308697"/><rtept lat="25.121791" lon="121.307671"/><rtept lat="25.121737" lon="121.307144"/><rtept lat="25.121754" lon="121.306674"/><rtept lat="25.1218" lon="121.306257"/><rtept lat="25.12196" lon="121.305617"/><rtept lat="25.122808" lon="121.303813"/><rtept lat="25.123164" lon="121.303005"/><rtept lat="25.123394" lon="121.302419"/><rtept lat="25.123546" lon="121.30177"/><rtept lat="25.123579" lon="121.30135"/><rtept lat="25.123584" lon="121.300892"/><rtept lat="25.123566" lon="121.300628"/><rtept lat="25.123431" lon="121.299909"/><rtept lat="25.12332" lon="121.29955"/><rtept lat="25.123168" lon="121.2992"/><rtept lat="25.123013" lon="121.298972"/><rtept lat="25.122848" lon="121.298729"/><rtept lat="25.122087" lon="121.2974"/><rtept lat="25.121841" lon="121.297029"/><rtept lat="25.121455" lon="121.296583"/><rtept lat="25.121044" lon="121.296171"/><rtept lat="25.120577" lon="121.295705"/><rtept lat="25.120165" lon="121.295277"/><rtept lat="25.119823" lon="121.294793"/><rtept lat="25.119579" lon="121.294374"/><rtept lat="25.118321" lon="121.291969"/><rtept lat="25.118087" lon="121.291518"/><rtept lat="25.117942" lon="121.291182"/><rtept lat="25.117711" lon="121.290515"/><rtept lat="25.117614" lon="121.289948"/><rtept lat="25.117543" lon="121.289046"/><rtept lat="25.117457" lon="121.288362"/><rtept lat="25.117392" lon="121.288073"/><rtept lat="25.117041" lon="121.286851"/><rtept lat="25.116913" lon="121.286277"/><rtept lat="25.116881" lon="121.28585"/><rtept lat="25.116877" lon="121.285548"/><rtept lat="25.116879" lon="121.285133"/><rtept lat="25.116948" lon="121.284187"/><rtept lat="25.117049" lon="121.282941"/><rtept lat="25.117072" lon="121.282403"/><rtept lat="25.117068" lon="121.28198"/><rtept lat="25.117001" lon="121.281292"/><rtept lat="25.116922" lon="121.280849"/><rtept lat="25.116719" lon="121.280002"/><rtept lat="25.116648" lon="121.279486"/><rtept lat="25.116636" lon="121.279365"/><rtept lat="25.116578" lon="121.27878"/><rtept lat="25.116524" lon="121.276935"/><rtept lat="25.116489" lon="121.274685"/><rtept lat="25.116445" lon="121.272373"/><rtept lat="25.116497" lon="121.271473"/><rtept lat="25.116672" lon="121.270478"/><rtept lat="25.116971" lon="121.269339"/><rtept lat="25.117231" lon="121.26851"/><rtept lat="25.117838" lon="121.266573"/><rtept lat="25.118245" lon="121.265359"/><rtept lat="25.118522" lon="121.264612"/><rtept lat="25.118542" lon="121.264426"/><rtept lat="25.118872" lon="121.26323"/><rtept lat="25.118941" lon="121.262844"/><rtept lat="25.119037" lon="121.262286"/><rtept lat="25.119077" lon="121.261619"/><rtept lat="25.119051" lon="121.2603"/><rtept lat="25.118988" lon="121.259779"/><rtept lat="25.118861" lon="121.25898"/><rtept lat="25.118522" lon="121.257347"/><rtept lat="25.118405" lon="121.256724"/><rtept lat="25.118283" lon="121.256082"/><rtept lat="25.11798" lon="121.254738"/><rtept lat="25.117773" lon="121.253953"/><rtept lat="25.117526" lon="121.253166"/><rtept lat="25.117406" lon="121.252853"/><rtept lat="25.117085" lon="121.252425"/><rtept lat="25.116882" lon="121.251923"/><rtept lat="25.11642" lon="121.250977"/><rtept lat="25.116118" lon="121.250457"/><rtept lat="25.11646" lon="121.250386"/><rtept lat="25.116653" lon="121.250249"/><rtept lat="25.116821" lon="121.250106"/><rtept lat="25.117058" lon="121.249826"/><rtept lat="25.118679" lon="121.247576"/><rtept lat="25.1188" lon="121.247438"/><rtept lat="25.118855" lon="121.247345"/><rtept lat="25.119033" lon="121.246973"/><rtept lat="25.119115" lon="121.246739"/><rtept lat="25.119142" lon="121.246606"/><rtept lat="25.119103" lon="121.246539"/><rtept lat="25.118641" lon="121.246509"/><rtept lat="25.118539" lon="121.246517"/><rtept lat="25.118129" lon="121.246692"/><rtept lat="25.118031" lon="121.246689"/><rtept lat="25.117862" lon="121.246532"/><rtept lat="25.11778" lon="121.246413"/><rtept lat="25.117668" lon="121.246231"/><rtept lat="25.117331" lon="121.245686"/><rtept lat="25.117218" lon="121.245466"/><rtept lat="25.117342" lon="121.245194"/><rtept lat="25.117394" lon="121.245108"/><rtept lat="25.11738" lon="121.245055"/><rtept lat="25.117098" lon="121.24484"/><rtept lat="25.117264" lon="121.244553"/></rte></gpx>