<?xml version="1.0" encoding="UTF-8" standalone="yes"?><gpx version="1.1" creator="openrouteservice" xmlns="https://raw.githubusercontent.com/GIScience/openrouteservice-schema/main/gpx/v2/ors-gpx.xsd"><metadata><name>openrouteservice directions</name><desc>This is a directions instructions file as GPX, generated from openrouteservice</desc><author><name>openrouteservice</name><email id="support" domain="openrouteservice.heigit.org"/><link href="https://openrouteservice.org/"><text>https://openrouteservice.org/</text><type>text/html</type></link></author><copyright author="openrouteservice.org | OpenStreetMap contributors"><year>2026</year><license>LGPL 3.0</license></copyright><time>2026-05-20T08:34:45.452Z</time><bounds maxlat="24.988119" maxlon="121.020499" minlat="24.841009" minlon="120.930657"/></metadata><rte><rtept lat="24.988119" lon="121.018519"/><rtept lat="24.988006" lon="121.01946"/><rtept lat="24.987957" lon="121.019555"/><rtept lat="24.987921" lon="121.020141"/><rtept lat="24.987885" lon="121.020499"/><rtept lat="24.987548" lon="121.020389"/><rtept lat="24.987302" lon="121.020304"/><rtept lat="24.98626" lon="121.019983"/><rtept lat="24.984036" lon="121.019463"/><rtept lat="24.982872" lon="121.019249"/><rtept lat="24.979573" lon="121.01879"/><rtept lat="24.978445" lon="121.018597"/><rtept lat="24.978026" lon="121.018496"/><rtept lat="24.977348" lon="121.018347"/><rtept lat="24.976097" lon="121.018028"/><rtept lat="24.975723" lon="121.017946"/><rtept lat="24.974242" lon="121.017496"/><rtept lat="24.973553" lon="121.017254"/><rtept lat="24.973233" lon="121.017151"/><rtept lat="24.971055" lon="121.016257"/><rtept lat="24.970734" lon="121.016122"/><rtept lat="24.9692" lon="121.015331"/><rtept lat="24.968459" lon="121.014959"/><rtept lat="24.96653" lon="121.013936"/><rtept lat="24.966369" lon="121.013848"/><rtept lat="24.964983" lon="121.01315"/><rtept lat="24.963926" lon="121.012568"/><rtept lat="24.96224" lon="121.011577"/><rtept lat="24.961362" lon="121.01098"/><rtept lat="24.960628" lon="121.010438"/><rtept lat="24.959581" lon="121.009636"/><rtept lat="24.959128" lon="121.009227"/><rtept lat="24.957674" lon="121.007871"/><rtept lat="24.956886" lon="121.007042"/><rtept lat="24.956147" lon="121.006207"/><rtept lat="24.955475" lon="121.005312"/><rtept lat="24.954819" lon="121.004479"/><rtept lat="24.953699" lon="121.00283"/><rtept lat="24.953262" lon="121.002094"/><rtept lat="24.951773" lon="120.999421"/><rtept lat="24.951249" lon="120.998552"/><rtept lat="24.950667" lon="120.997663"/><rtept lat="24.94999" lon="120.996724"/><rtept lat="24.949162" lon="120.995659"/><rtept lat="24.948903" lon="120.995332"/><rtept lat="24.948412" lon="120.994758"/><rtept lat="24.947951" lon="120.994252"/><rtept lat="24.946608" lon="120.992894"/><rtept lat="24.945865" lon="120.992215"/><rtept lat="24.944859" lon="120.991369"/><rtept lat="24.944337" lon="120.990968"/><rtept lat="24.942877" lon="120.989886"/><rtept lat="24.940355" lon="120.988331"/><rtept lat="24.938014" lon="120.986834"/><rtept lat="24.937113" lon="120.986206"/><rtept lat="24.936289" lon="120.985526"/><rtept lat="24.935395" lon="120.984843"/><rtept lat="24.9348" lon="120.984322"/><rtept lat="24.933474" lon="120.983055"/><rtept lat="24.932055" lon="120.981697"/><rtept lat="24.930632" lon="120.980332"/><rtept lat="24.929211" lon="120.978979"/><rtept lat="24.927784" lon="120.977631"/><rtept lat="24.92637" lon="120.976279"/><rtept lat="24.925256" lon="120.975201"/><rtept lat="24.924067" lon="120.974086"/><rtept lat="24.923212" lon="120.973465"/><rtept lat="24.921935" lon="120.972691"/><rtept lat="24.920823" lon="120.972254"/><rtept lat="24.920046" lon="120.972047"/><rtept lat="24.919469" lon="120.971924"/><rtept lat="24.919159" lon="120.971888"/><rtept lat="24.918798" lon="120.971845"/><rtept lat="24.918249" lon="120.971814"/><rtept lat="24.918114" lon="120.971806"/><rtept lat="24.917963" lon="120.97181"/><rtept lat="24.917831" lon="120.971814"/><rtept lat="24.917294" lon="120.97183"/><rtept lat="24.916897" lon="120.971863"/><rtept lat="24.916382" lon="120.971906"/><rtept lat="24.915694" lon="120.971962"/><rtept lat="24.915577" lon="120.97197"/><rtept lat="24.913981" lon="120.972072"/><rtept lat="24.913232" lon="120.972174"/><rtept lat="24.911637" lon="120.972315"/><rtept lat="24.906926" lon="120.972676"/><rtept lat="24.905743" lon="120.972655"/><rtept lat="24.904971" lon="120.972576"/><rtept lat="24.904294" lon="120.972469"/><rtept lat="24.903808" lon="120.97232"/><rtept lat="24.902562" lon="120.971824"/><rtept lat="24.902315" lon="120.971711"/><rtept lat="24.901881" lon="120.971462"/><rtept lat="24.901512" lon="120.971177"/><rtept lat="24.901457" lon="120.971134"/><rtept lat="24.901403" lon="120.971098"/><rtept lat="24.900789" lon="120.970677"/><rtept lat="24.900248" lon="120.97018"/><rtept lat="24.899929" lon="120.969839"/><rtept lat="24.89866" lon="120.968406"/><rtept lat="24.898603" lon="120.968342"/><rtept lat="24.898561" lon="120.968291"/><rtept lat="24.89823" lon="120.96789"/><rtept lat="24.897491" lon="120.966933"/><rtept lat="24.897442" lon="120.966869"/><rtept lat="24.897123" lon="120.966482"/><rtept lat="24.896136" lon="120.965101"/><rtept lat="24.895659" lon="120.964303"/><rtept lat="24.89464" lon="120.962881"/><rtept lat="24.893876" lon="120.961919"/><rtept lat="24.893026" lon="120.961002"/><rtept lat="24.891902" lon="120.959864"/><rtept lat="24.891158" lon="120.959209"/><rtept lat="24.890532" lon="120.958758"/><rtept lat="24.88951" lon="120.958072"/><rtept lat="24.888849" lon="120.957674"/><rtept lat="24.887838" lon="120.957128"/><rtept lat="24.886496" lon="120.956581"/><rtept lat="24.883214" lon="120.955674"/><rtept lat="24.881954" lon="120.955358"/><rtept lat="24.880763" lon="120.95504"/><rtept lat="24.877936" lon="120.95432"/><rtept lat="24.877617" lon="120.954275"/><rtept lat="24.876544" lon="120.954118"/><rtept lat="24.876454" lon="120.954106"/><rtept lat="24.87603" lon="120.954043"/><rtept lat="24.874852" lon="120.953898"/><rtept lat="24.873071" lon="120.953716"/><rtept lat="24.871962" lon="120.953597"/><rtept lat="24.871854" lon="120.953585"/><rtept lat="24.870037" lon="120.953381"/><rtept lat="24.868409" lon="120.953214"/><rtept lat="24.868348" lon="120.953208"/><rtept lat="24.866712" lon="120.953002"/><rtept lat="24.86661" lon="120.952989"/><rtept lat="24.865751" lon="120.952819"/><rtept lat="24.864786" lon="120.952559"/><rtept lat="24.863146" lon="120.951962"/><rtept lat="24.862449" lon="120.951671"/><rtept lat="24.86205" lon="120.951428"/><rtept lat="24.861684" lon="120.951144"/><rtept lat="24.861519" lon="120.951014"/><rtept lat="24.861097" lon="120.950935"/><rtept lat="24.860769" lon="120.950785"/><rtept lat="24.860089" lon="120.950329"/><rtept lat="24.859457" lon="120.949906"/><rtept lat="24.858589" lon="120.949236"/><rtept lat="24.857828" lon="120.94853"/><rtept lat="24.857698" lon="120.948409"/><rtept lat="24.856394" lon="120.947066"/><rtept lat="24.856049" lon="120.94682"/><rtept lat="24.855516" lon="120.946268"/><rtept lat="24.854892" lon="120.945621"/><rtept lat="24.854775" lon="120.945513"/><rtept lat="24.854697" lon="120.945442"/><rtept lat="24.854297" lon="120.945016"/><rtept lat="24.853282" lon="120.943975"/><rtept lat="24.852815" lon="120.943481"/><rtept lat="24.852741" lon="120.943417"/><rtept lat="24.852553" lon="120.943252"/><rtept lat="24.852171" lon="120.942906"/><rtept lat="24.852099" lon="120.942841"/><rtept lat="24.850763" lon="120.941612"/><rtept lat="24.844349" lon="120.935797"/><rtept lat="24.844012" lon="120.935479"/><rtept lat="24.842417" lon="120.934082"/><rtept lat="24.841397" lon="120.932939"/><rtept lat="24.841009" lon="120.932556"/><rtept lat="24.841336" lon="120.932124"/><rtept lat="24.841652" lon="120.931706"/><rtept lat="24.842011" lon="120.931254"/><rtept lat="24.842368" lon="120.930802"/><rtept lat="24.843709" lon="120.931479"/><rtept lat="24.844172" lon="120.931734"/><rtept lat="24.844608" lon="120.931994"/><rtept lat="24.844948" lon="120.93219"/><rtept lat="24.845751" lon="120.93267"/><rtept lat="24.845857" lon="120.932734"/><rtept lat="24.845895" lon="120.932682"/><rtept lat="24.846345" lon="120.932063"/><rtept lat="24.846619" lon="120.931751"/><rtept lat="24.846906" lon="120.931477"/><rtept lat="24.847411" lon="120.931126"/><rtept lat="24.847874" lon="120.930897"/><rtept lat="24.848006" lon="120.930831"/><rtept lat="24.848123" lon="120.930798"/><rtept lat="24.848097" lon="120.930714"/><rtept lat="24.848393" lon="120.930657"/></rte></gpx>