<?xml version="1.0" encoding="UTF-8" standalone="yes"?><gpx version="1.1" creator="openrouteservice" xmlns="https://raw.githubusercontent.com/GIScience/openrouteservice-schema/main/gpx/v2/ors-gpx.xsd"><metadata><name>openrouteservice directions</name><desc>This is a directions instructions file as GPX, generated from openrouteservice</desc><author><name>openrouteservice</name><email id="support" domain="openrouteservice.heigit.org"/><link href="https://openrouteservice.org/"><text>https://openrouteservice.org/</text><type>text/html</type></link></author><copyright author="openrouteservice.org | OpenStreetMap contributors"><year>2026</year><license>LGPL 3.0</license></copyright><time>2026-05-20T08:34:35.431Z</time><bounds maxlat="25.151131" maxlon="121.465268" minlat="25.088572" minlon="121.442919"/></metadata><rte><rtept lat="25.088572" lon="121.462579"/><rtept lat="25.088581" lon="121.462649"/><rtept lat="25.088651" lon="121.463096"/><rtept lat="25.089256" lon="121.464249"/><rtept lat="25.089488" lon="121.464654"/><rtept lat="25.089867" lon="121.465268"/><rtept lat="25.090215" lon="121.465031"/><rtept lat="25.090954" lon="121.464528"/><rtept lat="25.091004" lon="121.46449"/><rtept lat="25.091107" lon="121.464429"/><rtept lat="25.091191" lon="121.464385"/><rtept lat="25.091331" lon="121.464297"/><rtept lat="25.09218" lon="121.463825"/><rtept lat="25.093212" lon="121.463238"/><rtept lat="25.093537" lon="121.463057"/><rtept lat="25.093769" lon="121.462958"/><rtept lat="25.094059" lon="121.462837"/><rtept lat="25.094602" lon="121.462615"/><rtept lat="25.095158" lon="121.462389"/><rtept lat="25.095437" lon="121.462279"/><rtept lat="25.09551" lon="121.46225"/><rtept lat="25.095738" lon="121.462163"/><rtept lat="25.096187" lon="121.462"/><rtept lat="25.096457" lon="121.461904"/><rtept lat="25.096798" lon="121.461779"/><rtept lat="25.096981" lon="121.461694"/><rtept lat="25.097099" lon="121.461595"/><rtept lat="25.097161" lon="121.461494"/><rtept lat="25.097236" lon="121.461252"/><rtept lat="25.097253" lon="121.461173"/><rtept lat="25.097266" lon="121.461109"/><rtept lat="25.097313" lon="121.460956"/><rtept lat="25.097577" lon="121.460971"/><rtept lat="25.098084" lon="121.461263"/><rtept lat="25.098399" lon="121.461391"/><rtept lat="25.098466" lon="121.461302"/><rtept lat="25.098194" lon="121.460861"/><rtept lat="25.098117" lon="121.460619"/><rtept lat="25.097819" lon="121.459095"/><rtept lat="25.097752" lon="121.458616"/><rtept lat="25.097718" lon="121.458228"/><rtept lat="25.097694" lon="121.457964"/><rtept lat="25.09768" lon="121.4579"/><rtept lat="25.0979" lon="121.457765"/><rtept lat="25.098035" lon="121.4576"/><rtept lat="25.098162" lon="121.457521"/><rtept lat="25.098377" lon="121.457332"/><rtept lat="25.098533" lon="121.457128"/><rtept lat="25.098637" lon="121.457033"/><rtept lat="25.098725" lon="121.45699"/><rtept lat="25.098849" lon="121.45694"/><rtept lat="25.099343" lon="121.456509"/><rtept lat="25.100455" lon="121.455479"/><rtept lat="25.100684" lon="121.455311"/><rtept lat="25.100777" lon="121.45527"/><rtept lat="25.100838" lon="121.455307"/><rtept lat="25.101141" lon="121.455385"/><rtept lat="25.101575" lon="121.455727"/><rtept lat="25.10185" lon="121.455927"/><rtept lat="25.102026" lon="121.456026"/><rtept lat="25.102228" lon="121.456095"/><rtept lat="25.102253" lon="121.456013"/><rtept lat="25.1026" lon="121.454905"/><rtept lat="25.10267" lon="121.454813"/><rtept lat="25.102734" lon="121.454732"/><rtept lat="25.103354" lon="121.455133"/><rtept lat="25.103767" lon="121.455439"/><rtept lat="25.104001" lon="121.455591"/><rtept lat="25.104243" lon="121.455675"/><rtept lat="25.104996" lon="121.455767"/><rtept lat="25.105756" lon="121.455838"/><rtept lat="25.105892" lon="121.455776"/><rtept lat="25.105909" lon="121.455768"/><rtept lat="25.106068" lon="121.455816"/><rtept lat="25.106588" lon="121.45596"/><rtept lat="25.106671" lon="121.45598"/><rtept lat="25.10678" lon="121.45586"/><rtept lat="25.106962" lon="121.455855"/><rtept lat="25.10713" lon="121.455882"/><rtept lat="25.107289" lon="121.45593"/><rtept lat="25.108557" lon="121.45618"/><rtept lat="25.109599" lon="121.456433"/><rtept lat="25.10981" lon="121.456507"/><rtept lat="25.110373" lon="121.456791"/><rtept lat="25.110694" lon="121.457206"/><rtept lat="25.110956" lon="121.457444"/><rtept lat="25.111191" lon="121.457645"/><rtept lat="25.111382" lon="121.457789"/><rtept lat="25.111655" lon="121.457995"/><rtept lat="25.111976" lon="121.458204"/><rtept lat="25.112234" lon="121.458413"/><rtept lat="25.112504" lon="121.458633"/><rtept lat="25.11254" lon="121.458655"/><rtept lat="25.112851" lon="121.458836"/><rtept lat="25.113301" lon="121.459003"/><rtept lat="25.113643" lon="121.459068"/><rtept lat="25.113792" lon="121.459072"/><rtept lat="25.113974" lon="121.459056"/><rtept lat="25.114225" lon="121.459009"/><rtept lat="25.114533" lon="121.458924"/><rtept lat="25.114874" lon="121.458788"/><rtept lat="25.115683" lon="121.45839"/><rtept lat="25.116198" lon="121.458298"/><rtept lat="25.1164" lon="121.458247"/><rtept lat="25.116666" lon="121.45819"/><rtept lat="25.117252" lon="121.458058"/><rtept lat="25.117633" lon="121.457923"/><rtept lat="25.117706" lon="121.457896"/><rtept lat="25.118021" lon="121.457769"/><rtept lat="25.118491" lon="121.457676"/><rtept lat="25.118687" lon="121.457687"/><rtept lat="25.118997" lon="121.45759"/><rtept lat="25.119154" lon="121.457522"/><rtept lat="25.119258" lon="121.457451"/><rtept lat="25.119355" lon="121.457363"/><rtept lat="25.119531" lon="121.457148"/><rtept lat="25.119591" lon="121.457099"/><rtept lat="25.119741" lon="121.456981"/><rtept lat="25.120075" lon="121.456797"/><rtept lat="25.120154" lon="121.456775"/><rtept lat="25.120382" lon="121.456775"/><rtept lat="25.120408" lon="121.456775"/><rtept lat="25.12064" lon="121.456729"/><rtept lat="25.120739" lon="121.456694"/><rtept lat="25.120822" lon="121.456658"/><rtept lat="25.121101" lon="121.456469"/><rtept lat="25.121269" lon="121.456394"/><rtept lat="25.121495" lon="121.45634"/><rtept lat="25.121575" lon="121.456301"/><rtept lat="25.122345" lon="121.455892"/><rtept lat="25.122648" lon="121.455597"/><rtept lat="25.12287" lon="121.455504"/><rtept lat="25.123094" lon="121.45538"/><rtept lat="25.123186" lon="121.455368"/><rtept lat="25.123222" lon="121.455395"/><rtept lat="25.123272" lon="121.455385"/><rtept lat="25.123962" lon="121.454808"/><rtept lat="25.124226" lon="121.454648"/><rtept lat="25.124374" lon="121.454577"/><rtept lat="25.124427" lon="121.454519"/><rtept lat="25.124699" lon="121.454339"/><rtept lat="25.124868" lon="121.4543"/><rtept lat="25.125038" lon="121.454342"/><rtept lat="25.125248" lon="121.454467"/><rtept lat="25.125329" lon="121.454458"/><rtept lat="25.125383" lon="121.454389"/><rtept lat="25.125436" lon="121.454294"/><rtept lat="25.12554" lon="121.45413"/><rtept lat="25.12567" lon="121.454025"/><rtept lat="25.125757" lon="121.45398"/><rtept lat="25.125874" lon="121.453947"/><rtept lat="25.12608" lon="121.453945"/><rtept lat="25.12616" lon="121.453914"/><rtept lat="25.126258" lon="121.453865"/><rtept lat="25.126296" lon="121.453823"/><rtept lat="25.126391" lon="121.453621"/><rtept lat="25.126457" lon="121.453515"/><rtept lat="25.126504" lon="121.453473"/><rtept lat="25.127185" lon="121.453112"/><rtept lat="25.127315" lon="121.453055"/><rtept lat="25.127866" lon="121.452797"/><rtept lat="25.128066" lon="121.452719"/><rtept lat="25.128511" lon="121.452688"/><rtept lat="25.12858" lon="121.45269"/><rtept lat="25.128713" lon="121.45273"/><rtept lat="25.128867" lon="121.452672"/><rtept lat="25.129322" lon="121.452616"/><rtept lat="25.129519" lon="121.452512"/><rtept lat="25.129976" lon="121.452361"/><rtept lat="25.130055" lon="121.452349"/><rtept lat="25.130125" lon="121.452327"/><rtept lat="25.130232" lon="121.452239"/><rtept lat="25.130334" lon="121.452235"/><rtept lat="25.130438" lon="121.452274"/><rtept lat="25.13053" lon="121.452285"/><rtept lat="25.130707" lon="121.452371"/><rtept lat="25.130783" lon="121.452376"/><rtept lat="25.130995" lon="121.452307"/><rtept lat="25.131144" lon="121.452297"/><rtept lat="25.131859" lon="121.452385"/><rtept lat="25.131892" lon="121.452401"/><rtept lat="25.132009" lon="121.452429"/><rtept lat="25.132077" lon="121.452432"/><rtept lat="25.132145" lon="121.452456"/><rtept lat="25.132322" lon="121.452462"/><rtept lat="25.132344" lon="121.452414"/><rtept lat="25.13242" lon="121.452397"/><rtept lat="25.13251" lon="121.452435"/><rtept lat="25.132646" lon="121.452398"/><rtept lat="25.132722" lon="121.452356"/><rtept lat="25.132868" lon="121.45224"/><rtept lat="25.132895" lon="121.452233"/><rtept lat="25.133203" lon="121.452156"/><rtept lat="25.133375" lon="121.452152"/><rtept lat="25.133442" lon="121.452146"/><rtept lat="25.133541" lon="121.452124"/><rtept lat="25.133786" lon="121.452024"/><rtept lat="25.13398" lon="121.451971"/><rtept lat="25.134149" lon="121.451889"/><rtept lat="25.134186" lon="121.451815"/><rtept lat="25.134208" lon="121.451789"/><rtept lat="25.135391" lon="121.451318"/><rtept lat="25.135796" lon="121.450959"/><rtept lat="25.135973" lon="121.450825"/><rtept lat="25.136249" lon="121.450673"/><rtept lat="25.136738" lon="121.45045"/><rtept lat="25.137161" lon="121.450268"/><rtept lat="25.137329" lon="121.450219"/><rtept lat="25.137539" lon="121.450256"/><rtept lat="25.137675" lon="121.450201"/><rtept lat="25.137815" lon="121.450204"/><rtept lat="25.138061" lon="121.450137"/><rtept lat="25.1381" lon="121.450061"/><rtept lat="25.138135" lon="121.450037"/><rtept lat="25.138182" lon="121.450029"/><rtept lat="25.138254" lon="121.450039"/><rtept lat="25.138293" lon="121.450024"/><rtept lat="25.138874" lon="121.449744"/><rtept lat="25.138904" lon="121.449743"/><rtept lat="25.139283" lon="121.449592"/><rtept lat="25.140356" lon="121.449221"/><rtept lat="25.140447" lon="121.449165"/><rtept lat="25.141216" lon="121.448901"/><rtept lat="25.141343" lon="121.44886"/><rtept lat="25.141443" lon="121.448812"/><rtept lat="25.141576" lon="121.448778"/><rtept lat="25.141798" lon="121.448754"/><rtept lat="25.141844" lon="121.448747"/><rtept lat="25.142015" lon="121.448714"/><rtept lat="25.142187" lon="121.448649"/><rtept lat="25.14237" lon="121.448597"/><rtept lat="25.142555" lon="121.448494"/><rtept lat="25.142648" lon="121.448392"/><rtept lat="25.142783" lon="121.448321"/><rtept lat="25.142863" lon="121.448234"/><rtept lat="25.142965" lon="121.448124"/><rtept lat="25.14316" lon="121.447994"/><rtept lat="25.143357" lon="121.447893"/><rtept lat="25.143495" lon="121.447733"/><rtept lat="25.143781" lon="121.447448"/><rtept lat="25.144145" lon="121.447212"/><rtept lat="25.144201" lon="121.447195"/><rtept lat="25.144317" lon="121.447154"/><rtept lat="25.144617" lon="121.446991"/><rtept lat="25.144882" lon="121.446975"/><rtept lat="25.144949" lon="121.446938"/><rtept lat="25.144994" lon="121.446911"/><rtept lat="25.146199" lon="121.446384"/><rtept lat="25.146297" lon="121.446344"/><rtept lat="25.14659" lon="121.446291"/><rtept lat="25.146778" lon="121.446231"/><rtept lat="25.146939" lon="121.446158"/><rtept lat="25.147089" lon="121.446058"/><rtept lat="25.147643" lon="121.445777"/><rtept lat="25.147819" lon="121.445637"/><rtept lat="25.147873" lon="121.445583"/><rtept lat="25.148123" lon="121.445298"/><rtept lat="25.148149" lon="121.445121"/><rtept lat="25.148268" lon="121.444984"/><rtept lat="25.148729" lon="121.444747"/><rtept lat="25.14884" lon="121.444636"/><rtept lat="25.148917" lon="121.444622"/><rtept lat="25.148949" lon="121.444632"/><rtept lat="25.14899" lon="121.444624"/><rtept lat="25.149209" lon="121.444466"/><rtept lat="25.149572" lon="121.444178"/><rtept lat="25.1498" lon="121.443965"/><rtept lat="25.149957" lon="121.443849"/><rtept lat="25.150024" lon="121.443793"/><rtept lat="25.150081" lon="121.443745"/><rtept lat="25.150292" lon="121.443644"/><rtept lat="25.150411" lon="121.443485"/><rtept lat="25.150553" lon="121.443412"/><rtept lat="25.151062" lon="121.44299"/><rtept lat="25.151115" lon="121.442975"/><rtept lat="25.151131" lon="121.442919"/></rte></gpx>