<?xml version="1.0" encoding="UTF-8" standalone="yes"?><gpx version="1.1" creator="openrouteservice" xmlns="https://raw.githubusercontent.com/GIScience/openrouteservice-schema/main/gpx/v2/ors-gpx.xsd"><metadata><name>openrouteservice directions</name><desc>This is a directions instructions file as GPX, generated from openrouteservice</desc><author><name>openrouteservice</name><email id="support" domain="openrouteservice.heigit.org"/><link href="https://openrouteservice.org/"><text>https://openrouteservice.org/</text><type>text/html</type></link></author><copyright author="openrouteservice.org | OpenStreetMap contributors"><year>2026</year><license>LGPL 3.0</license></copyright><time>2026-05-20T08:34:40.854Z</time><bounds maxlat="25.117394" maxlon="121.245194" minlat="25.030741" minlon="121.068248"/></metadata><rte><rtept lat="25.117264" lon="121.244553"/><rtept lat="25.117098" lon="121.24484"/><rtept lat="25.11738" lon="121.245055"/><rtept lat="25.117394" lon="121.245108"/><rtept lat="25.117342" lon="121.245194"/><rtept lat="25.117354" lon="121.24511"/><rtept lat="25.117325" lon="121.245053"/><rtept lat="25.116696" lon="121.244631"/><rtept lat="25.116422" lon="121.244487"/><rtept lat="25.116136" lon="121.244388"/><rtept lat="25.115847" lon="121.244222"/><rtept lat="25.115237" lon="121.243462"/><rtept lat="25.114326" lon="121.243128"/><rtept lat="25.113878" lon="121.242978"/><rtept lat="25.113802" lon="121.24297"/><rtept lat="25.113676" lon="121.242986"/><rtept lat="25.113421" lon="121.24304"/><rtept lat="25.112649" lon="121.243178"/><rtept lat="25.112534" lon="121.243186"/><rtept lat="25.112438" lon="121.242763"/><rtept lat="25.112427" lon="121.242289"/><rtept lat="25.112249" lon="121.241296"/><rtept lat="25.112071" lon="121.240314"/><rtept lat="25.111953" lon="121.239963"/><rtept lat="25.111492" lon="121.238001"/><rtept lat="25.110491" lon="121.234745"/><rtept lat="25.109825" lon="121.232674"/><rtept lat="25.109222" lon="121.230676"/><rtept lat="25.109157" lon="121.230584"/><rtept lat="25.109072" lon="121.230236"/><rtept lat="25.108919" lon="121.229615"/><rtept lat="25.108755" lon="121.228847"/><rtept lat="25.108659" lon="121.228294"/><rtept lat="25.108585" lon="121.227867"/><rtept lat="25.108192" lon="121.224787"/><rtept lat="25.108023" lon="121.223638"/><rtept lat="25.107963" lon="121.223324"/><rtept lat="25.107714" lon="121.222365"/><rtept lat="25.107046" lon="121.220481"/><rtept lat="25.105774" lon="121.217498"/><rtept lat="25.103997" lon="121.213273"/><rtept lat="25.103607" lon="121.212342"/><rtept lat="25.102545" lon="121.209807"/><rtept lat="25.101994" lon="121.208589"/><rtept lat="25.101305" lon="121.207312"/><rtept lat="25.10095" lon="121.206744"/><rtept lat="25.100672" lon="121.206351"/><rtept lat="25.099798" lon="121.205131"/><rtept lat="25.098535" lon="121.203606"/><rtept lat="25.096338" lon="121.201003"/><rtept lat="25.095072" lon="121.199465"/><rtept lat="25.094965" lon="121.199401"/><rtept lat="25.094665" lon="121.199041"/><rtept lat="25.09432" lon="121.198548"/><rtept lat="25.094148" lon="121.198165"/><rtept lat="25.093966" lon="121.197665"/><rtept lat="25.093812" lon="121.197129"/><rtept lat="25.093243" lon="121.194724"/><rtept lat="25.093053" lon="121.194142"/><rtept lat="25.092854" lon="121.193678"/><rtept lat="25.092361" lon="121.192888"/><rtept lat="25.092326" lon="121.192812"/><rtept lat="25.092281" lon="121.192729"/><rtept lat="25.091129" lon="121.191251"/><rtept lat="25.089968" lon="121.189593"/><rtept lat="25.088884" lon="121.187851"/><rtept lat="25.088345" lon="121.187046"/><rtept lat="25.087705" lon="121.186146"/><rtept lat="25.086518" lon="121.18452"/><rtept lat="25.085611" lon="121.183301"/><rtept lat="25.085345" lon="121.182914"/><rtept lat="25.08507" lon="121.182547"/><rtept lat="25.084747" lon="121.18213"/><rtept lat="25.084329" lon="121.181621"/><rtept lat="25.084107" lon="121.181309"/><rtept lat="25.083936" lon="121.18101"/><rtept lat="25.083567" lon="121.180366"/><rtept lat="25.083245" lon="121.179809"/><rtept lat="25.083108" lon="121.179445"/><rtept lat="25.082966" lon="121.179072"/><rtept lat="25.082676" lon="121.178287"/><rtept lat="25.082429" lon="121.177463"/><rtept lat="25.081851" lon="121.17484"/><rtept lat="25.081588" lon="121.173855"/><rtept lat="25.080596" lon="121.170887"/><rtept lat="25.079858" lon="121.168772"/><rtept lat="25.079822" lon="121.168581"/><rtept lat="25.079725" lon="121.168255"/><rtept lat="25.07956" lon="121.167798"/><rtept lat="25.079382" lon="121.167322"/><rtept lat="25.077768" lon="121.162646"/><rtept lat="25.077323" lon="121.161419"/><rtept lat="25.076392" lon="121.158671"/><rtept lat="25.076103" lon="121.157641"/><rtept lat="25.07599" lon="121.157117"/><rtept lat="25.075927" lon="121.15669"/><rtept lat="25.075801" lon="121.155561"/><rtept lat="25.075675" lon="121.153978"/><rtept lat="25.075507" lon="121.152152"/><rtept lat="25.075384" lon="121.15055"/><rtept lat="25.075282" lon="121.14951"/><rtept lat="25.075098" lon="121.148317"/><rtept lat="25.074918" lon="121.147701"/><rtept lat="25.074494" lon="121.146632"/><rtept lat="25.074132" lon="121.145999"/><rtept lat="25.073348" lon="121.144421"/><rtept lat="25.072879" lon="121.143607"/><rtept lat="25.071826" lon="121.141819"/><rtept lat="25.071241" lon="121.140894"/><rtept lat="25.071019" lon="121.140485"/><rtept lat="25.070915" lon="121.140265"/><rtept lat="25.070885" lon="121.140163"/><rtept lat="25.070759" lon="121.13973"/><rtept lat="25.070597" lon="121.138918"/><rtept lat="25.070541" lon="121.138482"/><rtept lat="25.070516" lon="121.13751"/><rtept lat="25.070479" lon="121.137039"/><rtept lat="25.070484" lon="121.136825"/><rtept lat="25.070325" lon="121.134655"/><rtept lat="25.070291" lon="121.133968"/><rtept lat="25.0702" lon="121.133477"/><rtept lat="25.070142" lon="121.132725"/><rtept lat="25.070118" lon="121.13189"/><rtept lat="25.070119" lon="121.13181"/><rtept lat="25.070058" lon="121.130912"/><rtept lat="25.070047" lon="121.130335"/><rtept lat="25.069982" lon="121.128387"/><rtept lat="25.069949" lon="121.126833"/><rtept lat="25.069948" lon="121.125343"/><rtept lat="25.06988" lon="121.123555"/><rtept lat="25.06982" lon="121.122494"/><rtept lat="25.069645" lon="121.121675"/><rtept lat="25.06943" lon="121.121057"/><rtept lat="25.069347" lon="121.12091"/><rtept lat="25.068038" lon="121.118175"/><rtept lat="25.067469" lon="121.116951"/><rtept lat="25.066948" lon="121.115707"/><rtept lat="25.065839" lon="121.112411"/><rtept lat="25.065322" lon="121.111446"/><rtept lat="25.064858" lon="121.110789"/><rtept lat="25.063692" lon="121.109441"/><rtept lat="25.063211" lon="121.108827"/><rtept lat="25.063007" lon="121.108582"/><rtept lat="25.062254" lon="121.107559"/><rtept lat="25.061319" lon="121.106232"/><rtept lat="25.060993" lon="121.105766"/><rtept lat="25.060666" lon="121.105335"/><rtept lat="25.05944" lon="121.10387"/><rtept lat="25.059114" lon="121.103454"/><rtept lat="25.058914" lon="121.103197"/><rtept lat="25.058556" lon="121.10264"/><rtept lat="25.058261" lon="121.102109"/><rtept lat="25.058205" lon="121.10201"/><rtept lat="25.058157" lon="121.101923"/><rtept lat="25.057165" lon="121.099881"/><rtept lat="25.055827" lon="121.096955"/><rtept lat="25.054868" lon="121.094745"/><rtept lat="25.054513" lon="121.093965"/><rtept lat="25.053508" lon="121.091991"/><rtept lat="25.053183" lon="121.091381"/><rtept lat="25.052695" lon="121.090464"/><rtept lat="25.052217" lon="121.089713"/><rtept lat="25.051522" lon="121.088478"/><rtept lat="25.05144" lon="121.088212"/><rtept lat="25.051239" lon="121.087829"/><rtept lat="25.051178" lon="121.087724"/><rtept lat="25.051075" lon="121.08762"/><rtept lat="25.049353" lon="121.084029"/><rtept lat="25.049081" lon="121.083369"/><rtept lat="25.048815" lon="121.082947"/><rtept lat="25.048746" lon="121.082841"/><rtept lat="25.048018" lon="121.081828"/><rtept lat="25.047249" lon="121.08082"/><rtept lat="25.046611" lon="121.080042"/><rtept lat="25.04642" lon="121.079838"/><rtept lat="25.045972" lon="121.079379"/><rtept lat="25.045019" lon="121.078391"/><rtept lat="25.044189" lon="121.077526"/><rtept lat="25.043076" lon="121.076305"/><rtept lat="25.042231" lon="121.07525"/><rtept lat="25.041853" lon="121.074669"/><rtept lat="25.041327" lon="121.073848"/><rtept lat="25.040826" lon="121.072901"/><rtept lat="25.040615" lon="121.072502"/><rtept lat="25.040356" lon="121.072675"/><rtept lat="25.040201" lon="121.072744"/><rtept lat="25.039934" lon="121.072637"/><rtept lat="25.039617" lon="121.072547"/><rtept lat="25.039529" lon="121.072511"/><rtept lat="25.039056" lon="121.072231"/><rtept lat="25.038319" lon="121.072035"/><rtept lat="25.037112" lon="121.071149"/><rtept lat="25.037091" lon="121.070975"/><rtept lat="25.036567" lon="121.070431"/><rtept lat="25.036132" lon="121.069967"/><rtept lat="25.035979" lon="121.069775"/><rtept lat="25.035564" lon="121.069139"/><rtept lat="25.035002" lon="121.068368"/><rtept lat="25.034918" lon="121.068248"/><rtept lat="25.034859" lon="121.068348"/><rtept lat="25.034656" lon="121.068553"/><rtept lat="25.033829" lon="121.069311"/><rtept lat="25.033709" lon="121.069444"/><rtept lat="25.033595" lon="121.069624"/><rtept lat="25.033563" lon="121.069732"/><rtept lat="25.03355" lon="121.069878"/><rtept lat="25.033566" lon="121.070093"/><rtept lat="25.033593" lon="121.070154"/><rtept lat="25.033435" lon="121.070129"/><rtept lat="25.033029" lon="121.069463"/><rtept lat="25.032763" lon="121.069036"/><rtept lat="25.032381" lon="121.069404"/><rtept lat="25.032259" lon="121.069219"/><rtept lat="25.032022" lon="121.069325"/><rtept lat="25.031953" lon="121.06939"/><rtept lat="25.031774" lon="121.069073"/><rtept lat="25.031597" lon="121.069209"/><rtept lat="25.031492" lon="121.06906"/><rtept lat="25.031238" lon="121.069222"/><rtept lat="25.030899" lon="121.069577"/><rtept lat="25.030741" lon="121.06972"/></rte></gpx>